{"data":{"site":{"pathPrefix":"/restaurant-inspections"},"postgres":{"establishment":[{"establishmentid":"527","name":"Lon's Ham and Corned Beef","address":"13600 Chicago Ave W","zipcode":"48228","owner":"Lon Merdita","licenseNumber":"075041","licenseType":"Fixed Establishment","establishmentType":"Food Service Establishment","establishmentStatus":"Open","riskCategory":"High","reviewFrequencyDays":"180.0","coords":"-83.17796,42.36595","geojson":{"id":"527","type":"Feature","geometry":{"type":"Point","coordinates":[-83.177962209,42.3659545360001]},"properties":{"name":"Lon's Ham and Corned Beef","owner":"Lon Merdita","address":"13600 Chicago Ave W","zipcode":"48228","license_type":"Fixed Establishment","risk_category":"High","license_number":"075041","establishmentid":"527","establishment_type":"Food Service Establishment","establishment_status":"Open","review_frequency_days":"180.0","most_recent_license_date":"5/1/2018"}},"nearbyList":[{"establishmentid":"4488","name":"Sister Love Treats","address":"9126 Ward St","zipcode":"48228"},{"establishmentid":"51622726","name":"Genesis House 2","address":"12900 W Chicago Rd","zipcode":"48228"},{"establishmentid":"3976","name":"Manhattan Fish and Chicken","address":"8712 Schaefer Ave ","zipcode":"48228"},{"establishmentid":"3463","name":"Breithaupt Career/Technical Center","address":"9300 Hubbell Ave","zipcode":"48228"},{"establishmentid":"722","name":"Club Celebrity","address":"14421 Plymouth Rd","zipcode":"48227"},{"establishmentid":"3535","name":"Front Page Deli","address":"14744 W Chicago","zipcode":"48228"},{"establishmentid":"2077","name":"Superior Coney Island","address":"14501 Joy Rd","zipcode":"48228"},{"establishmentid":"5065","name":"Johnson's Southern Bar And Grille","address":"14701 Plymouth Rd","zipcode":"48227"},{"establishmentid":"878","name":"John's Grill Coney Island","address":"10534 W Chicago","zipcode":"48204"},{"establishmentid":"505","name":"Blue Star Lounge","address":"10600 Joy Rd","zipcode":"48204"},{"establishmentid":"734","name":"Verdell's Lounge","address":"14826 Plymouth Rd","zipcode":"48227"},{"establishmentid":"5230","name":"Detroit Fresh Fish & Chicken Market inc.","address":"10515 Joy Rd","zipcode":"48204"},{"establishmentid":"51622497","name":"Islamic Center of Detroit","address":"14350 Tireman Ave","zipcode":"48228"},{"establishmentid":"2454","name":"Happy's Pizza #6","address":"15128 Plymouth Rd","zipcode":"48227"},{"establishmentid":"2874","name":"Fish Express","address":"12555 Grand River Ste 400","zipcode":"48204"},{"establishmentid":"3153","name":"1st Wok","address":"12555 Grand River Ave #150","zipcode":"48204"},{"establishmentid":"4150","name":"Grace Bible Chapel","address":"5440 Oakman Blvd","zipcode":"48204"},{"establishmentid":"4337","name":"MacKenzie PK-8","address":"10147 W Chicago Ave","zipcode":"48208"},{"establishmentid":"2277","name":"Galaxy Coney Island","address":"13611 Grand River Ave","zipcode":"48227"},{"establishmentid":"1495","name":"McDonald's #5456","address":"13676 Grand River Ave","zipcode":"48227"}],"inspectionsByEstablishmentidList":[{"inspectionid":"43982","inspectionDate":"2018-10-31T00:00:00","inspectionType":"Routine Inspection","inCompliance":"Yes","violationsByInspectionidList":[]},{"inspectionid":"41946","inspectionDate":"2018-04-12T00:00:00","inspectionType":"Routine Inspection","inCompliance":"Yes","violationsByInspectionidList":[]},{"inspectionid":"40182","inspectionDate":"2017-09-28T00:00:00","inspectionType":"Routine Inspection","inCompliance":"Yes","violationsByInspectionidList":[]},{"inspectionid":"38412","inspectionDate":"2017-03-30T00:00:00","inspectionType":"Routine Inspection","inCompliance":"Yes","violationsByInspectionidList":[{"violationCode":"MFL289.2129","violationDescription":"Sec. 2129. (1) All of the following food establishments shall employ a minimum of 1 managerial employee who is currently certified under a personnel certification program accredited by the American national standards institute, utilizing the conference for food protection standards:  (a) A food service establishment that is not any of the following:    (i) Operating under a temporary food service establishment license.  (ii) A vending machine location.     (b) An extended retail food establishment.  (c) Operated within a retail grocery.  (2) An individual certified under subsection (1) shall be recognized with full faith and credit by the state and all local units of government throughout the state.  (3) The department may promulgate rules to do all of the following:  (a) Develop requirements for retail food establishments to follow when employing certified food safety managers or personnel.  (b) Set a reasonable date for compliance with the requirements under subdivision (a) taking into consideration existing local personnel certification requirements.  (c) Establish certification fees necessary to implement, maintain, and track certified individuals directly or by contract. The department may annually adjust the schedule of fees to provide that the fee charged is sufficient to cover the cost of the certification tracking program.  (d) Implement and enforce the requirements described in subdivision (a).    (4) The certification program developed by the American national standards institute, as it exists on April 1, 2008 , is incorporated by reference. The department may adopt updates to the certification program accreditation standards in subsection (1) by rule.     (5) This section does not prohibit any local legislative body from implementing a food handler program, an employee health certification program, or a manager certification program, if it is not in conflict with this section.","violationType":"Core","itemDescription":null,"subItem":"","problemDescription":null,"subProblem":"","location":"ESTABLISHMENT","subLocation":"","corrected":"Not required","daysToCorrect":"30.0","correctedDate":null,"correctionDescription":null}]},{"inspectionid":"36840","inspectionDate":"2016-10-18T00:00:00","inspectionType":"Routine Inspection","inCompliance":"Yes","violationsByInspectionidList":[]}]}]}},"pageContext":{"eid":"527"}}