{"data":{"postgres":{"establishment":[{"establishmentid":"686","name":"West Indian Amerian Assn","address":"2015 E Seven Mile Rd","zipcode":"48234","owner":"West Indian American Assn","licenseNumber":"062424","licenseType":"Fixed Establishment","establishmentType":"Food Service Establishment","establishmentStatus":"Open","riskCategory":"Medium","reviewFrequencyDays":"365.0","coords":"-83.08129,42.43318","geojson":{"id":"686","type":"Feature","geometry":{"type":"Point","coordinates":[-83.0812922599999,42.433178222]},"properties":{"name":"West Indian Amerian Assn","owner":"West Indian American Assn","address":"2015 E Seven Mile Rd","zipcode":"48234","license_type":"Fixed Establishment","risk_category":"Medium","license_number":"062424","establishmentid":"686","establishment_type":"Food Service Establishment","establishment_status":"Open","review_frequency_days":"365.0","most_recent_license_date":"4/20/2016"}},"nearbyList":[{"establishmentid":"1197","name":"Yiu Chan Restaurant","address":"2415 E Seven Mile Rd","zipcode":"48234"},{"establishmentid":"51622598","name":"Clarks Smokehouse Grill","address":"2440 E Seven Mile Rd","zipcode":"48234"},{"establishmentid":"4486","name":"Christian Guidance Center","address":"19211 Anglin St","zipcode":"48234"},{"establishmentid":"682","name":"Mr. Mapps Lounge","address":"1627 E Seven Mile Rd","zipcode":"48203"},{"establishmentid":"2724","name":"Grinder 2","address":"1648 E Seven Mile Rd","zipcode":"48203"},{"establishmentid":"3220","name":"Hash Brown Cafe","address":"19458 Conant Ave","zipcode":"48234"},{"establishmentid":"250","name":"Erotic City","address":"19326 Conant Ave","zipcode":"48234"},{"establishmentid":"3072","name":"Munchee's Mania","address":"19310 Conant Ave","zipcode":"48234"},{"establishmentid":"1398","name":"Asian Corned Beef","address":"2847 E Seven Mile Rd","zipcode":"48234"},{"establishmentid":"2377","name":"Pete's Grill","address":"1400 E Outer Dr","zipcode":"48234"},{"establishmentid":"3621","name":"Nunn's Bar-B-Que Restaurant II","address":"19196 Conant Ave","zipcode":"48234"},{"establishmentid":"5281","name":"Davison Fish N Seafood LLC","address":"1520 E Seven Mile","zipcode":"48203"},{"establishmentid":"337","name":"Happy's Pizza #2","address":"2855 E Seven Mile Rd","zipcode":"48234"},{"establishmentid":"1919","name":"L & L Adult Day Care","address":"1485 E Outer Dr","zipcode":"48234"},{"establishmentid":"51622580","name":"The New  Conant Street Grill","address":"19132 Conant St","zipcode":"48234"},{"establishmentid":"51622584","name":"Conant St. Grill","address":"19132 Conant ","zipcode":"48234"},{"establishmentid":"1139","name":"Church's Fried Chicken #648","address":"2928 E Seven Mile Rd","zipcode":"48211"},{"establishmentid":"488","name":"Deluxe Coney Island","address":"2923 E Seven Mile Rd","zipcode":"48234"},{"establishmentid":"1751","name":"Ambiance","address":"2959 E Seven Mile Rd","zipcode":"48234"},{"establishmentid":"733","name":"Gold Coast","address":"2971 E Seven Mile Rd","zipcode":"48234"}],"inspectionsByEstablishmentidList":[{"inspectionid":"42731","inspectionDate":"2018-06-29T00:00:00","inspectionType":"Routine Inspection","inCompliance":"Yes","violationsByInspectionidList":[]},{"inspectionid":"39099","inspectionDate":"2017-06-08T00:00:00","inspectionType":"Routine Inspection","inCompliance":"Yes","violationsByInspectionidList":[]}]}]}},"pageContext":{"eid":"686"}}