{"componentChunkName":"component---src-templates-establishment-page-js","path":"/establishment/51623075","result":{"data":{"site":{"pathPrefix":"/restaurant-inspections"},"postgres":{"establishment":[{"establishmentid":"51623075","name":"Detroit Prep","address":"8411 Sylvester","zipcode":"48214","owner":"Detroit Prep QALICB","licenseNumber":"262927","licenseType":"Fixed Establishment","establishmentType":"Food Service Establishment","establishmentStatus":"Plan Review","riskCategory":null,"reviewFrequencyDays":null,"coords":"-83.00382,42.37167","geojson":{"id":"51623075","type":"Feature","geometry":{"type":"Point","coordinates":[-83.003821156,42.371674786]},"properties":{"name":"Detroit Prep","owner":"Detroit Prep QALICB","address":"8411 Sylvester","zipcode":"48214","license_type":"Fixed Establishment","risk_category":null,"license_number":"262927","establishmentid":"51623075","establishment_type":"Food Service Establishment","establishment_status":"Plan Review","review_frequency_days":null,"most_recent_license_date":"4/11/2022"}},"nearbyList":[{"establishmentid":"862","name":"Joyce Elementary","address":"8411 Sylvester","zipcode":"48213"},{"establishmentid":"933","name":"Barbour Jr.High","address":"4209 Seneca","zipcode":"48214"},{"establishmentid":"4831","name":"Cesar Chavez Academy - East","address":"4130 Maxwell","zipcode":"48214"},{"establishmentid":"1158","name":"Franklin Gourmet Dairy Bar","address":"8405 Mack Ave.","zipcode":"48214"},{"establishmentid":"2032","name":"Inner City Sub Center","address":"8411 Forest E.","zipcode":"48214"},{"establishmentid":"4713","name":"Inner City Sub","address":"8411 E. Forest ","zipcode":null},{"establishmentid":"3555","name":"Friends of Detroit & Tri County","address":"8230 Forest Ave. E.","zipcode":"48214"},{"establishmentid":"51622465","name":"The Commons","address":"7900 Mack","zipcode":"48214"},{"establishmentid":"3336","name":"J & C Fun Foods II","address":"4429 Van Dyke Ave.","zipcode":"48212"},{"establishmentid":"4172","name":"J & C Fun Foods III","address":"4429 Van Dyke","zipcode":"48214"}],"inspectionsByEstablishmentidList":[{"inspectionid":"59439","inspectionDate":"2022-05-31T00:00:00","inspectionType":"Routine Inspection","inCompliance":"Yes","violationsByInspectionidList":[{"violationCode":"7-201.11","violationDescription":"POISONOUS OR TOXIC MATERIAL shall be stored so they can not contaminate FOOD, EQUIPMENT, UTENSILS, LINENS, AND SINGLE-SERVICE AND SINGLE-USE ARTICLES by:   \n(A) Separating the POISONOUS OR TOXIC MATERIAL by spacing or partitioning; (P) and   \n(B) Locating the POISONOUS OR TOXIC MATERIAL in an area that is not above FOOD, EQUIPMENT, UTENSILS, LINENS, AND SINGLE-SERVICE AND SINGLE-USE ARTICLES.  This paragraph does not apply to EQUIPMENT and UTENSIL cleaners and sanitizers that are stored in WAREWASHING areas for availability and convenience if the materials are stored to prevent contamination of FOOD, EQUIPMENT, UTENSILS, LINENS, AND SINGLE-SERVICE and SINGLE-USE ARTICLES. (P)","violationType":"Priority","itemDescription":"Poisonous/toxic material(s)","subItem":null,"problemDescription":"Stored over/with","subProblem":"Single-service/use items","location":"STORAGE AREA(S)","subLocation":"On the Storage rack(s)","corrected":"True","daysToCorrect":"10","correctedDate":"2022-05-31T00:00:00","correctionDescription":"Provide adequate separation to prevent contamination."}]}]}],"maxInspectionDate":[{"inspectionDate":"2022-07-25T00:00:00"}]}},"pageContext":{"eid":"51623075"}},"staticQueryHashes":["3649515864","63159454"]}