{"componentChunkName":"component---src-templates-establishment-page-js","path":"/establishment/51623662","result":{"data":{"site":{"pathPrefix":"/restaurant-inspections"},"postgres":{"establishment":[{"establishmentid":"51623662","name":"Soul 2 Go","address":"9900 Whittier","zipcode":"48224","owner":"Travez Daniel","licenseNumber":"266442","licenseType":"Fixed Establishment","establishmentType":"Food Service Establishment","establishmentStatus":"Plan Review","riskCategory":null,"reviewFrequencyDays":"150","coords":"-82.94743,42.41488","geojson":{"id":"51623662","type":"Feature","geometry":{"type":"Point","coordinates":[-82.947434279,42.414882688]},"properties":{"name":"Soul 2 Go","owner":"Travez Daniel","address":"9900 Whittier","zipcode":"48224","license_type":"Fixed Establishment","risk_category":null,"license_number":"266442","establishmentid":"51623662","establishment_type":"Food Service Establishment","establishment_status":"Plan Review","review_frequency_days":"150","most_recent_license_date":null}},"nearbyList":[{"establishmentid":"955","name":"Marvin L. Winans Academy K-8","address":"9740 McKinney","zipcode":"48224"},{"establishmentid":"1945","name":"CA Goodies to Go","address":"10223 Whittier Ave.","zipcode":"48224"},{"establishmentid":"3507","name":"Chef's Kitchen Cafe","address":"10223 Whittier Ave.","zipcode":"48224"},{"establishmentid":"3581","name":"Tripple \"I\" Caribbean Jerk & Soul Food","address":"10230 Whittier","zipcode":"48224"},{"establishmentid":"5290","name":"Charlie's Jolly Cones","address":"9194 Whittier","zipcode":"48224"},{"establishmentid":"689","name":"I-Rock Nightclub","address":"16350-54 Harper","zipcode":"48224"},{"establishmentid":"4936","name":"Checker's #3426","address":"16511 Harper Rd","zipcode":"48224"},{"establishmentid":"1315","name":"Taco Bell #1930","address":"16511 Harper","zipcode":"48224"},{"establishmentid":"5243","name":"Vergotes Poultry & Fish Inc.","address":"16523 Harper","zipcode":"48224"},{"establishmentid":"4430","name":"Franks 'N' Dranks","address":"10535  McKinney","zipcode":"48224"}],"inspectionsByEstablishmentidList":[{"inspectionid":"59334","inspectionDate":"2022-05-10T00:00:00","inspectionType":"Preopening/New","inCompliance":"Yes","violationsByInspectionidList":[{"violationCode":"6-303.11","violationDescription":"Light of the proper intensity shall be provided as specified.\n","violationType":"Core","itemDescription":"Lighting intensity","subItem":"","problemDescription":"Not maintained","subProblem":"","location":"PREP AREA(S)","subLocation":"","corrected":"False","daysToCorrect":"30","correctedDate":null,"correctionDescription":null}]}]}],"maxInspectionDate":[{"inspectionDate":"2023-04-13T00:00:00"}]}},"pageContext":{"eid":"51623662"}},"staticQueryHashes":["3649515864","63159454"]}