{"componentChunkName":"component---src-templates-establishment-page-js","path":"/establishment/51624041","result":{"data":{"site":{"pathPrefix":"/restaurant-inspections"},"postgres":{"establishment":[{"establishmentid":"51624041","name":"Puma","address":"4725 16th St.","zipcode":"48208","owner":"Prince Realty","licenseNumber":"PR23049B","licenseType":"Fixed Establishment","establishmentType":"Food Service Establishment","establishmentStatus":"Plan Review","riskCategory":null,"reviewFrequencyDays":null,"coords":"-83.08863,42.34752","geojson":{"id":"51624041","type":"Feature","geometry":{"type":"Point","coordinates":[-83.088628902,42.347515405]},"properties":{"name":"Puma","owner":"Prince Realty","address":"4725 16th St.","zipcode":"48208","license_type":"Fixed Establishment","risk_category":null,"license_number":"PR23049B","establishmentid":"51624041","establishment_type":"Food Service Establishment","establishment_status":"Plan Review","review_frequency_days":null,"most_recent_license_date":null}},"nearbyList":[{"establishmentid":"51623374","name":"Barda Detroit","address":"4842 Grand River","zipcode":"48208"},{"establishmentid":"51622688","name":"Magnet","address":"4848 Grand River","zipcode":"48208"},{"establishmentid":"5205","name":"Motor City Coney & Grill","address":"4848 Grand river","zipcode":"48207"},{"establishmentid":"51622649","name":"The Commissary","address":"4848 Grand River","zipcode":"48208"},{"establishmentid":"51623971","name":"Core City Cafe","address":"4884 Grand River #2A","zipcode":"48208"},{"establishmentid":"51624035","name":"Lady of the House","address":"4884 Grand River","zipcode":"48208"},{"establishmentid":"51623197","name":"St. Leos Soup Kitchen","address":"4800 Grand River Ave.","zipcode":"48208"},{"establishmentid":"1411","name":"St. Leo's","address":"4860 Fifteenth St.","zipcode":"48208"},{"establishmentid":"2442","name":"George Crockett Academy","address":"4851 Fourteenth","zipcode":"48208"},{"establishmentid":"491","name":"Unique's Fast Food Restaurant","address":"2100 Warren W.","zipcode":"48208"}],"inspectionsByEstablishmentidList":[]}],"maxInspectionDate":[{"inspectionDate":"2023-04-25T00:00:00"}]}},"pageContext":{"eid":"51624041"}},"staticQueryHashes":["3649515864","63159454"]}