{"data":{"postgres":{"establishment":[{"establishmentid":"4005","name":"M H Soft Serve","address":"4177 Dodge","zipcode":"48211","owner":"Hafed Almasmari","licenseNumber":"218099","licenseType":"Mobile Food Establishment","establishmentType":"LHD - Mobile Food Establishmen","establishmentStatus":"Open","riskCategory":null,"reviewFrequencyDays":"395.0","coords":"-83.03905,42.39400","geojson":{"id":"4005","type":"Feature","geometry":{"type":"Point","coordinates":[-83.039048524,42.394004769]},"properties":{"name":"M H Soft Serve","owner":"Hafed Almasmari","address":"4177 Dodge","zipcode":"48211","license_type":"Mobile Food Establishment","risk_category":null,"license_number":"218099","establishmentid":"4005","establishment_type":"LHD - Mobile Food Establishmen","establishment_status":"Open","review_frequency_days":"395.0","most_recent_license_date":"5/10/2017"}},"nearbyList":[{"establishmentid":"5353","name":"Fresh Land","address":"6148 Georgia","zipcode":"48211"},{"establishmentid":"4810","name":"U.S.A Ice Cream","address":"4069 Dodge St","zipcode":"48211"},{"establishmentid":"5342","name":"Oakland International Academy","address":"6111 Miller St","zipcode":"48211"},{"establishmentid":"5369","name":"Spiderman Ice Cream","address":"5975 Hedge St","zipcode":"48211"},{"establishmentid":"5343","name":"Oakland International Academy","address":"4001 Miller St","zipcode":null},{"establishmentid":"4777","name":"Mr. Primo Softy","address":"8215 Winkelman Street","zipcode":"48211"},{"establishmentid":"5218","name":"S & A Ice Cream","address":"8189 Winkelman St","zipcode":"48211"},{"establishmentid":"5344","name":"Oakland International Academy","address":"8228 Conant St","zipcode":"48211"},{"establishmentid":"4047","name":"Omar's Soft Serve","address":"3833 Evaline","zipcode":"48212"},{"establishmentid":"4809","name":"Moe's Ice Cream","address":"3833 Evaline","zipcode":"48212"},{"establishmentid":"4199","name":"Simpson Softy","address":"3005 Jacob St","zipcode":"48212"},{"establishmentid":"51622492","name":"GM Cadillac Detroit","address":"2500 E Grand Blvd","zipcode":"48211"},{"establishmentid":"1799","name":"AVI Food Systems, Inc.","address":"2500 E Grand Blvd","zipcode":"48211"},{"establishmentid":"1073","name":"Hong Moy","address":"7415 Harper Ave","zipcode":"48213"},{"establishmentid":"51622665","name":"Van Dyke Coney Island","address":"9235 Van Dyke Ave","zipcode":"48213"},{"establishmentid":"2695","name":"Akebulan Village","address":"7701 Harper Ave","zipcode":"48213"},{"establishmentid":"3814","name":"Royal Barbecue and Grill","address":"5844 Mt Elliott Ave","zipcode":"48211"},{"establishmentid":"51622748","name":"S.E Ice Cream","address":"2455 Andrus St","zipcode":"48212"},{"establishmentid":"51622747","name":"S.L Ice Cream","address":"2455 Andrus St","zipcode":"48212"},{"establishmentid":"5216","name":"OW Soft Serve","address":"2456 Faber","zipcode":"48212"}],"inspectionsByEstablishmentidList":[{"inspectionid":"42921","inspectionDate":"2018-05-11T00:00:00","inspectionType":"Routine Inspection","inCompliance":"Yes","violationsByInspectionidList":[]},{"inspectionid":"38672","inspectionDate":"2017-05-10T00:00:00","inspectionType":"Mobile Inspection","inCompliance":"Yes","violationsByInspectionidList":[]}]}]}},"pageContext":{"eid":"4005"}}