{"componentChunkName":"component---src-templates-establishment-page-js","path":"/establishment/51622690","result":{"data":{"site":{"pathPrefix":"/restaurant-inspections"},"postgres":{"establishment":[{"establishmentid":"51622690","name":"The Corner Ballpark-Portables","address":"1680 Michigan","zipcode":"48216","owner":"Detroit Police Athletic League","licenseNumber":"ps012518","licenseType":"Fixed Establishment","establishmentType":"Food Service Establishment","establishmentStatus":"Plan Review","riskCategory":null,"reviewFrequencyDays":null,"coords":"-83.06938,42.33196","geojson":{"id":"51622690","type":"Feature","geometry":{"type":"Point","coordinates":[-83.069380605,42.331959692]},"properties":{"name":"The Corner Ballpark-Portables","owner":"Detroit Police Athletic League","address":"1680 Michigan","zipcode":"48216","license_type":"Fixed Establishment","risk_category":null,"license_number":"ps012518","establishmentid":"51622690","establishment_type":"Food Service Establishment","establishment_status":"Plan Review","review_frequency_days":null,"most_recent_license_date":null}},"nearbyList":[{"establishmentid":"51622686","name":"Detroit Police Athletic League","address":"1680 Michigan Ave.","zipcode":"48216"},{"establishmentid":"386","name":"Batter's Box Bar Inc","address":"1716 Michigan Ave.","zipcode":"48216"},{"establishmentid":"51622463","name":"Corktown Tavern Inc.","address":"1716 Michigan","zipcode":"48216"},{"establishmentid":"4781","name":"Bucharest Grill","address":"1623 Michigan","zipcode":"48216"},{"establishmentid":"561","name":"Great Wall","address":"1623 Michigan Ave.","zipcode":"48216"},{"establishmentid":"5378","name":"Bobcat Bonnies","address":"1800 Michigan Ave.","zipcode":"48216"},{"establishmentid":"3460","name":"Oblivions","address":"1800 Michigan Ave.","zipcode":"48216"},{"establishmentid":"51623100","name":"Toma Detroit","address":"1830 Michigan","zipcode":"48216"},{"establishmentid":"407","name":"Casey's Pub d/b/a The Red Corridor","address":"1830 Michigan Ave.","zipcode":"48216"},{"establishmentid":"51623852","name":"Last Chance Saloon","address":"1830 Michigan","zipcode":"48216"}],"inspectionsByEstablishmentidList":[]}],"maxInspectionDate":[{"inspectionDate":"2023-04-25T00:00:00"}]}},"pageContext":{"eid":"51622690"}},"staticQueryHashes":["3649515864","63159454"]}