{"data":{"site":{"pathPrefix":"/restaurant-inspections"},"postgres":{"establishment":[{"establishmentid":"270","name":"Stonehouse Bar","address":"19803 Ralston","zipcode":"48203","owner":"James B. Gruda","licenseNumber":"033930","licenseType":"Fixed Establishment","establishmentType":"Food Service Establishment","establishmentStatus":"Open","riskCategory":"Medium","reviewFrequencyDays":"365.0","coords":"-83.11736,42.43847","geojson":{"id":"270","type":"Feature","geometry":{"type":"Point","coordinates":[-83.1173550509999,42.4384650100001]},"properties":{"name":"Stonehouse Bar","owner":"James B. Gruda","address":"19803 Ralston","zipcode":"48203","license_type":"Fixed Establishment","risk_category":"Medium","license_number":"033930","establishmentid":"270","establishment_type":"Food Service Establishment","establishment_status":"Open","review_frequency_days":"365.0","most_recent_license_date":"4/28/2017"}},"nearbyList":[{"establishmentid":"225","name":"Renaissance Bowling Center","address":"19600 Woodward Ave","zipcode":"48203"},{"establishmentid":"51622662","name":"Wingstop","address":"1331 W Eight Mile Rd","zipcode":"48203"},{"establishmentid":"4683","name":"Wing Stop","address":"1331 W Eight Mile Rd","zipcode":"48203"},{"establishmentid":"4826","name":"Starbucks Coffee Co","address":"1327 W Eight Mile Rd","zipcode":"48203"},{"establishmentid":"4704","name":"Subway","address":"1335 W Eight Mile ","zipcode":"48203"},{"establishmentid":"4836","name":"McDonald's","address":"1321 W Eight Mile Rd","zipcode":"4822"},{"establishmentid":"51622792","name":"Lefty's","address":"1335 W Eight Mile Rd","zipcode":"48203"},{"establishmentid":"51622929","name":"Asian Corned Beef","address":"19102 Woodward Ave","zipcode":"48203"},{"establishmentid":"5032","name":"Tasty World","address":"19102 Woodward","zipcode":"48201"},{"establishmentid":"993","name":"Palmer Park Golf Course 3216","address":"19013 Woodward Ave","zipcode":"48203"}],"inspectionsByEstablishmentidList":[{"inspectionid":"40734","inspectionDate":"2017-10-27T00:00:00","inspectionType":"Routine Inspection","inCompliance":"Yes","violationsByInspectionidList":[]},{"inspectionid":"36857","inspectionDate":"2016-10-20T00:00:00","inspectionType":"Routine Inspection","inCompliance":"Yes","violationsByInspectionidList":[]}]}],"maxInspectionDate":[{"inspectionDate":"2019-05-31T00:00:00"}]}},"pageContext":{"eid":"270"}}