{"componentChunkName":"component---src-templates-establishment-page-js","path":"/establishment/4312","result":{"data":{"site":{"pathPrefix":"/restaurant-inspections"},"postgres":{"establishment":[{"establishmentid":"4312","name":"Holy Redeemer Church","address":"1721  Junction Ave.","zipcode":"48209","owner":" Rev.Dennis Walsh-SOLT","licenseNumber":"1721ag","licenseType":"Fixed Establishment","establishmentType":"Food Service Establishment","establishmentStatus":"Plan Review","riskCategory":null,"reviewFrequencyDays":null,"coords":"-83.10217,42.31707","geojson":{"id":"4312","type":"Feature","geometry":{"type":"Point","coordinates":[-83.102165883,42.317065584]},"properties":{"name":"Holy Redeemer Church","owner":" Rev.Dennis Walsh-SOLT","address":"1721  Junction Ave.","zipcode":"48209","license_type":"Fixed Establishment","risk_category":null,"license_number":"1721ag","establishmentid":"4312","establishment_type":"Food Service Establishment","establishment_status":"Plan Review","review_frequency_days":null,"most_recent_license_date":null}},"nearbyList":[{"establishmentid":"4311","name":"Holy Redeemer Church","address":"1721 Junction","zipcode":"48209"},{"establishmentid":"954","name":"Covenant House/Life Skills","address":"5668 BAKER ST","zipcode":"48209"},{"establishmentid":"2707","name":"New York Pizza & Subs","address":"5620 Vernor W.","zipcode":"48209"},{"establishmentid":"3661","name":"Detroit Cristo Rey High School","address":"5679  Vernor St. W.","zipcode":"48209"},{"establishmentid":"1525","name":"Holy Redeemer Grade School","address":"1711 Junction Ave.","zipcode":"48209"},{"establishmentid":"259","name":"Duly's Coney Island","address":"5458 Vernor St. W.","zipcode":"48209"},{"establishmentid":"204","name":"Ruiz's Drop In","address":"5442 Vernor W.","zipcode":"48209"},{"establishmentid":"1452","name":"El Palenque","address":"5426 Vernor St. W.","zipcode":"48209"},{"establishmentid":"1338","name":"Columbo's Coney Island","address":"5414 Vernor St.W.","zipcode":"48209"},{"establishmentid":"51624051","name":"Nepantla Food Trailer, LLC ","address":"5410 W. Vernor Hwy","zipcode":"48209"}],"inspectionsByEstablishmentidList":[]}],"maxInspectionDate":[{"inspectionDate":"2023-04-25T00:00:00"}]}},"pageContext":{"eid":"4312"}},"staticQueryHashes":["3649515864","63159454"]}