{"componentChunkName":"component---src-templates-establishment-page-js","path":"/establishment/2723","result":{"data":{"site":{"pathPrefix":"/restaurant-inspections"},"postgres":{"establishment":[{"establishmentid":"2723","name":"Atlas Global Bistro","address":"3111 Woodward Ave.","zipcode":"48201","owner":"Mark Woodford/Nikki Barbour","licenseNumber":"050392","licenseType":"Fixed Establishment","establishmentType":"Food Service Establishment","establishmentStatus":"Open","riskCategory":null,"reviewFrequencyDays":"150","coords":"-83.05635,42.34432","geojson":{"id":"2723","type":"Feature","geometry":{"type":"Point","coordinates":[-83.056351299,42.344322588]},"properties":{"name":"Atlas Global Bistro","owner":"Mark Woodford/Nikki Barbour","address":"3111 Woodward Ave.","zipcode":"48201","license_type":"Fixed Establishment","risk_category":null,"license_number":"050392","establishmentid":"2723","establishment_type":"Food Service Establishment","establishment_status":"Open","review_frequency_days":"150","most_recent_license_date":null}},"nearbyList":[{"establishmentid":"4950","name":"Addison Eatery LLC","address":"3111 Woodward","zipcode":"48201"},{"establishmentid":"5224","name":"Pho Lucky","address":"3111 Woodward","zipcode":"48201"},{"establishmentid":"2036","name":"Ruby's Kitchen","address":"2966 Woodward Ave.","zipcode":"48201"},{"establishmentid":"4889","name":"Top China One","address":"3157 Woodward Ave.","zipcode":"48201"},{"establishmentid":"51623415","name":"Cafe Alto","address":"3100 Wood Ward Ste. 102","zipcode":"48208"},{"establishmentid":"5154","name":"Grey Ghost Detroit","address":"3100 Woodward Unit 25","zipcode":"48201"},{"establishmentid":"51622588","name":"BakersField (DBA) / JJA Detroit LLC","address":"3100  Woodward","zipcode":"48201-3400"},{"establishmentid":"5383","name":"New Order Coffee Roasters","address":"3100 Woodward","zipcode":"48201"},{"establishmentid":"51622670","name":"Second Best Bar","address":"42 Watson E.","zipcode":"48207"},{"establishmentid":"739","name":"Coalition on Temporary Shelter","address":"26 Peterboro","zipcode":"48201"}],"inspectionsByEstablishmentidList":[]}],"maxInspectionDate":[{"inspectionDate":"2023-04-13T00:00:00"}]}},"pageContext":{"eid":"2723"}},"staticQueryHashes":["3649515864","63159454"]}