{"data":{"site":{"pathPrefix":"/restaurant-inspections"},"postgres":{"establishment":[{"establishmentid":"51623306","name":"Speedy's Coney Island","address":"6211 W Warren Ave","zipcode":"48239","owner":"Ali Talih-Naji Hammoud","licenseNumber":"PS091620","licenseType":"Fixed Establishment","establishmentType":"Food Service Establishment","establishmentStatus":"Open","riskCategory":null,"reviewFrequencyDays":"90.0","coords":"-83.12931,42.34430","geojson":{"id":"51623306","type":"Feature","geometry":{"type":"Point","coordinates":[-83.129309833,42.344304891]},"properties":{"name":"Speedy's Coney Island","owner":"Ali Talih-Naji Hammoud","address":"6211 W Warren Ave","zipcode":"48239","license_type":"Fixed Establishment","risk_category":null,"license_number":"PS091620","establishmentid":"51623306","establishment_type":"Food Service Establishment","establishment_status":"Open","review_frequency_days":"90.0","most_recent_license_date":null}},"nearbyList":[{"establishmentid":"5367","name":"Nicky D's","address":"6211 W Warren Ave","zipcode":"4821"},{"establishmentid":"51622782","name":"Fast Treats","address":"6211 W Warren Ave","zipcode":"4821"},{"establishmentid":"1794","name":"White Castle #18","address":"6301 W Warren Ave","zipcode":"4821"},{"establishmentid":"51623254","name":"Power Hope & Grace Church","address":"6495 W Warren Ave","zipcode":"4821"},{"establishmentid":"1275","name":"Munger PK-8","address":"5525 Martin St","zipcode":"48238"},{"establishmentid":"51623301","name":"La Fogata Mexican Grill","address":"5015 Livernois Ave","zipcode":"4821"},{"establishmentid":"51622883","name":"El Molcajete","address":"4930 Livernois Ave","zipcode":"4821"},{"establishmentid":"5089","name":"La Zacatecana","address":"4930 Livernois","zipcode":"4821"},{"establishmentid":"51623073","name":"Gloria's Tacos Regios","address":"4930 Livernois Ave","zipcode":"48219"},{"establishmentid":"5090","name":"Subway","address":"4930 Livernois Ave","zipcode":"4821"}],"inspectionsByEstablishmentidList":[]}],"maxInspectionDate":[{"inspectionDate":"2020-10-30T00:00:00"}]}},"pageContext":{"eid":"51623306"}}