{"data":{"site":{"pathPrefix":null},"postgres":{"establishment":[{"establishmentid":"1991","name":"Mama's, Inc.","address":"14620 E Eight Mile Rd","zipcode":"48205","owner":"Violeta Vickie Juncaj","licenseNumber":"078343","licenseType":"Fixed Establishment","establishmentType":"Food Service Establishment","establishmentStatus":"Open","riskCategory":"High","reviewFrequencyDays":"180.0","coords":"-83.19102,42.44535","geojson":{"id":"1991","type":"Feature","geometry":{"type":"Point","coordinates":[-83.1910168369999,42.445345682]},"properties":{"name":"Mama's, Inc.","owner":"Violeta Vickie Juncaj","address":"14620 E Eight Mile Rd","zipcode":"48205","license_type":"Fixed Establishment","risk_category":"High","license_number":"078343","establishmentid":"1991","establishment_type":"Food Service Establishment","establishment_status":"Open","review_frequency_days":"180.0","most_recent_license_date":"4/26/2016"}},"nearbyList":[{"establishmentid":"5286","name":"Rinor LLC / Mama's","address":"14620 E Eight Mile Rd","zipcode":"48205"},{"establishmentid":"4915","name":"The Jamaican Pot","address":"14615 W Eight Mile Rd","zipcode":"48235"},{"establishmentid":"5116","name":"Subway","address":"15000 E Eight Mile Rd","zipcode":"48205"},{"establishmentid":"2776","name":"Nu Wave Fish & Chicken","address":"15030 E Eight Mile Rd","zipcode":"48205"},{"establishmentid":"4286","name":"Jalen Rose Leadership Acadamy","address":"15000 Trojan St","zipcode":"48235"},{"establishmentid":"5157","name":"44 Burrito","address":"14015 W Eight Mile Rd","zipcode":"48235"},{"establishmentid":"5151","name":"Pop'n Smoke BBQ","address":"13849 W 8 Mile Rd","zipcode":"48235"},{"establishmentid":"3199","name":"Detroit Fish & Shrimp III","address":"20030 James Couzens","zipcode":"48235"},{"establishmentid":"51622621","name":"Da Catch LLC","address":"20449 Schaefer Hwy","zipcode":"48235"},{"establishmentid":"5373","name":"Schaefer Fish Market LLC","address":"20449 Schaefer Hwy","zipcode":"48235"}],"inspectionsByEstablishmentidList":[]}]}},"pageContext":{"eid":"1991"}}