{"componentChunkName":"component---src-templates-establishment-page-js","path":"/establishment/4547","result":{"data":{"site":{"pathPrefix":"/restaurant-inspections"},"postgres":{"establishment":[{"establishmentid":"4547","name":"J and B Vending Inc ","address":"421 Madison","zipcode":"48226","owner":"Andrew Kodo","licenseNumber":"035939","licenseType":"Other","establishmentType":null,"establishmentStatus":null,"riskCategory":null,"reviewFrequencyDays":null,"coords":"-83.04528,42.33807","geojson":{"id":"4547","type":"Feature","geometry":{"type":"Point","coordinates":[-83.045280061,42.338069758]},"properties":{"name":"J and B Vending Inc ","owner":"Andrew Kodo","address":"421 Madison","zipcode":"48226","license_type":"Other","risk_category":null,"license_number":"035939","establishmentid":"4547","establishment_type":null,"establishment_status":null,"review_frequency_days":null,"most_recent_license_date":null}},"nearbyList":[{"establishmentid":"1622","name":"J & B Vending","address":"421 Madison","zipcode":"48226"},{"establishmentid":"322","name":"Twentieth Century Club, (Gem Theatre)","address":"333 Madison","zipcode":"48226"},{"establishmentid":"1106","name":"Music Hall Center","address":"350 Madison","zipcode":"48226"},{"establishmentid":"51623208","name":"LeCulture Cafe","address":"1452 Brush St","zipcode":"48226"},{"establishmentid":"1374","name":"The Courthouse Brasserie","address":"1436 Brush","zipcode":"48226"},{"establishmentid":"3925","name":"La Casa De La Habana Detroit","address":"1502 Randolph St.","zipcode":"48226"},{"establishmentid":"51623331","name":"La Casa De La Habana Detroit","address":"1502 Randolph St.","zipcode":"48226"},{"establishmentid":"2048","name":"Elwood Bar & Grill","address":"300 Adams E.","zipcode":"48226"},{"establishmentid":"1681","name":"Hilton Garden Inn/ American Grill","address":"351 Gratiot Ave.","zipcode":"48226"},{"establishmentid":"355","name":"Detroit Athletic Club","address":"241 Madison","zipcode":"48226"}],"inspectionsByEstablishmentidList":[]}],"maxInspectionDate":[{"inspectionDate":"2022-07-25T00:00:00"}]}},"pageContext":{"eid":"4547"}},"staticQueryHashes":["3649515864","63159454"]}