{"componentChunkName":"component---src-templates-establishment-page-js","path":"/establishment/51623881","result":{"data":{"site":{"pathPrefix":"/restaurant-inspections"},"postgres":{"establishment":[{"establishmentid":"51623881","name":"Soul Circus Inc. dba UniverSoul Circus","address":"2600 Atwater E.","zipcode":"48207","owner":"Soul Circus Inc.","licenseNumber":"350046","licenseType":"Fixed Establishment","establishmentType":"Food Service Establishment","establishmentStatus":"Open","riskCategory":"Medium","reviewFrequencyDays":"365","coords":"-83.02027,42.33528","geojson":{"id":"51623881","type":"Feature","geometry":{"type":"Point","coordinates":[-83.0202713,42.33528137]},"properties":{"name":"Soul Circus Inc. dba UniverSoul Circus","owner":"Soul Circus Inc.","address":"2600 Atwater E.","zipcode":"48207","license_type":"Fixed Establishment","risk_category":"Medium","license_number":"350046","establishmentid":"51623881","establishment_type":"Food Service Establishment","establishment_status":"Open","review_frequency_days":"365","most_recent_license_date":null}},"nearbyList":[{"establishmentid":"51623027","name":"The Aretha Franklin-Concession","address":"2600 Atwater","zipcode":"48207"},{"establishmentid":"2620","name":"The Aretha Franklin Amphiteatre","address":"2600 Atwater","zipcode":"48207"},{"establishmentid":"51623028","name":"The Aretha Franklin-Bars","address":"2600 Atwater","zipcode":"48207"},{"establishmentid":"4444","name":"The Right Productions","address":"2600 Atwater","zipcode":"48207"},{"establishmentid":"4755","name":"Chene Park - The Right Productions","address":"2600  Atwater E","zipcode":"48207"},{"establishmentid":"51623102","name":"Detroit Riverwalk Cafe LLC (Valade Park)","address":"2670 Atwater Street","zipcode":"48207"},{"establishmentid":"4100","name":"University Prep Science & Math High ","address":"2664 Franklin St.","zipcode":"48226"},{"establishmentid":"246","name":"Fuddruckers","address":"2630 Jefferson Ave. E.","zipcode":"48207"},{"establishmentid":"2292","name":"Atwater Block Brewery","address":"237 Jos Campau","zipcode":"48207"},{"establishmentid":"4161","name":"Prive Duex","address":"237 Joseph Campau","zipcode":"48207"}],"inspectionsByEstablishmentidList":[{"inspectionid":"61126","inspectionDate":"2022-12-03T00:00:00","inspectionType":"Mobile Inspection","inCompliance":"Yes","violationsByInspectionidList":[]}]}],"maxInspectionDate":[{"inspectionDate":"2023-04-25T00:00:00"}]}},"pageContext":{"eid":"51623881"}},"staticQueryHashes":["3649515864","63159454"]}