{"data":{"site":{"pathPrefix":"/restaurant-inspections"},"postgres":{"establishment":[{"establishmentid":"51623134","name":"BBQ Central","address":"12729 W Seven Mile Rd","zipcode":"48235","owner":"Dentia Ramsey","licenseNumber":"vt101519","licenseType":"Fixed Establishment","establishmentType":"Food Service Establishment","establishmentStatus":null,"riskCategory":null,"reviewFrequencyDays":"90.0","coords":"-83.17131,42.43099","geojson":{"id":"51623134","type":"Feature","geometry":{"type":"Point","coordinates":[-83.171311951,42.430985822]},"properties":{"name":"BBQ Central","owner":"Dentia Ramsey","address":"12729 W Seven Mile Rd","zipcode":"48235","license_type":"Fixed Establishment","risk_category":null,"license_number":"vt101519","establishmentid":"51623134","establishment_type":"Food Service Establishment","establishment_status":null,"review_frequency_days":"90.0","most_recent_license_date":null}},"nearbyList":[{"establishmentid":"5403","name":"Detroit Shawarma/Spice Giant","address":"12729 W Seven Mile Rd","zipcode":"48235"},{"establishmentid":"723","name":"Motor City Soul Food","address":"12700 W Seven Mile Rd","zipcode":"48235"},{"establishmentid":"669","name":"Lotus Gardens","address":"12832 W Seven Mile Rd","zipcode":"48235"},{"establishmentid":"4098","name":"Checkers #3310","address":"10711 W Seven Mile Rd","zipcode":"48221"},{"establishmentid":"3879","name":"Franks Anatra","address":"18700 Meyers","zipcode":"48221"},{"establishmentid":"5280","name":"Capital Hook Fish & Chicken Inc","address":"10600 W Seven Mile Rd","zipcode":"48221"},{"establishmentid":"912","name":"Macdowell Preparatory Academy","address":"4201 W Outer Dr","zipcode":"48238"},{"establishmentid":"5084","name":"Word In Action Christian Center","address":"19780 Meyers","zipcode":"48227"},{"establishmentid":"1869","name":"Little Caesar's Pizza #24","address":"10200 W Seven Mile Rd","zipcode":"48221"},{"establishmentid":"1705","name":"Northwest Community Programs, Inc.","address":"18100 Meyers","zipcode":"48235"}],"inspectionsByEstablishmentidList":[]}],"maxInspectionDate":[{"inspectionDate":"2019-10-31T00:00:00"}]}},"pageContext":{"eid":"51623134"}}