{"data":{"site":{"pathPrefix":"/restaurant-inspections"},"postgres":{"establishment":[{"establishmentid":"890","name":"Dixon Educational Learning Center","address":"8401 Trinity St","zipcode":"48228","owner":"Detroit Board of Education","licenseNumber":"034924","licenseType":"Fixed Establishment","establishmentType":"Public School","establishmentStatus":"Open","riskCategory":null,"reviewFrequencyDays":"210","coords":"-83.24790,42.35442","geojson":{"id":"890","type":"Feature","geometry":{"type":"Point","coordinates":[-83.247897261,42.354422295]},"properties":{"name":"Dixon Educational Learning Center","owner":"Detroit Board of Education","address":"8401 Trinity St","zipcode":"48228","license_type":"Fixed Establishment","risk_category":null,"license_number":"034924","establishmentid":"890","establishment_type":"Public School","establishment_status":"Open","review_frequency_days":"210","most_recent_license_date":"4/15/2019"}},"nearbyList":[{"establishmentid":"262","name":"B. M. G. Bar & Grill","address":"20809 Joy Rd","zipcode":"48228"},{"establishmentid":"51622775","name":"Joy & Green Mart LLC","address":"20000 Joy Rd","zipcode":"48228"},{"establishmentid":"719","name":"L. George Coney Island #7","address":"20003 Joy Rd","zipcode":"48228"},{"establishmentid":"1466","name":"China Garden","address":"19641 Joy Rd","zipcode":"48228"},{"establishmentid":"542","name":"3 ELEVEN ULTRA LOUNGE","address":"22100 W Warren Ave","zipcode":"48239"},{"establishmentid":"1236","name":"Ann Arbor Trail Magnet School","address":"7635 Chatham St","zipcode":"48228"},{"establishmentid":"473","name":"J.P.'s West","address":"22234 W Warren Ave","zipcode":"48239"},{"establishmentid":"5176","name":"Mary's Grill #2","address":"20804 Plymouth Rd","zipcode":"48228"},{"establishmentid":"261","name":"Park-Joy Bar","address":"23220 Joy Rd","zipcode":"48239"},{"establishmentid":"3921","name":"Westside Christian Academy","address":"9540 Bramell St","zipcode":"48239"}],"inspectionsByEstablishmentidList":[{"inspectionid":"49401","inspectionDate":"2019-10-09T00:00:00","inspectionType":"Routine Inspection","inCompliance":"Yes","violationsByInspectionidList":[{"violationCode":"6-501.111","violationDescription":"The presence of insects, rodents, and other pests shall be controlled to minimize their presence on the PREMISES.  by:\r\n(A) Routinely inspecting incoming shipments of FOOD and supplies; \r\n(B) Routinely inspecting the PREMISES for evidence of pests;\r\n(C) Using methods, if pests are found, such as trapping devices or other means of pest control as specified.(Pf) \r\n(D) Eliminating harborage conditions. \r\n","violationType":"Core","itemDescription":"Pest(s)","subItem":"","problemDescription":"Present in facility","subProblem":"","location":"DRY STORAGE AREA","subLocation":"","corrected":"Not required","daysToCorrect":"10","correctedDate":null,"correctionDescription":"Remove pests from facility."}]}]}],"maxInspectionDate":[{"inspectionDate":"2020-05-29T00:00:00"}]}},"pageContext":{"eid":"890"}}