{"componentChunkName":"component---src-templates-establishment-page-js","path":"/establishment/51623712","result":{"data":{"site":{"pathPrefix":"/restaurant-inspections"},"postgres":{"establishment":[{"establishmentid":"51623712","name":"Compass Group- Concessions ","address":"32 Monroe","zipcode":"48226","owner":"Compass Group","licenseNumber":"KP3232","licenseType":"Fixed Establishment","establishmentType":"Food Service Establishment","establishmentStatus":null,"riskCategory":null,"reviewFrequencyDays":null,"coords":"-83.04557,42.33218","geojson":{"id":"51623712","type":"Feature","geometry":{"type":"Point","coordinates":[-83.045572374,42.332175789]},"properties":{"name":"Compass Group- Concessions ","owner":"Compass Group","address":"32 Monroe","zipcode":"48226","license_type":"Fixed Establishment","risk_category":null,"license_number":"KP3232","establishmentid":"51623712","establishment_type":"Food Service Establishment","establishment_status":null,"review_frequency_days":null,"most_recent_license_date":null}},"nearbyList":[{"establishmentid":"3396","name":"Subway","address":"65 Cadillac Sq.","zipcode":"48226"},{"establishmentid":"1666","name":"Subway #14483","address":"660 Woodward","zipcode":"48226"},{"establishmentid":"3533","name":"Lunchtime Global","address":"660 Woodward","zipcode":"48226"},{"establishmentid":"3596","name":"Campo Marzio Enoteca","address":"660 Woodward","zipcode":"48226"},{"establishmentid":"3997","name":"Subway","address":"660 Woodward","zipcode":"48226"},{"establishmentid":"3252","name":"Bagels, Deli & More","address":"660 Woodward","zipcode":"48226"},{"establishmentid":"2081","name":"Jacoby's Bistro To Go","address":"660 Woodward","zipcode":"48226"},{"establishmentid":"1152","name":"Chris's Nautre Nook","address":"660 Woodward","zipcode":"48226"},{"establishmentid":"3588","name":"Small Plates Express ","address":"660 Woodward","zipcode":"48226"},{"establishmentid":"4001","name":"Subway","address":"660 Woodward","zipcode":"48226"}],"inspectionsByEstablishmentidList":[{"inspectionid":"59935","inspectionDate":"2022-08-05T00:00:00","inspectionType":"Routine Inspection","inCompliance":"Yes","violationsByInspectionidList":[]}]}],"maxInspectionDate":[{"inspectionDate":"2022-08-31T00:00:00"}]}},"pageContext":{"eid":"51623712"}},"staticQueryHashes":["3649515864","63159454"]}