{"componentChunkName":"component---src-templates-establishment-page-js","path":"/establishment/3127","result":{"data":{"site":{"pathPrefix":"/restaurant-inspections"},"postgres":{"establishment":[{"establishmentid":"3127","name":"Mo's Weenies","address":"12410 Duchess","zipcode":"48215","owner":"Fred Murray, Jr.","licenseNumber":"037452","licenseType":"Mobile Food Establishment","establishmentType":"LHD - Mobile Food Establishmen","establishmentStatus":"Open","riskCategory":null,"reviewFrequencyDays":"335","coords":"-82.95275,42.42915","geojson":{"id":"3127","type":"Feature","geometry":{"type":"Point","coordinates":[-82.952751093,42.429146107]},"properties":{"name":"Mo's Weenies","owner":"Fred Murray, Jr.","address":"12410 Duchess","zipcode":"48215","license_type":"Mobile Food Establishment","risk_category":null,"license_number":"037452","establishmentid":"3127","establishment_type":"LHD - Mobile Food Establishmen","establishment_status":"Open","review_frequency_days":"335","most_recent_license_date":null}},"nearbyList":[{"establishmentid":"4336","name":"King Fish & Chicken","address":"12400 Morang","zipcode":"48224"},{"establishmentid":"2585","name":"Pro Wash Food","address":"12400 Morang","zipcode":"48224"},{"establishmentid":"4997","name":"Grace Cuisine Inc.","address":"12400 Morang Dr.","zipcode":"48224"},{"establishmentid":"51622719","name":"Toarmina's Pizza","address":"12400 Morang","zipcode":"48224"},{"establishmentid":"3910","name":"Roza's Coney Island and Pizzeria","address":"12400 Morang","zipcode":"48224"},{"establishmentid":"1885","name":"Fat-n-Juicy Smoke Bone","address":"12351 Morang","zipcode":"48224"},{"establishmentid":"2109","name":"Pagoda Chop Suey","address":"12411 Morang ","zipcode":"48224"},{"establishmentid":"2039","name":"Club Millenium 2000 AKA:A Taste of Honey","address":"11850 Morang","zipcode":"48224"},{"establishmentid":"51623364","name":"Hall Star Grill","address":"11840 Morang","zipcode":"48224"},{"establishmentid":"3099","name":"Lin Panda","address":"18087 Kelly Rd.","zipcode":"48224"}],"inspectionsByEstablishmentidList":[]}],"maxInspectionDate":[{"inspectionDate":"2022-07-25T00:00:00"}]}},"pageContext":{"eid":"3127"}},"staticQueryHashes":["3649515864","63159454"]}