{"componentChunkName":"component---src-templates-establishment-page-js","path":"/establishment/552","result":{"data":{"site":{"pathPrefix":"/restaurant-inspections"},"postgres":{"establishment":[{"establishmentid":"552","name":"Clarence's Blue Bird Inn","address":"5021 Tireman","zipcode":"48210","owner":"Mary E. Eddins","licenseNumber":"034406","licenseType":"Fixed Establishment","establishmentType":"Food Service Establishment","establishmentStatus":"Permanently Closed","riskCategory":null,"reviewFrequencyDays":"180","coords":"-83.11963,42.35270","geojson":{"id":"552","type":"Feature","geometry":{"type":"Point","coordinates":[-83.119631112,42.352702339]},"properties":{"name":"Clarence's Blue Bird Inn","owner":"Mary E. Eddins","address":"5021 Tireman","zipcode":"48210","license_type":"Fixed Establishment","risk_category":null,"license_number":"034406","establishmentid":"552","establishment_type":"Food Service Establishment","establishment_status":"Permanently Closed","review_frequency_days":"180","most_recent_license_date":"2006-12-04"}},"nearbyList":[{"establishmentid":"922","name":"Sampson/Webber Academy","address":"4700 Tireman","zipcode":"48204"},{"establishmentid":"1389","name":"Tabernacle Missionary Baptist Church","address":"6125 Beechwood","zipcode":"48210"},{"establishmentid":"3271","name":"Casablanca","address":"5334 Tireman","zipcode":"48204"},{"establishmentid":"3918","name":"Casablanca Restaurant","address":"5334 Tireman","zipcode":"48204"},{"establishmentid":"982","name":"Sampson Elementary","address":"6075 Begole","zipcode":"48238"},{"establishmentid":"959","name":"Nacirema Club","address":"6118 30th Street","zipcode":"48210"},{"establishmentid":"1541","name":"St. Stephen A.M.E. Church","address":"6000 John E. Hunter Drive","zipcode":"48210"},{"establishmentid":"602","name":"Louie's Cocktail Lounge","address":"8053 Grand River Ave.","zipcode":"48204"},{"establishmentid":"314","name":"Little Mary's River Inn","address":"7741 Grand River Ave.","zipcode":"48204"},{"establishmentid":"1346","name":"Ed's Apollo's Coney Island","address":"7635 Grand River Ave.","zipcode":"48204"}],"inspectionsByEstablishmentidList":[]}],"maxInspectionDate":[{"inspectionDate":"2023-04-25T00:00:00"}]}},"pageContext":{"eid":"552"}},"staticQueryHashes":["3649515864","63159454"]}