{"data":{"site":{"pathPrefix":"/restaurant-inspections"},"postgres":{"establishment":[{"establishmentid":"51623028","name":"The Aretha Franklin-Bars","address":"2600 Atwater St","zipcode":"48207","owner":"The Right Productions, Inc","licenseNumber":"237711","licenseType":"Fixed Establishment","establishmentType":"Food Service Establishment","establishmentStatus":"Open","riskCategory":"Medium","reviewFrequencyDays":"365","coords":"-83.02096,42.33508","geojson":{"id":"51623028","type":"Feature","geometry":{"type":"Point","coordinates":[-83.02096049,42.335076186]},"properties":{"name":"The Aretha Franklin-Bars","owner":"The Right Productions, Inc","address":"2600 Atwater St","zipcode":"48207","license_type":"Fixed Establishment","risk_category":"Medium","license_number":"237711","establishmentid":"51623028","establishment_type":"Food Service Establishment","establishment_status":"Open","review_frequency_days":"365","most_recent_license_date":"5/26/2020"}},"nearbyList":[{"establishmentid":"51623027","name":"The Aretha Franklin-Concession","address":"2600 Atwater St","zipcode":"48207"},{"establishmentid":"2620","name":"The Aretha Franklin Amphiteatre","address":"2600 Atwater St","zipcode":"48207"},{"establishmentid":"4100","name":"University Prep Science & Math High ","address":"2664 Franklin St","zipcode":"48226"},{"establishmentid":"51623102","name":"Detroit Riverwalk Cafe LLC (Valade Park)","address":"2670 Atwater Street","zipcode":"48207"},{"establishmentid":"5143","name":"Atwater Brewery","address":"237 Joseph Campau St","zipcode":"48207"},{"establishmentid":"1247","name":"Andrew's on the Corner","address":"201 Joseph Campau Ave","zipcode":"48207"},{"establishmentid":"3974","name":"River Place Bar & Grill","address":"225 Joseph Campau","zipcode":"48201"},{"establishmentid":"5206","name":"Bucharest Grill","address":"2684 E Jefferson Ave","zipcode":"48207"},{"establishmentid":"456","name":"Lucky Dragon","address":"2664 E Jefferson Ave","zipcode":"48207"},{"establishmentid":"3425","name":"They Say/Dunco Holding LLC","address":"267 Joseph Campau Ave","zipcode":"48207"}],"inspectionsByEstablishmentidList":[{"inspectionid":"48185","inspectionDate":"2019-06-26T00:00:00","inspectionType":"Routine Inspection","inCompliance":"Yes","violationsByInspectionidList":[{"violationCode":"3-304.12","violationDescription":"During pauses in FOOD preparation or dispensing, UTENSILS shall be stored:\r\n(A) In the FOOD with their handles above the top of the FOOD and the container;\r\n(B) In FOOD that is not POTENTIALLY HAZARDOUS with their handles above the      top of the FOOD within containers or EQUIPMENT that can be closed, such as      bins of sugar, flour, or cinnamon;\r\n(C) On a clean portion of the FOOD preparation table or cooking EQUIPMENT\r\n(D)  In running water, such as dipper well.\r\n(E)  In a clean, protected location if the UTENSILS, such as ice scoops, are   used only with a FOOD that is not POTENTIALLY HAZARDOUS; or\r\n(F)  In a container of water maintained at a temperature of at least 135Â° F.\r\n","violationType":"Core","itemDescription":"Dispensing utensil(s)","subItem":"","problemDescription":null,"subProblem":"","location":"BAR","subLocation":"Missing Ice scoop","corrected":"Yes","daysToCorrect":"30","correctedDate":"2019-06-26T00:00:00","correctionDescription":null}]}]}],"maxInspectionDate":[{"inspectionDate":"2020-10-30T00:00:00"}]}},"pageContext":{"eid":"51623028"}}