{"componentChunkName":"component---src-templates-establishment-page-js","path":"/establishment/4753","result":{"data":{"site":{"pathPrefix":"/restaurant-inspections"},"postgres":{"establishment":[{"establishmentid":"4753","name":"Breakfast Lunch & Deli","address":"3940 Third St.","zipcode":"48201","owner":"Carol Massa/Majorie Pugh","licenseNumber":"ps060313","licenseType":"Fixed Establishment","establishmentType":"Food Service Establishment","establishmentStatus":"Plan Review","riskCategory":"Low","reviewFrequencyDays":"150","coords":"-83.06673,42.34734","geojson":{"id":"4753","type":"Feature","geometry":{"type":"Point","coordinates":[-83.066733605,42.347338215]},"properties":{"name":"Breakfast Lunch & Deli","owner":"Carol Massa/Majorie Pugh","address":"3940 Third St.","zipcode":"48201","license_type":"Fixed Establishment","risk_category":"Low","license_number":"ps060313","establishmentid":"4753","establishment_type":"Food Service Establishment","establishment_status":"Plan Review","review_frequency_days":"150","most_recent_license_date":"9/6/2013"}},"nearbyList":[{"establishmentid":"737","name":"Mormando's Pizzeria","address":"3940 Third","zipcode":"48201"},{"establishmentid":"51623799","name":"Detroit Public Theatre","address":"3960 Third Ave.","zipcode":"48201"},{"establishmentid":"51623023","name":"Nain Rouge Brewery","address":"666 Selden St.","zipcode":"48201"},{"establishmentid":"51623163","name":"Barcade","address":"666 Selden St.","zipcode":"48201"},{"establishmentid":"5193","name":"Gus's Fried Chicken","address":"4101 Third Ave.","zipcode":"48201"},{"establishmentid":"51623440","name":"Vecino","address":"4100 Third St.","zipcode":"48201"},{"establishmentid":"51622936","name":"Smith & Co. ","address":"644 Selden St.","zipcode":"48201"},{"establishmentid":"436","name":"Jumbo's Bar","address":"3736 Third","zipcode":"48201"},{"establishmentid":"5180","name":"Cinema Detroit","address":"4126 Third Ave.","zipcode":"48201"},{"establishmentid":"4827","name":"Selden Standard","address":"3921-29  Second Ave.","zipcode":"48201"}],"inspectionsByEstablishmentidList":[]}],"maxInspectionDate":[{"inspectionDate":"2022-07-25T00:00:00"}]}},"pageContext":{"eid":"4753"}},"staticQueryHashes":["3649515864","63159454"]}