{"componentChunkName":"component---src-templates-establishment-page-js","path":"/establishment/1790","result":{"data":{"site":{"pathPrefix":"/restaurant-inspections"},"postgres":{"establishment":[{"establishmentid":"1790","name":"Metro Vending","address":"2627 Clark","zipcode":"48210","owner":"Charlie Giacona","licenseNumber":"034712","licenseType":"Other","establishmentType":"LHD - Vending","establishmentStatus":"Open","riskCategory":null,"reviewFrequencyDays":"500","coords":"-83.10236,42.32741","geojson":{"id":"1790","type":"Feature","geometry":{"type":"Point","coordinates":[-83.102361786,42.32740648]},"properties":{"name":"Metro Vending","owner":"Charlie Giacona","address":"2627 Clark","zipcode":"48210","license_type":"Other","risk_category":null,"license_number":"034712","establishmentid":"1790","establishment_type":"LHD - Vending","establishment_status":"Open","review_frequency_days":"500","most_recent_license_date":null}},"nearbyList":[{"establishmentid":"2536","name":"ROBINSON DAIRY VENDING","address":"2627 CLARK","zipcode":"48212"},{"establishmentid":"5253","name":"Total Vending","address":"2860 Clark","zipcode":"48210"},{"establishmentid":"540","name":"M & M Bar","address":"4600 Plumer St.","zipcode":"48209"},{"establishmentid":"2082","name":"Don's Vending Service","address":"2880 Scotten","zipcode":"48210"},{"establishmentid":"4280","name":"El Durango Bar","address":"2510  Junction","zipcode":"48209"},{"establishmentid":"4277","name":"Gilberto Pelcastre","address":"4861  Konkel","zipcode":"48209"},{"establishmentid":"3428","name":"Kidz Playland/Club Fuego","address":"5620  Federal","zipcode":"48209"},{"establishmentid":"51622653","name":"Little Bee","address":"4335 Toledo","zipcode":"48209"},{"establishmentid":"3095","name":"Los Corrales","address":"2244 Junction Ave.","zipcode":"48209"},{"establishmentid":"51623519","name":"Taqueria El Tapatio","address":"2244 Junction","zipcode":"48209"}],"inspectionsByEstablishmentidList":[]}],"maxInspectionDate":[{"inspectionDate":"2022-07-25T00:00:00"}]}},"pageContext":{"eid":"1790"}},"staticQueryHashes":["3649515864","63159454"]}