{"componentChunkName":"component---src-templates-establishment-page-js","path":"/establishment/3031","result":{"data":{"site":{"pathPrefix":"/restaurant-inspections"},"postgres":{"establishment":[{"establishmentid":"3031","name":"Robinson Dairy Vending","address":"5820 Nevada E.","zipcode":"48234","owner":"Frank Caramagno","licenseNumber":"sh5820","licenseType":"Other","establishmentType":"LHD - Vending","establishmentStatus":"Open","riskCategory":null,"reviewFrequencyDays":null,"coords":"-83.04404,42.42574","geojson":{"id":"3031","type":"Feature","geometry":{"type":"Point","coordinates":[-83.044035895,42.425741344]},"properties":{"name":"Robinson Dairy Vending","owner":"Frank Caramagno","address":"5820 Nevada E.","zipcode":"48234","license_type":"Other","risk_category":null,"license_number":"sh5820","establishmentid":"3031","establishment_type":"LHD - Vending","establishment_status":"Open","review_frequency_days":null,"most_recent_license_date":null}},"nearbyList":[{"establishmentid":"629","name":"V.F.W. Post #2233 James Europe","address":"18651 Mound Rd.","zipcode":"48234"},{"establishmentid":"550","name":"Pandora's Boxx, LLC","address":"6221 Davison Ave. E.","zipcode":"48212"},{"establishmentid":"51622989","name":"Tippin Inn","address":"18430-34 Mt. Elliot","zipcode":"48234"},{"establishmentid":"560","name":"Tippin Inn, Inc.","address":"18430-34 Mt. Elliott","zipcode":"48234"},{"establishmentid":"2000","name":"Moonlite Coney Island","address":"17600 Mt. Elliott","zipcode":"48212"},{"establishmentid":"1446","name":"Blue Martini Lounge LLC.","address":"5444 Davison Ave. E.","zipcode":"48212"},{"establishmentid":"2828","name":"Specialized Vending Services","address":"6350 Davison E.","zipcode":"48212"},{"establishmentid":"1762","name":"METRO VENDING SERVICES","address":"6350 Davison E.","zipcode":"48212"},{"establishmentid":"51622978","name":"T & M Chicken and Seafood","address":"5844 Seven Mile E.","zipcode":"48234"},{"establishmentid":"2451","name":"Big Daddy Coney Island","address":"5536 McNichols E.","zipcode":"48212"}],"inspectionsByEstablishmentidList":[]}],"maxInspectionDate":[{"inspectionDate":"2022-07-25T00:00:00"}]}},"pageContext":{"eid":"3031"}},"staticQueryHashes":["3649515864","63159454"]}