{"componentChunkName":"component---src-templates-establishment-page-js","path":"/establishment/4552","result":{"data":{"site":{"pathPrefix":"/restaurant-inspections"},"postgres":{"establishment":[{"establishmentid":"4552","name":"Club Liquid","address":"3543 Seven Mile Rd. E.","zipcode":"48234","owner":"Andrew Waldecker","licenseNumber":"SFW13013","licenseType":"Fixed Establishment","establishmentType":"Food Service Establishment","establishmentStatus":"Open","riskCategory":"High","reviewFrequencyDays":"335","coords":"-83.06860,42.43326","geojson":{"id":"4552","type":"Feature","geometry":{"type":"Point","coordinates":[-83.068599328,42.43326455]},"properties":{"name":"Club Liquid","owner":"Andrew Waldecker","address":"3543 Seven Mile Rd. E.","zipcode":"48234","license_type":"Fixed Establishment","risk_category":"High","license_number":"SFW13013","establishmentid":"4552","establishment_type":"Food Service Establishment","establishment_status":"Open","review_frequency_days":"335","most_recent_license_date":null}},"nearbyList":[{"establishmentid":"1893","name":"Club Liquid","address":"3537 Seven Mile Rd. E.","zipcode":"48234"},{"establishmentid":"3303","name":"Mamma's Coney Island","address":"3303 Seven Mile Rd. E.","zipcode":"48234"},{"establishmentid":"1557","name":"Dairy Queen","address":"3741 Seven Mile Rd. E.","zipcode":"48238"},{"establishmentid":"51622852","name":"Asian Corned Beef","address":"3741 E. Seven Mile","zipcode":"48234"},{"establishmentid":"4391","name":"Xtreme Ice Cream","address":"3741 Seven Mile Rd E. ","zipcode":"48203"},{"establishmentid":"5128","name":"Yonka Grill & Dairy","address":"3741 Seven Mile E.","zipcode":"48234"},{"establishmentid":"1751","name":"Ambiance","address":"2959 Seven Mile Rd. E.","zipcode":"48234"},{"establishmentid":"733","name":"Gold Coast","address":"2971 Seven Mile Rd. E.","zipcode":"48234"},{"establishmentid":"2750","name":"C.J.'s & Showbiz Seasoned Plates","address":"2955 Seven Mile Rd. E.","zipcode":"48234"},{"establishmentid":"4976","name":"Maxine's Southern Kitchen","address":"2955 Seven Mile","zipcode":"48234"}],"inspectionsByEstablishmentidList":[]}],"maxInspectionDate":[{"inspectionDate":"2023-04-13T00:00:00"}]}},"pageContext":{"eid":"4552"}},"staticQueryHashes":["3649515864","63159454"]}