{"componentChunkName":"component---src-templates-establishment-page-js","path":"/establishment/4018","result":{"data":{"site":{"pathPrefix":"/restaurant-inspections"},"postgres":{"establishment":[{"establishmentid":"4018","name":"Hot Diggity Dog","address":"18944 Plainview","zipcode":"48219","owner":"Millail Jackson","licenseNumber":"037223","licenseType":"Fixed Establishment","establishmentType":"LHD - Mobile Food Establishmen","establishmentStatus":"Open","riskCategory":null,"reviewFrequencyDays":"365","coords":"-83.23740,42.42786","geojson":{"id":"4018","type":"Feature","geometry":{"type":"Point","coordinates":[-83.237402589,42.427864961]},"properties":{"name":"Hot Diggity Dog","owner":"Millail Jackson","address":"18944 Plainview","zipcode":"48219","license_type":"Fixed Establishment","risk_category":null,"license_number":"037223","establishmentid":"4018","establishment_type":"LHD - Mobile Food Establishmen","establishment_status":"Open","review_frequency_days":"365","most_recent_license_date":null}},"nearbyList":[{"establishmentid":"2261","name":"HOT DIGGITY DOG","address":"18944 PLAINVIEW","zipcode":"48219"},{"establishmentid":"2592","name":"Crab House","address":"19721 Seven Mile Rd. W.","zipcode":"48219"},{"establishmentid":"51622724","name":"Kalahari African Restaurant LLC","address":"19701 Seven Mile W.","zipcode":"48219"},{"establishmentid":"3498","name":"Choices II","address":"19701 Seven Mile Rd. W.","zipcode":"48219"},{"establishmentid":"2731","name":"Kentucky Fried Chicken H730214","address":"19833 Seven Mile Rd. W.","zipcode":"48219"},{"establishmentid":"4441","name":"Tim Hortons","address":"19833 Seven Mile Rd. W.","zipcode":"48219"},{"establishmentid":"51623291","name":"Grandy's Coney Island","address":"19833 Seven Mile W.","zipcode":"48219"},{"establishmentid":"466","name":"Flame Burgie'z on 7","address":"19740 Seven Mile Rd. W.","zipcode":"48219"},{"establishmentid":"51622977","name":"Eat 247","address":"19740  Seven Mile","zipcode":"48207"},{"establishmentid":"5160","name":"Olympia Coney Island","address":"19740 Seven Mile W.","zipcode":"48219"}],"inspectionsByEstablishmentidList":[]}],"maxInspectionDate":[{"inspectionDate":"2023-04-13T00:00:00"}]}},"pageContext":{"eid":"4018"}},"staticQueryHashes":["3649515864","63159454"]}