{"componentChunkName":"component---src-templates-establishment-page-js","path":"/establishment/263","result":{"data":{"site":{"pathPrefix":"/restaurant-inspections"},"postgres":{"establishment":[{"establishmentid":"263","name":"E & H Lounge","address":"20531 Joy Rd.","zipcode":"48228","owner":"Howard Hughes, Jr.","licenseNumber":"033916","licenseType":"Fixed Establishment","establishmentType":"Food Service Establishment","establishmentStatus":"Temporarily Closed","riskCategory":null,"reviewFrequencyDays":"335","coords":"-83.24136,42.35720","geojson":{"id":"263","type":"Feature","geometry":{"type":"Point","coordinates":[-83.241356072,42.357200331]},"properties":{"name":"E & H Lounge","owner":"Howard Hughes, Jr.","address":"20531 Joy Rd.","zipcode":"48228","license_type":"Fixed Establishment","risk_category":null,"license_number":"033916","establishmentid":"263","establishment_type":"Food Service Establishment","establishment_status":"Temporarily Closed","review_frequency_days":"335","most_recent_license_date":"20/4/2012"}},"nearbyList":[{"establishmentid":"51623397","name":"Buick Hall","address":"20531  Joy Rd.","zipcode":"48228"},{"establishmentid":"1983","name":"Dynasty Express NY Style Chinese Food","address":"20622 Joy Rd.","zipcode":"48228"},{"establishmentid":"51623012","name":"Ameera's Place","address":"20226 Joy Rd.","zipcode":"48228"},{"establishmentid":"264","name":"Loose Ends, Inc/dba Club Ro-zay","address":"20226 Joy Rd.","zipcode":"48228"},{"establishmentid":"262","name":"B. M. G. Bar & Grill","address":"20809 Joy Rd.","zipcode":"48228"},{"establishmentid":"51622456","name":"Chris Top Dog's LLC","address":"8420 Stout","zipcode":"48228"},{"establishmentid":"1274","name":"McColl Elementary School","address":"20550 Cathedral","zipcode":"48228"},{"establishmentid":"51622775","name":"Joy & Green Mart LLC","address":"20000 Joy Rd.","zipcode":"48228"},{"establishmentid":"51623483","name":"Joy Chicken & Seafood","address":"20000 Joy","zipcode":"48228"},{"establishmentid":"719","name":"L. George Coney Island #7","address":"20003 Joy Rd.","zipcode":"48228"}],"inspectionsByEstablishmentidList":[]}],"maxInspectionDate":[{"inspectionDate":"2023-04-13T00:00:00"}]}},"pageContext":{"eid":"263"}},"staticQueryHashes":["3649515864","63159454"]}