{"data":{"site":{"pathPrefix":"/restaurant-inspections"},"postgres":{"establishment":[{"establishmentid":"3777","name":"Motor City Casino - Overdrive Bar","address":"2901 Grand River Ave","zipcode":"48201","owner":"Detroit Entertainment LLC","licenseNumber":"062170","licenseType":"Fixed Establishment","establishmentType":"Food Service Establishment","establishmentStatus":"Open","riskCategory":null,"reviewFrequencyDays":"365.0","coords":"-83.06763,42.33944","geojson":{"id":"3777","type":"Feature","geometry":{"type":"Point","coordinates":[-83.067633488,42.3394391140001]},"properties":{"name":"Motor City Casino - Overdrive Bar","owner":"Detroit Entertainment LLC","address":"2901 Grand River Ave","zipcode":"48201","license_type":"Fixed Establishment","risk_category":null,"license_number":"062170","establishmentid":"3777","establishment_type":"Food Service Establishment","establishment_status":"Open","review_frequency_days":"365.0","most_recent_license_date":"4/13/2018"}},"nearbyList":[{"establishmentid":"4951","name":"Det. Delta Prep. Acad for Social Justice","address":"3550 John C Lodge","zipcode":"48201"},{"establishmentid":"1563","name":"Detroit Rescue Mission","address":"3535 Third St","zipcode":"48201"},{"establishmentid":"805","name":"Nancy Whiskey ","address":"2644 Harrison","zipcode":"48216"},{"establishmentid":"436","name":"Jumbo's Bar","address":"3736 Third St","zipcode":"48201"},{"establishmentid":"1865","name":"Detroit Housing Commission","address":"1231 Selden, Bldg 503","zipcode":"48201"},{"establishmentid":"3598","name":"Cass Technical High School","address":"2501 Second Ave","zipcode":"48201-34"},{"establishmentid":"4938","name":"UFO Factory","address":"2110 Trumbull St","zipcode":"48207"},{"establishmentid":"2015","name":"Motor City Coney & Grill","address":"3641 Grand River Ave","zipcode":"48208"},{"establishmentid":"5359","name":"Detroit Shipping Company- Bars","address":"474 Peterboro St","zipcode":"48201"},{"establishmentid":"51622714","name":"-320 Coffee & Creamery","address":"474 Peterboro Street #201","zipcode":"48201"},{"establishmentid":"51622644","name":"Coop","address":"474 Peterboro St #104","zipcode":"48201"},{"establishmentid":"51622705","name":"Brujo","address":"474 Peterboro St #105","zipcode":"48201"},{"establishmentid":"51622643","name":"Bangkok 96","address":"474 Peterboro Street #103","zipcode":"48201"},{"establishmentid":"500","name":"McShane's","address":"1460 Michigan Ave","zipcode":"48216"},{"establishmentid":"1140","name":"Masonic Temple","address":"500 Temple","zipcode":"48201"},{"establishmentid":"4648","name":"Ottava Via","address":"1400 Michigan Ave","zipcode":"48226"},{"establishmentid":"51622606","name":"Founders Brewing Company","address":"456 Charlotte St","zipcode":"48201"},{"establishmentid":"545","name":"Nemos","address":"1378 Michigan Ave","zipcode":"48226"},{"establishmentid":"51622463","name":"Corktown Tavern Inc.","address":"1716 Michigan Ave","zipcode":"48216"},{"establishmentid":"4781","name":"Bucharest Grill","address":"1623 Michigan Ave","zipcode":"48216"}],"inspectionsByEstablishmentidList":[{"inspectionid":"43070","inspectionDate":"2018-06-05T00:00:00","inspectionType":"Routine Inspection","inCompliance":"Yes","violationsByInspectionidList":[]},{"inspectionid":"38989","inspectionDate":"2017-04-28T00:00:00","inspectionType":"Routine Inspection","inCompliance":"Yes","violationsByInspectionidList":[{"violationCode":"6-501.12","violationDescription":"(A) PHYSICAL FACILITIES shall be cleaned as often as necessary to keep them clean.\r\n(B) Except spill cleanup, cleaning shall be done during periods when the least amount of FOOD is exposed such as after closing. ","violationType":"Core","itemDescription":"Physical facilities/structures","subItem":"floors","problemDescription":"With accumulation of debris","subProblem":"","location":"FLOOR","subLocation":"","corrected":"Not required","daysToCorrect":"30.0","correctedDate":null,"correctionDescription":"Keep clean."}]}]}]}},"pageContext":{"eid":"3777"}}