{"data":{"postgres":{"establishment":[{"establishmentid":"442","name":"Adam's Apple","address":"18931 W Warren Ave","zipcode":"48228","owner":"Patrick Carolan","licenseNumber":"078795","licenseType":"Fixed Establishment","establishmentType":"Food Service Establishment","establishmentStatus":"Open","riskCategory":"Medium","reviewFrequencyDays":"365.0","coords":"-83.22493,42.34306","geojson":{"id":"442","type":"Feature","geometry":{"type":"Point","coordinates":[-83.224927287,42.3430625070001]},"properties":{"name":"Adam's Apple","owner":"Patrick Carolan","address":"18931 W Warren Ave","zipcode":"48228","license_type":"Fixed Establishment","risk_category":"Medium","license_number":"078795","establishmentid":"442","establishment_type":"Food Service Establishment","establishment_status":"Open","review_frequency_days":"365.0","most_recent_license_date":null}},"nearbyList":[{"establishmentid":"1381","name":"Mr. Steve's Pizza","address":"18940 W Warren Ave","zipcode":"48228"},{"establishmentid":"665","name":"Chick's Bar","address":"18550 W Warren Ave","zipcode":"48228"},{"establishmentid":"51622861","name":"Little Pizza","address":"19240 W Warren Ave","zipcode":"48228"},{"establishmentid":"1510","name":"New Taystee's Pizza","address":"19240 W Warren Ave","zipcode":"48228"},{"establishmentid":"4323","name":"Captain Jay's Fish & Chicken #104","address":"18440 W Warren Ave","zipcode":"48228"},{"establishmentid":"5324","name":"Captain Jay's Fish & Chicken","address":"18400 W Warren","zipcode":"48228"},{"establishmentid":"256","name":"Hurry Inn ","address":"19430-32 W Warren Ave","zipcode":"48228"},{"establishmentid":"1933","name":"Warrendale Academy","address":"19400 Sawyer","zipcode":"48228"},{"establishmentid":"1237","name":"Carver Elementary- Middle School","address":"18701 Paul","zipcode":"48228"},{"establishmentid":"4134","name":"Subway #47233","address":"17720 W Warren Ave","zipcode":"48228"},{"establishmentid":"5233","name":"Evergreen Fish Express LLC","address":"6540 Evergreen Rd","zipcode":"48228"},{"establishmentid":"5030","name":"Good Night Lounge","address":"17621 W Warren","zipcode":"48228"},{"establishmentid":"51622496","name":"Amazing Grill LLC","address":"17044 W Warren Ave","zipcode":"48228"},{"establishmentid":"5123","name":"Superior Coney Island & Grill","address":"17032 Warren W","zipcode":"48228"},{"establishmentid":"4983","name":"Iraqi Bakery and Carry Out","address":"17022 W Warren Ave","zipcode":"48228"},{"establishmentid":"1459","name":"Rob's Deli","address":"16956-58 E Warren Ave","zipcode":"48224"},{"establishmentid":"1380","name":"Doubletree Detroit/Dearborn","address":"5801 Southfield Rd","zipcode":"48228"},{"establishmentid":"803","name":"Gigi's","address":"16920 W Warren Ave","zipcode":"48228"},{"establishmentid":"3673","name":"Tijuana's Authenic Mexican Kitchen","address":"18940 Ford Rd","zipcode":"48228"},{"establishmentid":"1121","name":"Club 228","address":"18728 Ford Rd","zipcode":"48228"}],"inspectionsByEstablishmentidList":[{"inspectionid":"43234","inspectionDate":"2018-08-24T00:00:00","inspectionType":"Routine Inspection","inCompliance":"Yes","violationsByInspectionidList":[]},{"inspectionid":"39242","inspectionDate":"2017-07-13T00:00:00","inspectionType":"Routine Inspection","inCompliance":"Yes","violationsByInspectionidList":[]}]}]}},"pageContext":{"eid":"442"}}