{"componentChunkName":"component---src-templates-establishment-page-js","path":"/establishment/51623780","result":{"data":{"site":{"pathPrefix":"/restaurant-inspections"},"postgres":{"establishment":[{"establishmentid":"51623780","name":"K & K Eatz & Catering ","address":"13066 Canonbury","zipcode":"48205","owner":"Kenyatta McKeever","licenseNumber":"PR220","licenseType":"Special Transitory Food Unit","establishmentType":"LHD - Special Transitory Food","establishmentStatus":"Open","riskCategory":null,"reviewFrequencyDays":"180","coords":"-83.01074,42.41860","geojson":{"id":"51623780","type":"Feature","geometry":{"type":"Point","coordinates":[-83.010740922,42.418595475]},"properties":{"name":"K & K Eatz & Catering ","owner":"Kenyatta McKeever","address":"13066 Canonbury","zipcode":"48205","license_type":"Special Transitory Food Unit","risk_category":null,"license_number":"PR220","establishmentid":"51623780","establishment_type":"LHD - Special Transitory Food","establishment_status":"Open","review_frequency_days":"180","most_recent_license_date":"2022-08-16"}},"nearbyList":[{"establishmentid":"51623863","name":"Push Bar & Grill","address":"11526 Portlance","zipcode":"48205"},{"establishmentid":"309","name":"P.P.H Lounge","address":"11526 Portlance","zipcode":"48205"},{"establishmentid":"3750","name":"Zorba's Coney Island","address":"11701 McNichols Ave. E.","zipcode":"48205"},{"establishmentid":"1402","name":"Zorba's Coney Island","address":"11701 McNichols Ave. E.","zipcode":"48205"},{"establishmentid":"4244","name":"Zorba's Fine Food","address":"11701 McNichols Ave. E.","zipcode":"48205"},{"establishmentid":"3405","name":"Lucky's Resturant","address":"11701 McNichols Rd. E.","zipcode":"48224"},{"establishmentid":"1554","name":"Academy of Fine and Peforming Arts","address":"17201 Annott","zipcode":"48205"},{"establishmentid":"5303","name":"Kreative Cream ","address":"11790 Kennebec","zipcode":"48205"},{"establishmentid":"4503","name":"Sterling Services","address":"11499 Conner Ave.","zipcode":"48226"},{"establishmentid":"1803","name":"Continental Canteen","address":"8555 Lynch","zipcode":"48234"}],"inspectionsByEstablishmentidList":[]}],"maxInspectionDate":[{"inspectionDate":"2023-04-25T00:00:00"}]}},"pageContext":{"eid":"51623780"}},"staticQueryHashes":["3649515864","63159454"]}