{"componentChunkName":"component---src-templates-establishment-page-js","path":"/establishment/51623821","result":{"data":{"site":{"pathPrefix":"/restaurant-inspections"},"postgres":{"establishment":[{"establishmentid":"51623821","name":"N and L Mini Kitchen Serving","address":"10701 Santa Maria #25","zipcode":"48221","owner":"Antionette Russell","licenseNumber":"PR22120D","licenseType":"Fixed Establishment","establishmentType":"LHD - Special Transitory Food","establishmentStatus":"Plan Review","riskCategory":null,"reviewFrequencyDays":null,"coords":"-83.16848,42.41800","geojson":{"id":"51623821","type":"Feature","geometry":{"type":"Point","coordinates":[-83.168475768,42.417995248]},"properties":{"name":"N and L Mini Kitchen Serving","owner":"Antionette Russell","address":"10701 Santa Maria #25","zipcode":"48221","license_type":"Fixed Establishment","risk_category":null,"license_number":"PR22120D","establishmentid":"51623821","establishment_type":"LHD - Special Transitory Food","establishment_status":"Plan Review","review_frequency_days":null,"most_recent_license_date":null}},"nearbyList":[{"establishmentid":"1228","name":"Lon's Coney Island","address":"10741 McNichols Rd. W.","zipcode":"48221"},{"establishmentid":"850","name":"Schulze Elementary School","address":"10700 Santa Maria","zipcode":"48221"},{"establishmentid":"4727","name":"The Building","address":"10625 W. McNichols","zipcode":"48227"},{"establishmentid":"51623797","name":"Detroit All in One Food Club","address":"10625-35 McNichols W.","zipcode":"48221"},{"establishmentid":"5340","name":"Spud HeadZ Food Truck","address":"10601 W. McNichols","zipcode":"48221"},{"establishmentid":"51623584","name":"Lil' Chuck's Grubox LLC","address":"17338 Pinehurst","zipcode":"48221"},{"establishmentid":"1160","name":"Caribbean Citchen","address":"10500 McNichols Rd. W.","zipcode":"48221"},{"establishmentid":"1304","name":"Popeye's Chicken & Biscuits","address":"16920 Meyers","zipcode":"48235"},{"establishmentid":"4374","name":"Captain Jay's Fish & Chicken #112","address":"16907 Meyers","zipcode":"48235"},{"establishmentid":"51623710","name":"MBLS Pizza Management LLC-Domino's","address":"10437 McNichols W.","zipcode":"48221"}],"inspectionsByEstablishmentidList":[]}],"maxInspectionDate":[{"inspectionDate":"2022-07-25T00:00:00"}]}},"pageContext":{"eid":"51623821"}},"staticQueryHashes":["3649515864","63159454"]}