{"componentChunkName":"component---src-templates-establishment-page-js","path":"/establishment/51623565","result":{"data":{"site":{"pathPrefix":"/restaurant-inspections"},"postgres":{"establishment":[{"establishmentid":"51623565","name":"Burn Bar & Grill","address":"9350 Woodward Ave.","zipcode":"48202","owner":"Anniece Warren","licenseNumber":"263606","licenseType":"Fixed Establishment","establishmentType":"Food Service Establishment","establishmentStatus":"Open","riskCategory":"High","reviewFrequencyDays":"150","coords":"-83.08199,42.38411","geojson":{"id":"51623565","type":"Feature","geometry":{"type":"Point","coordinates":[-83.0819931,42.38411331]},"properties":{"name":"Burn Bar & Grill","owner":"Anniece Warren","address":"9350 Woodward Ave.","zipcode":"48202","license_type":"Fixed Establishment","risk_category":"High","license_number":"263606","establishmentid":"51623565","establishment_type":"Food Service Establishment","establishment_status":"Open","review_frequency_days":"150","most_recent_license_date":null}},"nearbyList":[{"establishmentid":"2786","name":"Jaws Fish & Chicken","address":"9320 Woodward","zipcode":"48202"},{"establishmentid":"2006","name":"Subway","address":"9320 Woodward Ave.","zipcode":"48202"},{"establishmentid":"3889","name":"Jaws Fish and Chips","address":"9320 Woodward Ave.","zipcode":"48207"},{"establishmentid":"2012","name":"Tastee Freeze","address":"9310 Woodward","zipcode":"48202"},{"establishmentid":"51623527","name":"Kenilworth Cafe","address":"9405 John R. St.","zipcode":"48202"},{"establishmentid":"949","name":"DIA (Northern) Detroit Int Academy","address":"9026 Woodward Ave.","zipcode":"48202"},{"establishmentid":"51622931","name":"Jim Holly International Banquet Hall","address":"8904 Woodward Ave.","zipcode":"48202"},{"establishmentid":"51623564","name":"Michigan International Prep School","address":"8904 Woodward","zipcode":"48202"},{"establishmentid":"1279","name":"Considine Recreation Center","address":"8904 Woodward","zipcode":"48202"},{"establishmentid":"4881","name":"Cleary University","address":"8904 Woodward Ave.","zipcode":"48202"}],"inspectionsByEstablishmentidList":[{"inspectionid":"59299","inspectionDate":"2022-05-06T00:00:00","inspectionType":"Cease and Desist","inCompliance":"Yes","violationsByInspectionidList":[]}]}],"maxInspectionDate":[{"inspectionDate":"2022-07-25T00:00:00"}]}},"pageContext":{"eid":"51623565"}},"staticQueryHashes":["3649515864","63159454"]}