{"data":{"site":{"pathPrefix":"/restaurant-inspections"},"postgres":{"establishment":[{"establishmentid":"3282","name":"Delicious Dogs","address":"17300 Greenlawn St","zipcode":"48221","owner":"Tiffany Barber","licenseNumber":"202882","licenseType":"Mobile Food Establishment","establishmentType":"LHD - Mobile Food Establishmen","establishmentStatus":"Seasonal","riskCategory":null,"reviewFrequencyDays":"210","coords":"-83.15095,42.41906","geojson":{"id":"3282","type":"Feature","geometry":{"type":"Point","coordinates":[-83.15095364,42.419056519]},"properties":{"name":"Delicious Dogs","owner":"Tiffany Barber","address":"17300 Greenlawn St","zipcode":"48221","license_type":"Mobile Food Establishment","risk_category":null,"license_number":"202882","establishmentid":"3282","establishment_type":"LHD - Mobile Food Establishmen","establishment_status":"Seasonal","review_frequency_days":"210","most_recent_license_date":"3/19/2019"}},"nearbyList":[{"establishmentid":"306","name":"Lou's Finer Deli, Inc.","address":"8224 W McNichols Rd","zipcode":"48221"},{"establishmentid":"5350","name":"Detroit Sip, LLC","address":"7420 W McNichols Rd","zipcode":"48221"},{"establishmentid":"1120","name":"John J Bagley Elementary School","address":"8100 Curtis St","zipcode":"48221"},{"establishmentid":"5376","name":"TMO's BBQ Pit","address":"7401 W McNichols Rd","zipcode":"48221"},{"establishmentid":"51622983","name":"Marygrove Conservancy","address":"8425 W McNichols Rd","zipcode":"48221"},{"establishmentid":"51622953","name":"DPSCD (previously MaryGrove)","address":"8425 W McNichols Rd","zipcode":"48221"},{"establishmentid":"5334","name":"Marygrove College","address":"8425 W McNichols Rd","zipcode":"48221"},{"establishmentid":"3986","name":"Captain Jay's Fish & Chicken #111","address":"17171 Livernois Ave","zipcode":"48221"},{"establishmentid":"51622895","name":"Peggy's Place (COTS)","address":"16630 Wyoming Ave","zipcode":"48221"},{"establishmentid":"828","name":"Mary-McLeod Bethune Elementary-Middle ","address":"8145 Puritan Ave","zipcode":"48238"}],"inspectionsByEstablishmentidList":[]}],"maxInspectionDate":[{"inspectionDate":"2020-05-29T00:00:00"}]}},"pageContext":{"eid":"3282"}}