{"data":{"site":{"pathPrefix":"/restaurant-inspections"},"postgres":{"establishment":[{"establishmentid":"5205","name":"Coriander","address":"4848 Grand River Blvd","zipcode":"48207","owner":"Alison Heeres","licenseNumber":"249481","licenseType":"Fixed Establishment","establishmentType":"Food Service Establishment","establishmentStatus":null,"riskCategory":null,"reviewFrequencyDays":"365","coords":"-83.08822,42.34861","geojson":{"id":"5205","type":"Feature","geometry":{"type":"Point","coordinates":[-83.088219678,42.348613536]},"properties":{"name":"Coriander","owner":"Alison Heeres","address":"4848 Grand River Blvd","zipcode":"48207","license_type":"Fixed Establishment","risk_category":null,"license_number":"249481","establishmentid":"5205","establishment_type":"Food Service Establishment","establishment_status":null,"review_frequency_days":"365","most_recent_license_date":"5/7/2018"}},"nearbyList":[{"establishmentid":"51622649","name":"The Commissary","address":"4848 Grand River Ste 1A","zipcode":"48208"},{"establishmentid":"51622688","name":"Magnet","address":"4842 Grand River Ave","zipcode":"48208"},{"establishmentid":"1411","name":"St. Leo's","address":"4860 Fifteenth St","zipcode":"48208"},{"establishmentid":"51623197","name":"St. Leos Soup Kitchen","address":"4800 Grand River Ave","zipcode":"48208"},{"establishmentid":"2442","name":"George Crockett Academy","address":"4851 Fourteenth St","zipcode":"48208"},{"establishmentid":"3865","name":"Monte Bello Pizzeria","address":"5181 Grand River Ave","zipcode":"48208"},{"establishmentid":"51623311","name":"Big Mama Pizzeria LLC","address":"5181 Grand River","zipcode":"48208"},{"establishmentid":"952","name":"Douglass Academy For Young Men","address":"2001 W Warren Ave","zipcode":"48208"},{"establishmentid":"4572","name":"Legends Grill","address":"5210 Grand River Ave","zipcode":"48208"},{"establishmentid":"4459","name":"Legend's Coney Island","address":"5210 W Grand River","zipcode":"48208"}],"inspectionsByEstablishmentidList":[]}],"maxInspectionDate":[{"inspectionDate":"2020-10-30T00:00:00"}]}},"pageContext":{"eid":"5205"}}