{"componentChunkName":"component---src-templates-establishment-page-js","path":"/establishment/51623450","result":{"data":{"site":{"pathPrefix":"/restaurant-inspections"},"postgres":{"establishment":[{"establishmentid":"51623450","name":"Reef Kitchens #07 (Fixed Trailer)","address":"2915 Grand Blvd E.","zipcode":"48202","owner":"Vessel MI Operations ","licenseNumber":"260881","licenseType":"Fixed Establishment","establishmentType":"Food Service Establishment","establishmentStatus":"Plan Review","riskCategory":null,"reviewFrequencyDays":null,"coords":"-83.06648,42.37238","geojson":{"id":"51623450","type":"Feature","geometry":{"type":"Point","coordinates":[-83.066476674,42.372381636]},"properties":{"name":"Reef Kitchens #07 (Fixed Trailer)","owner":"Vessel MI Operations ","address":"2915 Grand Blvd E.","zipcode":"48202","license_type":"Fixed Establishment","risk_category":null,"license_number":"260881","establishmentid":"51623450","establishment_type":"Food Service Establishment","establishment_status":"Plan Review","review_frequency_days":null,"most_recent_license_date":"2021-09-22"}},"nearbyList":[{"establishmentid":"51622949","name":"Oak and Reel dba Upfront Hospitality LLC","address":"2921 Grand Blvd E.","zipcode":"48202"},{"establishmentid":"51623260","name":"Freya and Dragonfly LLC","address":"2929 Grand Blvd. E. ","zipcode":"48202"},{"establishmentid":"2313","name":"Mariga's","address":"2894-96 Grand Blvd. W.","zipcode":"48202"},{"establishmentid":"2398","name":"B Georges Coney Island","address":"2898 Grand Blvd. W.","zipcode":"48202"},{"establishmentid":"4723","name":"Shawarma King","address":"2920 Grand Blvd.","zipcode":"48202"},{"establishmentid":"51622902","name":"Milwaukee Caffe","address":"447 Milwaukee Ave. E.","zipcode":"48202"},{"establishmentid":"51622696","name":"Kiesling","address":"449 Milwaukee Ave. E.","zipcode":"48202"},{"establishmentid":"785","name":"Parks Old Style Bar-B-Q ","address":"7444 Beaubien St.","zipcode":"48202"},{"establishmentid":"51622992","name":"The Gathering Coffee Co","address":"2831 E. Grand Blvd.","zipcode":"48211"},{"establishmentid":"51623848","name":"Thyme & Honey Cafe and Bodega","address":"2990 Grand Blvd. W.","zipcode":"48202"}],"inspectionsByEstablishmentidList":[]}],"maxInspectionDate":[{"inspectionDate":"2023-04-25T00:00:00"}]}},"pageContext":{"eid":"51623450"}},"staticQueryHashes":["3649515864","63159454"]}