{"data":{"site":{"pathPrefix":"/restaurant-inspections"},"postgres":{"establishment":[{"establishmentid":"1818","name":"Diamond Belle-Blue Water Exploration","address":"13000 Denmark St","zipcode":"48217","owner":"Patricia Hoey-Carrothers","licenseNumber":"035758","licenseType":"Mobile Food Establishment","establishmentType":"LHD - Mobile Food Establishmen","establishmentStatus":"Seasonal","riskCategory":null,"reviewFrequencyDays":"395.0","coords":"-83.14471,42.29268","geojson":{"id":"1818","type":"Feature","geometry":{"type":"Point","coordinates":[-83.1447060839999,42.2926819300001]},"properties":{"name":"Diamond Belle-Blue Water Exploration","owner":"Patricia Hoey-Carrothers","address":"13000 Denmark St","zipcode":"48217","license_type":"Mobile Food Establishment","risk_category":null,"license_number":"035758","establishmentid":"1818","establishment_type":"LHD - Mobile Food Establishmen","establishment_status":"Seasonal","review_frequency_days":"395.0","most_recent_license_date":"4/28/2017"}},"nearbyList":[{"establishmentid":"1021","name":"Giovanni's Ristorante","address":"330 Oakwood Blvd S","zipcode":"48217"},{"establishmentid":"2823","name":"Power Strip","address":"403 S Dix Ave. ","zipcode":"48217"},{"establishmentid":"506","name":"Carbon Athletics Club","address":"111 Gates St N","zipcode":"48209"},{"establishmentid":"51622804","name":"Mutiny Bar ","address":"4654 Vernor St","zipcode":"48209"},{"establishmentid":"5062","name":"Bag Of Bonez","address":"1250 S Beatrice St","zipcode":"48221"},{"establishmentid":"1606","name":"Prelja's Ham Palace","address":"9405 Fort St W","zipcode":"48209"},{"establishmentid":"51622762","name":"D's Coney Island","address":"2626 S Schaefer Hwy","zipcode":"48217"},{"establishmentid":"3397","name":"Patton Recreation Center","address":"2301 Woodmere St","zipcode":"48209"},{"establishmentid":"2312","name":"Taqueria La Salsa Mexican Cuisine","address":"1310 Oakwood Blvd S","zipcode":"48217"},{"establishmentid":"5028","name":"Marisqueria El Emperio","address":"1633 Lawndale St","zipcode":"48209"},{"establishmentid":"4960","name":"El Parian Commissary","address":"1633 Lawndale St","zipcode":"48209"},{"establishmentid":"51622742","name":"Lorent Coney Island","address":"601 S Schaefer Rd","zipcode":"48217"},{"establishmentid":"51622764","name":"Tres Leches 'n Snacks","address":"1210 Lawndale Detroit MI 48209","zipcode":"48209"},{"establishmentid":"4234","name":"Mangonadas Del Barrio","address":"1210-14 Lawndale St","zipcode":"48209"},{"establishmentid":"370","name":"Los Compadres","address":"1132 Lawndale St","zipcode":"48209"},{"establishmentid":"51622674","name":"Google Detroit Cafe","address":"52 E Henry St","zipcode":"48218"},{"establishmentid":"2245","name":"Perfect Beat","address":"1941 Fort St S","zipcode":"48217"},{"establishmentid":"5173","name":"El Salpicon","address":"8600 W Vernor Hwy","zipcode":"48209"},{"establishmentid":"926","name":"Bennett Elementary","address":"2111 Mullane St","zipcode":"48209"},{"establishmentid":"4241","name":"Tacos El Toro #3","address":"8191 Chamberlain St","zipcode":"48209"}],"inspectionsByEstablishmentidList":[{"inspectionid":"42986","inspectionDate":"2018-07-27T00:00:00","inspectionType":"Mobile Inspection","inCompliance":"Yes","violationsByInspectionidList":[]},{"inspectionid":"39051","inspectionDate":"2017-06-19T00:00:00","inspectionType":"Mobile Inspection","inCompliance":"Yes","violationsByInspectionidList":[]}]}]}},"pageContext":{"eid":"1818"}}