{"componentChunkName":"component---src-templates-establishment-page-js","path":"/establishment/51623448","result":{"data":{"site":{"pathPrefix":"/restaurant-inspections"},"postgres":{"establishment":[{"establishmentid":"51623448","name":"Reef Kitchens #05 (Fixed Trailer)","address":"7451 Woodward Ave. ","zipcode":"48202","owner":"Vessel MI Operations LLC","licenseNumber":"260883","licenseType":"Fixed Establishment","establishmentType":"Food Service Establishment","establishmentStatus":"Plan Review","riskCategory":"High","reviewFrequencyDays":"150","coords":"-83.07509,42.37211","geojson":{"id":"51623448","type":"Feature","geometry":{"type":"Point","coordinates":[-83.07508683,42.372112377]},"properties":{"name":"Reef Kitchens #05 (Fixed Trailer)","owner":"Vessel MI Operations LLC","address":"7451 Woodward Ave. ","zipcode":"48202","license_type":"Fixed Establishment","risk_category":"High","license_number":"260883","establishmentid":"51623448","establishment_type":"Food Service Establishment","establishment_status":"Plan Review","review_frequency_days":"150","most_recent_license_date":"9/22/2021"}},"nearbyList":[{"establishmentid":"51623610","name":"Reef Kitchens Food Truck #2","address":"7451 Woodward","zipcode":"48202"},{"establishmentid":"51623466","name":"Happy's Pizza ","address":"7451 Woodward Ave","zipcode":"48202"},{"establishmentid":"4958","name":"Don Bosco Hall/YouthVille Detroit","address":"7375  Woodward Ave.","zipcode":"48202"},{"establishmentid":"51623217","name":"Franklin Wright Settlement--Soup/DC Kit","address":"7375 Woodward","zipcode":"48202"},{"establishmentid":"4117","name":"Plymouth Preparatory High School","address":"7375 Woodward Ave.","zipcode":"48202"},{"establishmentid":"51622452","name":"Matrix Human Services","address":"7375 Woodward Ave.","zipcode":"48202"},{"establishmentid":"5413","name":"Franklin Wright Settlement Inc.","address":"7375 Woodward Ave.","zipcode":"48202"},{"establishmentid":"3139","name":"Detroit Youth Foundation/Cyber Cafe","address":"7375  Woodward Ave.","zipcode":"48202"},{"establishmentid":"3468","name":"Happy's Pizza #16","address":"7450 Woodward Ave.","zipcode":"48202"},{"establishmentid":"51623038","name":"See You Tomorrow","address":"7740 Woodward Ave.","zipcode":"48202"}],"inspectionsByEstablishmentidList":[]}],"maxInspectionDate":[{"inspectionDate":"2022-07-25T00:00:00"}]}},"pageContext":{"eid":"51623448"}},"staticQueryHashes":["3649515864","63159454"]}