{"componentChunkName":"component---src-templates-establishment-page-js","path":"/establishment/51624055","result":{"data":{"site":{"pathPrefix":"/restaurant-inspections"},"postgres":{"establishment":[{"establishmentid":"51624055","name":"Conner's Deli & Grill","address":"9400 Conner St.","zipcode":"48213","owner":"Imad Yusef Hussan","licenseNumber":"PR23000D","licenseType":"Special Transitory Food Unit","establishmentType":"LHD - Special Transitory Food","establishmentStatus":"Plan Review","riskCategory":null,"reviewFrequencyDays":null,"coords":"-82.99134,42.39978","geojson":{"id":"51624055","type":"Feature","geometry":{"type":"Point","coordinates":[-82.991341153,42.399780626]},"properties":{"name":"Conner's Deli & Grill","owner":"Imad Yusef Hussan","address":"9400 Conner St.","zipcode":"48213","license_type":"Special Transitory Food Unit","risk_category":null,"license_number":"PR23000D","establishmentid":"51624055","establishment_type":"LHD - Special Transitory Food","establishment_status":"Plan Review","review_frequency_days":null,"most_recent_license_date":null}},"nearbyList":[{"establishmentid":"3157","name":"BB's Home of Steak & Shrimp","address":"9472 Conner","zipcode":"48209"},{"establishmentid":"51623454","name":"Detroit Breakfast","address":"9488 Conner Ave","zipcode":"48213"},{"establishmentid":"51622858","name":"Detroit Blues Breakfast Restaurant","address":"9488 Conner","zipcode":"48213"},{"establishmentid":"4820","name":"Bates & Company","address":"11585  Harper Ave.","zipcode":"48205"},{"establishmentid":"1060","name":"Macomb Elementary","address":"12021 Evanston","zipcode":"48213"},{"establishmentid":"3165","name":"Subway WCCC","address":"5901 Conner Ave.","zipcode":"48213"},{"establishmentid":"1832","name":"Robinson Dairy Vending","address":"5901 Conner","zipcode":"48213"},{"establishmentid":"3798","name":"Subway ","address":"8200 Outer Dr. W.","zipcode":"48235"},{"establishmentid":"51623511","name":"Denise Welons-Glover Welcome Center","address":"8200 Outer Drive W.","zipcode":"48219"},{"establishmentid":"812","name":"University of Detroit Mercy","address":"8200 OUTER DR W.","zipcode":"48219"}],"inspectionsByEstablishmentidList":[]}],"maxInspectionDate":[{"inspectionDate":"2023-04-25T00:00:00"}]}},"pageContext":{"eid":"51624055"}},"staticQueryHashes":["3649515864","63159454"]}