{"data":{"site":{"pathPrefix":"/restaurant-inspections"},"postgres":{"establishment":[{"establishmentid":"51622557","name":"Takito Loko","address":"17966 Harman St","zipcode":"48122","owner":"Jose Gonzalez Cruz","licenseNumber":"221040","licenseType":"Mobile Food Establishment","establishmentType":null,"establishmentStatus":"Seasonal","riskCategory":"High","reviewFrequencyDays":"395.0","coords":"-83.18868,42.28677","geojson":{"id":"51622557","type":"Feature","geometry":{"type":"Point","coordinates":[-83.188679806,42.286766174]},"properties":{"name":"Takito Loko","owner":"Jose Gonzalez Cruz","address":"17966 Harman St","zipcode":"48122","license_type":"Mobile Food Establishment","risk_category":"High","license_number":"221040","establishmentid":"51622557","establishment_type":null,"establishment_status":"Seasonal","review_frequency_days":"395.0","most_recent_license_date":"4/30/2019"}},"nearbyList":[{"establishmentid":"51622742","name":"Lorent Coney Island","address":"601 S Schaefer Rd","zipcode":"48217"},{"establishmentid":"2312","name":"Taqueria La Salsa Mexican Cuisine","address":"1310 Oakwood Blvd S","zipcode":"48217"},{"establishmentid":"51622558","name":"Pablo Tacos","address":"17036 Cicotte St","zipcode":"48101"},{"establishmentid":"885","name":"Mark Twain K-8","address":"12800 Visger St","zipcode":"48217"},{"establishmentid":"51622561","name":"The Paris Cafe","address":"2709 South Fort Street","zipcode":"48217"},{"establishmentid":"5075","name":"The Detroit Lemonade Co.","address":"74 Wellesley St","zipcode":"48069"},{"establishmentid":"4068","name":"Ella Mae's Place","address":"2251 S Fort Street","zipcode":"48217"},{"establishmentid":"2245","name":"Perfect Beat","address":"1941 Fort St S","zipcode":"48217"},{"establishmentid":"51622660","name":"Cafe Sushi","address":"1933 W Maple Road","zipcode":"48084"},{"establishmentid":"51622934","name":"Tacos Regios Mexican grill #2","address":"1781 S Fort St","zipcode":"48217"}],"inspectionsByEstablishmentidList":[{"inspectionid":"40186","inspectionDate":"2017-09-22T00:00:00","inspectionType":"Preopening/New","inCompliance":"Yes","violationsByInspectionidList":[]}]}],"maxInspectionDate":[{"inspectionDate":"2019-10-31T00:00:00"}]}},"pageContext":{"eid":"51622557"}}