{"data":{"site":{"pathPrefix":"/restaurant-inspections"},"postgres":{"establishment":[{"establishmentid":"5376","name":"TMO's BBQ Pit","address":"7401 W McNichols Rd","zipcode":"48221","owner":"Toriano L. Dotson","licenseNumber":"236620","licenseType":"Fixed Establishment","establishmentType":"Food Service Establishment","establishmentStatus":"Open","riskCategory":"High","reviewFrequencyDays":"180","coords":"-83.14526,42.41690","geojson":{"id":"5376","type":"Feature","geometry":{"type":"Point","coordinates":[-83.145260621,42.416903921]},"properties":{"name":"TMO's BBQ Pit","owner":"Toriano L. Dotson","address":"7401 W McNichols Rd","zipcode":"48221","license_type":"Fixed Establishment","risk_category":"High","license_number":"236620","establishmentid":"5376","establishment_type":"Food Service Establishment","establishment_status":"Open","review_frequency_days":"180","most_recent_license_date":null}},"nearbyList":[{"establishmentid":"5350","name":"Detroit Sip, LLC","address":"7420 W McNichols Rd","zipcode":"48221"},{"establishmentid":"1674","name":"Nicky D's Coney Island","address":"16953 Livernois Ave","zipcode":"48221"},{"establishmentid":"3986","name":"Captain Jay's Fish & Chicken #111","address":"17171 Livernois Ave","zipcode":"48221"},{"establishmentid":"51622638","name":"McDonald's/Jam Jomar XXV II ","address":"17121 Livernois #10902","zipcode":"48221"},{"establishmentid":"1490","name":"McDonald's #10902","address":"17121 Livernois Ave","zipcode":"48221"},{"establishmentid":"5306","name":"Livernois Ocean Delight Inc","address":"16817 Livernois Ave","zipcode":"48221"},{"establishmentid":"1528","name":"Little Caesar's Pizza #167","address":"17200 Livernois Ave","zipcode":"48221"},{"establishmentid":"331","name":"Gregg's Pizza BBQ","address":"17160 Livernois Ave","zipcode":"48221"},{"establishmentid":"4903","name":"Babyback's Open Pit","address":"17310 Livernois Ave","zipcode":"48221"},{"establishmentid":"3282","name":"Delicious Dogs","address":"17300 Greenlawn St","zipcode":"48221"}],"inspectionsByEstablishmentidList":[{"inspectionid":"49323","inspectionDate":"2019-10-03T00:00:00","inspectionType":"Routine Inspection","inCompliance":"Yes","violationsByInspectionidList":[{"violationCode":"4-302.14","violationDescription":"A test kit or other device that accurately measures the concentration in mg/L of SANITIZING solutions shall be provided. (Pf)\r\n","violationType":"Foundation","itemDescription":"Sanitizer test kit","subItem":"","problemDescription":"Not provided","subProblem":"","location":"3 COMPARTMENT SINK AREA","subLocation":"","corrected":"Yes","daysToCorrect":"10","correctedDate":"2019-10-03T00:00:00","correctionDescription":null}]}]}],"maxInspectionDate":[{"inspectionDate":"2020-10-30T00:00:00"}]}},"pageContext":{"eid":"5376"}}