{"componentChunkName":"component---src-templates-establishment-page-js","path":"/establishment/51623556","result":{"data":{"site":{"pathPrefix":"/restaurant-inspections"},"postgres":{"establishment":[{"establishmentid":"51623556","name":"Wyoming Avenue Church of Christ","address":"20131 Wyoming","zipcode":"48221","owner":"Wyoming Ave. Church of Christ","licenseNumber":"259437","licenseType":"Fixed Establishment","establishmentType":"Food Service Establishment","establishmentStatus":null,"riskCategory":null,"reviewFrequencyDays":"335","coords":"-83.16176,42.44136","geojson":{"id":"51623556","type":"Feature","geometry":{"type":"Point","coordinates":[-83.161761871,42.441360591]},"properties":{"name":"Wyoming Avenue Church of Christ","owner":"Wyoming Ave. Church of Christ","address":"20131 Wyoming","zipcode":"48221","license_type":"Fixed Establishment","risk_category":null,"license_number":"259437","establishmentid":"51623556","establishment_type":"Food Service Establishment","establishment_status":null,"review_frequency_days":"335","most_recent_license_date":null}},"nearbyList":[{"establishmentid":"4304","name":"Aisha Shule/W.E.B. Dubois Preparatory ","address":"20119 Wisconsin","zipcode":"48221"},{"establishmentid":"1676","name":"HIGH SCHOOL OF COMMERCE","address":"20119 Wisconsin","zipcode":"48221"},{"establishmentid":"825","name":"Bates Academy","address":"19701 Wyoming Ave.","zipcode":"48221"},{"establishmentid":"3716","name":"Chik-N-Wings","address":"10145 Eight Mile Rd. W.","zipcode":"48221"},{"establishmentid":"51623609","name":"U Cheffin Right LLC","address":"20515 Griggs","zipcode":"48221"},{"establishmentid":"1249","name":"Johnson Recreation Center","address":"8640 Chippewa","zipcode":"48207"},{"establishmentid":"51623627","name":"Manhattan Crispy Fish & Chicken","address":"10715 Eight Mile","zipcode":"48212"},{"establishmentid":"1550","name":"Michigan Technical Academy/Meyers","address":"19780 Meyers Ave.","zipcode":"48235"},{"establishmentid":"51623188","name":"Gridiron Taco","address":"19780 Meyers","zipcode":"48227"},{"establishmentid":"5084","name":"Word In Action Christian Center","address":"19780 Meyers","zipcode":"48227"}],"inspectionsByEstablishmentidList":[]}],"maxInspectionDate":[{"inspectionDate":"2022-08-31T00:00:00"}]}},"pageContext":{"eid":"51623556"}},"staticQueryHashes":["3649515864","63159454"]}