{"data":{"site":{"pathPrefix":"/restaurant-inspections"},"postgres":{"establishment":[{"establishmentid":"51623180","name":"Bash Original Izakaya","address":"5069 Trumbull Avenue","zipcode":"48208","owner":"Hyoung Kim","licenseNumber":"249499","licenseType":"Fixed Establishment","establishmentType":"Food Service Establishment","establishmentStatus":"Open","riskCategory":"High","reviewFrequencyDays":"180","coords":"-83.07958,42.35290","geojson":{"id":"51623180","type":"Feature","geometry":{"type":"Point","coordinates":[-83.079575631,42.352898726]},"properties":{"name":"Bash Original Izakaya","owner":"Hyoung Kim","address":"5069 Trumbull Avenue","zipcode":"48208","license_type":"Fixed Establishment","risk_category":"High","license_number":"249499","establishmentid":"51623180","establishment_type":"Food Service Establishment","establishment_status":"Open","review_frequency_days":"180","most_recent_license_date":"6/16/2020"}},"nearbyList":[{"establishmentid":"51622874","name":"Katsu Detroit","address":"5069 Trumbull Ave","zipcode":"48208"},{"establishmentid":"51622728","name":"Good Krispy Fish & Chicken","address":"5001 Trumbull St","zipcode":"48208"},{"establishmentid":"5156","name":"Pie-Sci Pizza","address":"5163 Trumbull Ave","zipcode":"48208"},{"establishmentid":"3801","name":"Woodbridge Pub","address":"5169 Trumbull Ave","zipcode":"48208"},{"establishmentid":"952","name":"Douglass Academy For Young Men","address":"2001 W Warren Ave","zipcode":"48208"},{"establishmentid":"493","name":"Dynasty Chinese Food","address":"1115 W Warren Ave","zipcode":"48201"},{"establishmentid":"1733","name":"WSU Sub Shops LLC/Subway","address":"1113 W Warren Ave","zipcode":"48201"},{"establishmentid":"966","name":"Edmonson Elementary School","address":"1300 W Canfield St","zipcode":"48201"},{"establishmentid":"51623252","name":"Junk Food and Friends ","address":"5581 John C Lodge ","zipcode":"48206"},{"establishmentid":"2442","name":"George Crockett Academy","address":"4851 Fourteenth St","zipcode":"48208"}],"inspectionsByEstablishmentidList":[]}],"maxInspectionDate":[{"inspectionDate":"2020-10-30T00:00:00"}]}},"pageContext":{"eid":"51623180"}}