{"data":{"site":{"pathPrefix":"/restaurant-inspections"},"postgres":{"establishment":[{"establishmentid":"5111","name":"Detroit 75 II, LLC","address":"4800 W Fort St","zipcode":"48209","owner":"Mohamad Nassar","licenseNumber":"039835","licenseType":"Mobile Food Establishment","establishmentType":"LHD - Mobile Food Establishmen","establishmentStatus":"Seasonal","riskCategory":null,"reviewFrequencyDays":"210","coords":"-83.09431,42.31101","geojson":{"id":"5111","type":"Feature","geometry":{"type":"Point","coordinates":[-83.094307007,42.311007838]},"properties":{"name":"Detroit 75 II, LLC","owner":"Mohamad Nassar","address":"4800 W Fort St","zipcode":"48209","license_type":"Mobile Food Establishment","risk_category":null,"license_number":"039835","establishmentid":"5111","establishment_type":"LHD - Mobile Food Establishmen","establishment_status":"Seasonal","review_frequency_days":"210","most_recent_license_date":"4/18/2019"}},"nearbyList":[{"establishmentid":"4917","name":"Detroit 75 Kitchen","address":"4800 W Fort St","zipcode":"48209"},{"establishmentid":"4417","name":"Community Health & Social Services Ctr. ","address":"5635 West Fort St","zipcode":"48209"},{"establishmentid":"2128","name":"Maybury School","address":"4410 Porter St","zipcode":"48209"},{"establishmentid":"51622590","name":"El Caporal","address":"1414 Junction St","zipcode":"48209"},{"establishmentid":"4176","name":"Amelia Earhart Elementary/Middle School","address":"1000 Scotten St","zipcode":"48209"},{"establishmentid":"1561","name":"Club International","address":"6060 Fort St W","zipcode":"48209"},{"establishmentid":"4662","name":"Tacos Morelotes","address":"1494 Junction Ave","zipcode":"48209"},{"establishmentid":"2402","name":"China House","address":"1650 Lansing St","zipcode":"48209"},{"establishmentid":"51622884","name":"China House","address":"1650 Lansing St","zipcode":"48209"},{"establishmentid":"5402","name":"Antojitos Los Tres Hermanos","address":"4627 W Vernor","zipcode":"48209"}],"inspectionsByEstablishmentidList":[]}],"maxInspectionDate":[{"inspectionDate":"2020-05-29T00:00:00"}]}},"pageContext":{"eid":"5111"}}