{"componentChunkName":"component---src-templates-establishment-page-js","path":"/establishment/3754","result":{"data":{"site":{"pathPrefix":"/restaurant-inspections"},"postgres":{"establishment":[{"establishmentid":"3754","name":"Motown's Fresh Fish & Soul","address":"20106 Warren Ave. W.","zipcode":"48228","owner":"Linda Taylor","licenseNumber":"20106NE","licenseType":"Fixed Establishment","establishmentType":"Food Service Establishment","establishmentStatus":"Permanently Closed","riskCategory":null,"reviewFrequencyDays":"335","coords":"-83.23685,42.34324","geojson":{"id":"3754","type":"Feature","geometry":{"type":"Point","coordinates":[-83.23685455,42.34323883]},"properties":{"name":"Motown's Fresh Fish & Soul","owner":"Linda Taylor","address":"20106 Warren Ave. W.","zipcode":"48228","license_type":"Fixed Establishment","risk_category":null,"license_number":"20106NE","establishmentid":"3754","establishment_type":"Food Service Establishment","establishment_status":"Permanently Closed","review_frequency_days":"335","most_recent_license_date":null}},"nearbyList":[{"establishmentid":"1443","name":"Pizza Way","address":"20039 Warren Ave. W.","zipcode":"48228"},{"establishmentid":"599","name":"Big Joe's Sports Saloon","address":"20428 Warren Ave. W.","zipcode":"48228"},{"establishmentid":"690","name":"Diamond Jim's Saloon","address":"19650 Warren Ave. W.","zipcode":"48228"},{"establishmentid":"51623317","name":"Tasty Fixins Catering LLC","address":"7450 Vaughan","zipcode":"48228"},{"establishmentid":"4611","name":"Darna Pizzeria & Restaurant","address":"20510 Warren W.","zipcode":"48228"},{"establishmentid":"2410","name":"King Wah Chop Suey","address":"20510 Warren Ave. W.","zipcode":"48228"},{"establishmentid":"5233","name":"Evergreen Fish Express LLC","address":"6540 Evergreen","zipcode":"48228"},{"establishmentid":"368","name":"Juan's Corned Beef","address":"19533 Warren Ave. W.","zipcode":"48228"},{"establishmentid":"4137","name":"Old Fashion Hamburger Company","address":"19533 Warren Ave. W","zipcode":"48228"},{"establishmentid":"255","name":"Last Call Bar","address":"19432 Warren Ave. W.","zipcode":"48228"}],"inspectionsByEstablishmentidList":[]}],"maxInspectionDate":[{"inspectionDate":"2022-07-25T00:00:00"}]}},"pageContext":{"eid":"3754"}},"staticQueryHashes":["3649515864","63159454"]}