{"componentChunkName":"component---src-templates-establishment-page-js","path":"/establishment/1691","result":{"data":{"site":{"pathPrefix":"/restaurant-inspections"},"postgres":{"establishment":[{"establishmentid":"1691","name":"United Community Hospital","address":"2401 20TH ST","zipcode":"48216","owner":"HARLEY BROWN K","licenseNumber":"036054","licenseType":"Fixed Establishment","establishmentType":"Food Service Establishment","establishmentStatus":"Temporarily Closed","riskCategory":null,"reviewFrequencyDays":"150","coords":"-83.08464,42.32986","geojson":{"id":"1691","type":"Feature","geometry":{"type":"Point","coordinates":[-83.084639219,42.32985777]},"properties":{"name":"United Community Hospital","owner":"HARLEY BROWN K","address":"2401 20TH ST","zipcode":"48216","license_type":"Fixed Establishment","risk_category":null,"license_number":"036054","establishmentid":"1691","establishment_type":"Food Service Establishment","establishment_status":"Temporarily Closed","review_frequency_days":"150","most_recent_license_date":"4/12/2006"}},"nearbyList":[{"establishmentid":"2115","name":"ACI Enterprise","address":"2401 20th St.","zipcode":"48216"},{"establishmentid":"1831","name":"Robinson Dairy Vending","address":"2401 20th Street","zipcode":"48216"},{"establishmentid":"5113","name":"Takoi","address":"2520 Michigan","zipcode":"48216"},{"establishmentid":"51623088","name":"Supergeil","address":"2442  Michigan","zipcode":"48216"},{"establishmentid":"51623344","name":"Ro Cham Beau","address":"3321-25 Michigan Ave..","zipcode":"48216"},{"establishmentid":"1441","name":"Donovan's Pub","address":"3003 Vernor St. W.","zipcode":"48216"},{"establishmentid":"51623572","name":"Six Spoke LLC","address":"2364 17th St.","zipcode":"48216"},{"establishmentid":"4752","name":"Two James Spirits","address":"2445 Michigan Ave.","zipcode":"48216"},{"establishmentid":"51622672","name":"Cork & Gabel","address":"2415 Michigan","zipcode":"48216"},{"establishmentid":"1056","name":"Tameleria Nuevo Leon","address":"2669 Vernor St.W.","zipcode":"48216"}],"inspectionsByEstablishmentidList":[]}],"maxInspectionDate":[{"inspectionDate":"2023-04-13T00:00:00"}]}},"pageContext":{"eid":"1691"}},"staticQueryHashes":["3649515864","63159454"]}