{"componentChunkName":"component---src-templates-establishment-page-js","path":"/establishment/51623447","result":{"data":{"site":{"pathPrefix":"/restaurant-inspections"},"postgres":{"establishment":[{"establishmentid":"51623447","name":"Reef Kitchens #04 (Fixed Trailer)","address":"4145 Woodward Ave. ","zipcode":"48201","owner":"Vessel MI Operations LLC","licenseNumber":"260884","licenseType":"Fixed Establishment","establishmentType":"Food Service Establishment","establishmentStatus":"Plan Review","riskCategory":null,"reviewFrequencyDays":null,"coords":"-83.06084,42.35119","geojson":{"id":"51623447","type":"Feature","geometry":{"type":"Point","coordinates":[-83.060843009,42.351189464]},"properties":{"name":"Reef Kitchens #04 (Fixed Trailer)","owner":"Vessel MI Operations LLC","address":"4145 Woodward Ave. ","zipcode":"48201","license_type":"Fixed Establishment","risk_category":null,"license_number":"260884","establishmentid":"51623447","establishment_type":"Food Service Establishment","establishment_status":"Plan Review","review_frequency_days":null,"most_recent_license_date":"22/9/2021"}},"nearbyList":[{"establishmentid":"1098","name":"Union Street Detroit","address":"4145 Woodward Ave.","zipcode":"48201"},{"establishmentid":"4344","name":"Sgt. Pepperoni's Pizzaria & Deli/GB","address":"4140  Woodward Ave.","zipcode":"48201"},{"establishmentid":"51623593","name":"Fork in Nigeria","address":"4209 Woodward Ave.","zipcode":"48201"},{"establishmentid":"51623110","name":"Midtown Zef's","address":"4160 Woodward Ave.","zipcode":"48201"},{"establishmentid":"4213","name":"The Raw Cafe","address":"4160 Woodward Ave.","zipcode":"48201"},{"establishmentid":"4818","name":"Midtown Zef's","address":"4160 Woodward ","zipcode":"48201"},{"establishmentid":"5276","name":"2941 Street Foods of Midtown","address":"4219 Woodward Ave.","zipcode":"48201"},{"establishmentid":"51623711","name":"Fork In Nigeria Food Truck","address":"4219 Woodward Ave.","zipcode":"48201"},{"establishmentid":"5252","name":"2941 Street Foods of Midtown","address":"4219 Woodward","zipcode":"48201"},{"establishmentid":"51623407","name":"Warda Patisserie","address":"70 Alexandrine W.","zipcode":"48201"}],"inspectionsByEstablishmentidList":[]}],"maxInspectionDate":[{"inspectionDate":"2023-04-13T00:00:00"}]}},"pageContext":{"eid":"51623447"}},"staticQueryHashes":["3649515864","63159454"]}