{"componentChunkName":"component---src-templates-establishment-page-js","path":"/establishment/369","result":{"data":{"site":{"pathPrefix":"/restaurant-inspections"},"postgres":{"establishment":[{"establishmentid":"369","name":"Cadillac Coney Island","address":"5900 Chene","zipcode":"48211","owner":"Joseph Milicaj","licenseNumber":"050839","licenseType":"Fixed Establishment","establishmentType":"Food Service Establishment","establishmentStatus":"Open","riskCategory":null,"reviewFrequencyDays":"150","coords":"-83.04547,42.37320","geojson":{"id":"369","type":"Feature","geometry":{"type":"Point","coordinates":[-83.045474517,42.373199038]},"properties":{"name":"Cadillac Coney Island","owner":"Joseph Milicaj","address":"5900 Chene","zipcode":"48211","license_type":"Fixed Establishment","risk_category":null,"license_number":"050839","establishmentid":"369","establishment_type":"Food Service Establishment","establishment_status":"Open","review_frequency_days":"150","most_recent_license_date":"12/4/2006"}},"nearbyList":[{"establishmentid":"1105","name":"Lucky O Bar","address":"5816 Chene","zipcode":"48211"},{"establishmentid":"2819","name":"Transfer Point","address":"5747  Chene","zipcode":"48211"},{"establishmentid":"2084","name":"Roman Vending","address":"1550 Harper","zipcode":"48211"},{"establishmentid":"51623264","name":"Chene Street Grocers","address":"5200 Chene","zipcode":"48211"},{"establishmentid":"330","name":"Raven Lounge & Restaurant","address":"5145 Chene","zipcode":"48211"},{"establishmentid":"2829","name":"Specialized Vending Services","address":"1910 Trombly","zipcode":"48211"},{"establishmentid":"2552","name":"METRO VENDING","address":"1910 TROMBLY","zipcode":"48212"},{"establishmentid":"702","name":"Ruby's Cafe","address":"2445 Grand Blvd. W.","zipcode":"48208"},{"establishmentid":"3248","name":"Le Cafe The","address":"2445 Grand Blvd. W.","zipcode":"48216"},{"establishmentid":"1777","name":"AVI Foodsystems","address":"2500 Grand Blvd. E.","zipcode":"48211"}],"inspectionsByEstablishmentidList":[]}],"maxInspectionDate":[{"inspectionDate":"2022-08-31T00:00:00"}]}},"pageContext":{"eid":"369"}},"staticQueryHashes":["3649515864","63159454"]}