{"componentChunkName":"component---src-templates-establishment-page-js","path":"/establishment/1356","result":{"data":{"site":{"pathPrefix":"/restaurant-inspections"},"postgres":{"establishment":[{"establishmentid":"1356","name":"SW Det Lodge #1870 Loo Moose","address":"2034 Lawndale","zipcode":"48209","owner":"McLaughlin John T","licenseNumber":"035495","licenseType":"Fixed Establishment","establishmentType":"Food Service Establishment","establishmentStatus":"Open","riskCategory":null,"reviewFrequencyDays":"335","coords":"-83.13126,42.30788","geojson":{"id":"1356","type":"Feature","geometry":{"type":"Point","coordinates":[-83.131255799,42.307883963]},"properties":{"name":"SW Det Lodge #1870 Loo Moose","owner":"McLaughlin John T","address":"2034 Lawndale","zipcode":"48209","license_type":"Fixed Establishment","risk_category":null,"license_number":"035495","establishmentid":"1356","establishment_type":"Food Service Establishment","establishment_status":"Open","review_frequency_days":"335","most_recent_license_date":"2007-06-26"}},"nearbyList":[{"establishmentid":"4571","name":"WAY Academy Southwest Campus","address":"8701 W.Vernor","zipcode":"48209"},{"establishmentid":"211","name":"La Terraza","address":"8445 Vernor St.W.","zipcode":"48209"},{"establishmentid":"5173","name":"El Salpicon","address":"8600 Vernor W.","zipcode":"48209"},{"establishmentid":"5037","name":"La Nena's Sabor De Mami","address":"8600 Venor Hwy. W.","zipcode":"48209"},{"establishmentid":"1416","name":"Niko's Pizza and Gyros","address":"8600 Vernor St. W.","zipcode":"48209"},{"establishmentid":"51623543","name":"The Green Mile Grill","address":"8600 Vernor Hwy W.","zipcode":"48209"},{"establishmentid":"4867","name":"Lucky Coney & Pizza LLC","address":"8600 W. Vernor","zipcode":"48209"},{"establishmentid":"51623299","name":"Pancho Tacos","address":"8600 Vernor W.","zipcode":"48209"},{"establishmentid":"5415","name":"La Hacienda Food Truck","address":"8600 Vernor Hwy W. ","zipcode":"48209"},{"establishmentid":"305","name":"Matrix Head Start-Manuel Reyes","address":"8500 Vernor St. W.","zipcode":"48209"}],"inspectionsByEstablishmentidList":[]}],"maxInspectionDate":[{"inspectionDate":"2023-04-25T00:00:00"}]}},"pageContext":{"eid":"1356"}},"staticQueryHashes":["3649515864","63159454"]}