{"componentChunkName":"component---src-templates-establishment-page-js","path":"/establishment/51623546","result":{"data":{"site":{"pathPrefix":"/restaurant-inspections"},"postgres":{"establishment":[{"establishmentid":"51623546","name":"Urban Grill  ","address":"14501 Fenkell ","zipcode":"48227","owner":"Darene Spratt","licenseNumber":"260483","licenseType":"Fixed Establishment","establishmentType":"Food Service Establishment","establishmentStatus":"Open","riskCategory":null,"reviewFrequencyDays":"150","coords":"-83.18797,42.40169","geojson":{"id":"51623546","type":"Feature","geometry":{"type":"Point","coordinates":[-83.187973674,42.401694845]},"properties":{"name":"Urban Grill  ","owner":"Darene Spratt","address":"14501 Fenkell ","zipcode":"48227","license_type":"Fixed Establishment","risk_category":null,"license_number":"260483","establishmentid":"51623546","establishment_type":"Food Service Establishment","establishment_status":"Open","review_frequency_days":"150","most_recent_license_date":"4/28/2022"}},"nearbyList":[{"establishmentid":"4298","name":"Michigan Starz Dairy","address":"14501 Fenkell St.","zipcode":"48227"},{"establishmentid":"5184","name":"Fats Pizza & Grill LLC","address":"14535 Fenkell Ave.","zipcode":"48227"},{"establishmentid":"4144","name":"Lucky's Pizza","address":"14535 Fenkell St.","zipcode":"48227"},{"establishmentid":"5400","name":"Hubbell Fish & Chicken","address":"14535 Fenkell","zipcode":"48227"},{"establishmentid":"4108","name":"Captain Crust II","address":"14535 Fenkell","zipcode":"48227"},{"establishmentid":"51622917","name":"Yoshi Hibachi Grille/Yum Yoshi LLC","address":"14535 Fenkell","zipcode":"48203"},{"establishmentid":"3406","name":"Poppy's Pizza","address":"14545 Fenkell","zipcode":"48227"},{"establishmentid":"51623360","name":"5 Mile Grill","address":"14300 Fenkell","zipcode":"48227"},{"establishmentid":"871","name":"Cooley High School","address":"15055 Hubbell","zipcode":"48227"},{"establishmentid":"5153","name":"Davis Coney Island","address":"14228 Fenkell Ave.","zipcode":"48227"}],"inspectionsByEstablishmentidList":[{"inspectionid":"56775","inspectionDate":"2021-12-01T00:00:00","inspectionType":"Preopening/New","inCompliance":"Yes","violationsByInspectionidList":[{"violationCode":"6-202.14","violationDescription":"Except as otherwise allowed, a toilet room located on the PREMISES shall be completely enclosed and provided with a tight-fitting and self-closing door. \n","violationType":"Core","itemDescription":"Toilet room(s)","subItem":null,"problemDescription":"Not provided with","subProblem":"Self-closing door","location":"BACK AREA","subLocation":"The Restroom(s)","corrected":"False","daysToCorrect":"30","correctedDate":null,"correctionDescription":"Provide self-closing door."}]}]}],"maxInspectionDate":[{"inspectionDate":"2022-07-25T00:00:00"}]}},"pageContext":{"eid":"51623546"}},"staticQueryHashes":["3649515864","63159454"]}