{"componentChunkName":"component---src-templates-establishment-page-js","path":"/establishment/51623354","result":{"data":{"site":{"pathPrefix":"/restaurant-inspections"},"postgres":{"establishment":[{"establishmentid":"51623354","name":"Black Cloud Kitchen ","address":"12700 E. Warren ","zipcode":"48215","owner":"Lloyd M. Talley","licenseNumber":"122220DC","licenseType":"Fixed Establishment","establishmentType":"Food Service Establishment","establishmentStatus":"Open","riskCategory":"High","reviewFrequencyDays":"150","coords":"-82.97004,42.39121","geojson":{"id":"51623354","type":"Feature","geometry":{"type":"Point","coordinates":[-82.97003708,42.391210467]},"properties":{"name":"Black Cloud Kitchen ","owner":"Lloyd M. Talley","address":"12700 E. Warren ","zipcode":"48215","license_type":"Fixed Establishment","risk_category":"High","license_number":"122220DC","establishmentid":"51623354","establishment_type":"Food Service Establishment","establishment_status":"Open","review_frequency_days":"150","most_recent_license_date":"2020-12-22"}},"nearbyList":[{"establishmentid":"4472","name":"Eastside Soulfood","address":"12700 Warren E.","zipcode":"48215"},{"establishmentid":"51623316","name":"Lonestar Catering","address":"12700 E. Warren","zipcode":"48215"},{"establishmentid":"5425","name":"Spud Headz","address":"12700 Warren E.","zipcode":"48215"},{"establishmentid":"5240","name":"Red Sea Food Inc.","address":"12500 Warren E.","zipcode":"48215"},{"establishmentid":"51623404","name":"Toney Island LLC","address":"13000 E. Warren ","zipcode":"48215"},{"establishmentid":"5227","name":"Al Namer Fish & Seafood #2 LLC","address":"12332 Warren E.","zipcode":"48215"},{"establishmentid":"1731","name":"Capuchin Kitchen","address":"4390 Conner ","zipcode":"48215"},{"establishmentid":"2766","name":"Wendy's ","address":"4749 Conner","zipcode":"48215"},{"establishmentid":"3438","name":"Filterfresh","address":"4703 Conner","zipcode":null},{"establishmentid":"1796","name":"Popeye's #930","address":"12218 Warren Ave. E.","zipcode":"48215"}],"inspectionsByEstablishmentidList":[{"inspectionid":"53826","inspectionDate":"2021-01-05T00:00:00","inspectionType":"Preopening/New","inCompliance":"Yes","violationsByInspectionidList":[{"violationCode":"6-303.11","violationDescription":"Light of the proper intensity shall be provided as specified.\n","violationType":"Core","itemDescription":"Lighting intensity","subItem":"at work levels","problemDescription":"Not maintained","subProblem":"","location":"KITCHEN","subLocation":"Under the Ventilation hood","corrected":"False","daysToCorrect":"30","correctedDate":null,"correctionDescription":null}]}]}],"maxInspectionDate":[{"inspectionDate":"2023-04-25T00:00:00"}]}},"pageContext":{"eid":"51623354"}},"staticQueryHashes":["3649515864","63159454"]}