{"componentChunkName":"component---src-templates-establishment-page-js","path":"/establishment/51623294","result":{"data":{"site":{"pathPrefix":"/restaurant-inspections"},"postgres":{"establishment":[{"establishmentid":"51623294","name":"McDonalds ","address":"8825 E. Jefferson ","zipcode":"48214","owner":"Yusef  Alcodray ","licenseNumber":"249495","licenseType":"Fixed Establishment","establishmentType":"Food Service Establishment","establishmentStatus":"Open","riskCategory":null,"reviewFrequencyDays":"335","coords":"-82.98782,42.35669","geojson":{"id":"51623294","type":"Feature","geometry":{"type":"Point","coordinates":[-82.987824255,42.356694839]},"properties":{"name":"McDonalds ","owner":"Yusef  Alcodray ","address":"8825 E. Jefferson ","zipcode":"48214","license_type":"Fixed Establishment","risk_category":null,"license_number":"249495","establishmentid":"51623294","establishment_type":"Food Service Establishment","establishment_status":"Open","review_frequency_days":"335","most_recent_license_date":"15/3/2021"}},"nearbyList":[{"establishmentid":"2370","name":"McDonald's #2285","address":"8825 Jefferson Ave. E.","zipcode":"48214"},{"establishmentid":"2632","name":"Crank's Catering","address":"8731 Jefferson E.","zipcode":"48214"},{"establishmentid":"1651","name":"De Angelo's Pizza","address":"8935 Jefferson Ave. E.","zipcode":"48214"},{"establishmentid":"51623862","name":"Krunchy'z Fish & Chicken","address":"8935 Jefferson","zipcode":"48214"},{"establishmentid":"51623338","name":"Jefferson Avenue Presbyterian Church","address":"8625 Jefferson Ave. E.","zipcode":"48214"},{"establishmentid":"51622758","name":"IVY Kitchen + Cocktails","address":"9215 Jefferson E","zipcode":"48214"},{"establishmentid":"51622759","name":"Urban Flavors Detroit","address":"9215 Jefferson Avenue E.","zipcode":null},{"establishmentid":"51622516","name":"The In Les Place","address":"415  Burns","zipcode":"48214"},{"establishmentid":"51622626","name":"Whittier Restaurant","address":"415 Burns","zipcode":"48214"},{"establishmentid":"4653","name":"Indian Village Market","address":"8415 E. Jefferson","zipcode":"48214"}],"inspectionsByEstablishmentidList":[]}],"maxInspectionDate":[{"inspectionDate":"2023-04-13T00:00:00"}]}},"pageContext":{"eid":"51623294"}},"staticQueryHashes":["3649515864","63159454"]}