{"componentChunkName":"component---src-templates-establishment-page-js","path":"/establishment/51623598","result":{"data":{"site":{"pathPrefix":"/restaurant-inspections"},"postgres":{"establishment":[{"establishmentid":"51623598","name":"Cocina La Chatita ","address":"2643 Casper ","zipcode":"48209","owner":"Yoselin Duran- Bautista ","licenseNumber":"260486","licenseType":"Special Transitory Food Unit","establishmentType":"LHD - Special Transitory Food","establishmentStatus":"Open","riskCategory":null,"reviewFrequencyDays":"150","coords":"-83.12839,42.31573","geojson":{"id":"51623598","type":"Feature","geometry":{"type":"Point","coordinates":[-83.128389227,42.315734281]},"properties":{"name":"Cocina La Chatita ","owner":"Yoselin Duran- Bautista ","address":"2643 Casper ","zipcode":"48209","license_type":"Special Transitory Food Unit","risk_category":null,"license_number":"260486","establishmentid":"51623598","establishment_type":"LHD - Special Transitory Food","establishment_status":"Open","review_frequency_days":"150","most_recent_license_date":"31/5/2022"}},"nearbyList":[{"establishmentid":"1015","name":"Casey's Bar L.L.C.","address":"7677 Dix Ave.","zipcode":"48209"},{"establishmentid":"4663","name":"El Taco Movil","address":"2750  Inglis","zipcode":"48209"},{"establishmentid":"51623698","name":"Gorditas Cuernavaca","address":"2574 Norman St.","zipcode":"48209"},{"establishmentid":"995","name":"Harms School Elementary","address":"2400 Central Ave.","zipcode":"48209"},{"establishmentid":"565","name":"La Mexicana Restaruant","address":"7928 Vernor W.","zipcode":"48209"},{"establishmentid":"1730","name":"Great Panda Garden Chinese Restaurant","address":"7930 Vernor St. W.","zipcode":"48209"},{"establishmentid":"4471","name":"Dave's Famous Coney Island & Grill","address":"7900 Vernor, W.","zipcode":"48209"},{"establishmentid":"2294","name":"Spring at Vernor Coney Island","address":"7900 Vernor St. W.","zipcode":"48209"},{"establishmentid":"3414","name":"Al-Andaleeb Restaurant","address":"8020 Vernor W.","zipcode":"48210"},{"establishmentid":"3611","name":"Tacos El Cunado #1","address":"2739 Norman St.","zipcode":"48209"}],"inspectionsByEstablishmentidList":[]}],"maxInspectionDate":[{"inspectionDate":"2023-04-13T00:00:00"}]}},"pageContext":{"eid":"51623598"}},"staticQueryHashes":["3649515864","63159454"]}