{"componentChunkName":"component---src-templates-establishment-page-js","path":"/establishment/771","result":{"data":{"site":{"pathPrefix":"/restaurant-inspections"},"postgres":{"establishment":[{"establishmentid":"771","name":"Wheeler's","address":"18018 Chalmers","zipcode":"48205","owner":"Harold G. Masters","licenseNumber":"034786","licenseType":"Fixed Establishment","establishmentType":"Food Service Establishment","establishmentStatus":"Permanently Closed","riskCategory":null,"reviewFrequencyDays":"180","coords":"-82.97479,42.42824","geojson":{"id":"771","type":"Feature","geometry":{"type":"Point","coordinates":[-82.974791797,42.428237326]},"properties":{"name":"Wheeler's","owner":"Harold G. Masters","address":"18018 Chalmers","zipcode":"48205","license_type":"Fixed Establishment","risk_category":null,"license_number":"034786","establishmentid":"771","establishment_type":"Food Service Establishment","establishment_status":"Permanently Closed","review_frequency_days":"180","most_recent_license_date":"2006-12-04"}},"nearbyList":[{"establishmentid":"921","name":"Mt. Calvary Lutheran School","address":"17100 Chalmers  Ave.","zipcode":"48205"},{"establishmentid":"1059","name":"MAAT IM Hotel Tech Academy","address":"12700 Grover","zipcode":"48205"},{"establishmentid":"2049","name":"Popeye's #934","address":"14180 Gratiot Ave.","zipcode":"48205"},{"establishmentid":"5377","name":"Pasta Bowl Two","address":"14063 Gratiot","zipcode":"48205"},{"establishmentid":"4822","name":"Captain Jay's Fish & Chicken #107","address":"14205 Gratiot Ave.","zipcode":"48205"},{"establishmentid":"3301","name":"Chateau Cuisine","address":"12330 Chalmers Ave.","zipcode":"48205"},{"establishmentid":"1176","name":"Church's Fried Chicken #974","address":"14260 Gratiot Ave.","zipcode":"48205"},{"establishmentid":"3386","name":"Houston Grill","address":"14299 Houston Whittier","zipcode":"48205"},{"establishmentid":"1910","name":"V I P Coney Island","address":"14300 Gratiot Ave.","zipcode":"48205"},{"establishmentid":"3787","name":"V I P Koney Island","address":"14300 Gratiot Ave.","zipcode":"48205"}],"inspectionsByEstablishmentidList":[]}],"maxInspectionDate":[{"inspectionDate":"2023-04-25T00:00:00"}]}},"pageContext":{"eid":"771"}},"staticQueryHashes":["3649515864","63159454"]}