{"componentChunkName":"component---src-templates-establishment-page-js","path":"/establishment/223","result":{"data":{"site":{"pathPrefix":"/restaurant-inspections"},"postgres":{"establishment":[{"establishmentid":"223","name":"Staar Bar","address":"3536 Michigan Ave.","zipcode":"48216","owner":"Tonie Roland","licenseNumber":"DR52716","licenseType":"Fixed Establishment","establishmentType":"Food Service Establishment","establishmentStatus":"Permanently Closed","riskCategory":null,"reviewFrequencyDays":"335","coords":"-83.09268,42.33165","geojson":{"id":"223","type":"Feature","geometry":{"type":"Point","coordinates":[-83.092679613,42.331653368]},"properties":{"name":"Staar Bar","owner":"Tonie Roland","address":"3536 Michigan Ave.","zipcode":"48216","license_type":"Fixed Establishment","risk_category":null,"license_number":"DR52716","establishmentid":"223","establishment_type":"Food Service Establishment","establishment_status":"Permanently Closed","review_frequency_days":"335","most_recent_license_date":null}},"nearbyList":[{"establishmentid":"4863","name":"Snack In A Box","address":"3526 Michigan","zipcode":"48216"},{"establishmentid":"595","name":"Hy-Grade Delicatessen Restaurant, Inc.","address":"3640 Michigan Ave.","zipcode":"48216"},{"establishmentid":"51623746","name":"Hygrade Deli","address":"3640 Michigan Ave ","zipcode":"48216"},{"establishmentid":"604","name":"Mike's Famous Ham Place","address":"3700 Michigan Ave.","zipcode":"48216"},{"establishmentid":"584","name":"US Star Bar","address":"3415 Michigan Ave.","zipcode":"48216"},{"establishmentid":"51623491","name":"Sakura Hibachi Grill","address":"3109 Roosevelt","zipcode":"48216"},{"establishmentid":"51623344","name":"Ro Cham Beau","address":"3321-25 Michigan Ave..","zipcode":"48216"},{"establishmentid":"51623104","name":"Ladder 4, LLC","address":"3396 Vinewood St.","zipcode":"48208"},{"establishmentid":"51623577","name":"The Egg Hunt LLC","address":"3083 Lawton","zipcode":"48216"},{"establishmentid":"2145","name":"Covenant House Michigan","address":"2959 Martin Luther King Blvd.","zipcode":"48208"}],"inspectionsByEstablishmentidList":[]}],"maxInspectionDate":[{"inspectionDate":"2023-04-25T00:00:00"}]}},"pageContext":{"eid":"223"}},"staticQueryHashes":["3649515864","63159454"]}