{"data":{"site":{"pathPrefix":"/restaurant-inspections"},"postgres":{"establishment":[{"establishmentid":"51622692","name":"J's Wings-N-Things","address":"12250 E Outer Drive","zipcode":"48224","owner":"Lawrence Johnson","licenseNumber":"246047","licenseType":"Special Transitory Food Unit","establishmentType":"LHD - Special Transitory Food","establishmentStatus":"Open","riskCategory":null,"reviewFrequencyDays":"365","coords":"-82.93818,42.40543","geojson":{"id":"51622692","type":"Feature","geometry":{"type":"Point","coordinates":[-82.938175714,42.4054299]},"properties":{"name":"J's Wings-N-Things","owner":"Lawrence Johnson","address":"12250 E Outer Drive","zipcode":"48224","license_type":"Special Transitory Food Unit","risk_category":null,"license_number":"246047","establishmentid":"51622692","establishment_type":"LHD - Special Transitory Food","establishment_status":"Open","review_frequency_days":"365","most_recent_license_date":null}},"nearbyList":[{"establishmentid":"51622845","name":"Flamzs","address":"16369 E Warren Ave","zipcode":"48224"},{"establishmentid":"51622685","name":"House of BBQ","address":"16619 E Warren Ave","zipcode":"48224"},{"establishmentid":"2861","name":"Jeanie's Lounge","address":"16200 E Warren Ave","zipcode":"48224"},{"establishmentid":"51622879","name":"Chef Mel's Hotdogs","address":"5782 Kensington Ave","zipcode":"48224"},{"establishmentid":"2466","name":"Pizza Hut #26290","address":"16835 E Warren Ave","zipcode":"48224"},{"establishmentid":"51623181","name":"Big Greedy","address":"16024 E Warren Ave","zipcode":"48224"},{"establishmentid":"418","name":"East English Village Bar & Grill","address":"16915 E Warren Ave","zipcode":"48224"},{"establishmentid":"5172","name":"Danny's Diner","address":"17017 E Warren","zipcode":"48224"},{"establishmentid":"51622784","name":"York Sussex Partners","address":"17017 E Warren Ave","zipcode":"48224"},{"establishmentid":"51623094","name":"Sunday Cakes & Plates","address":"5953 Courville St","zipcode":"48224"}],"inspectionsByEstablishmentidList":[{"inspectionid":"49723","inspectionDate":"2019-11-01T00:00:00","inspectionType":"Routine Inspection","inCompliance":"Yes","violationsByInspectionidList":[{"violationCode":"3-302.12","violationDescription":"Except for containers holding FOOD that can be readily and unmistakably recognized such as dry pasta, working containers holding FOOD or FOOD ingredients that are removed from their original packages for use in the FOOD ESTABLISHMENT, such as cooking oils, flour, herbs, potato flakes, salt, spices, and sugar shall be identified with the common name of the FOOD.","violationType":"Core","itemDescription":"Food item(s)","subItem":"","problemDescription":"Not identified","subProblem":"","location":"STFU","subLocation":"Missing Labels","corrected":"Not required","daysToCorrect":"30","correctedDate":null,"correctionDescription":"Label containers with common name."}]}]}],"maxInspectionDate":[{"inspectionDate":"2020-10-30T00:00:00"}]}},"pageContext":{"eid":"51622692"}}