{"componentChunkName":"component---src-templates-establishment-page-js","path":"/establishment/4447","result":{"data":{"site":{"pathPrefix":"/restaurant-inspections"},"postgres":{"establishment":[{"establishmentid":"4447","name":"Detroit's Cheesecake Bistro LLC","address":"1045  Brush St.","zipcode":"48226","owner":"Levan Hawkins","licenseNumber":"073755","licenseType":"Fixed Establishment","establishmentType":"Food Service Establishment","establishmentStatus":null,"riskCategory":"High","reviewFrequencyDays":"150","coords":"-83.04277,42.33408","geojson":{"id":"4447","type":"Feature","geometry":{"type":"Point","coordinates":[-83.042768564,42.334083146]},"properties":{"name":"Detroit's Cheesecake Bistro LLC","owner":"Levan Hawkins","address":"1045  Brush St.","zipcode":"48226","license_type":"Fixed Establishment","risk_category":"High","license_number":"073755","establishmentid":"4447","establishment_type":"Food Service Establishment","establishment_status":null,"review_frequency_days":"150","most_recent_license_date":null}},"nearbyList":[{"establishmentid":"51623029","name":"Atheneum Suites Hotel","address":"1000 Brush","zipcode":"48226"},{"establishmentid":"2065","name":"Sweet Georgia Brown","address":"1045 Brush","zipcode":"48226"},{"establishmentid":"1485","name":"International Banquet & Conference Ctr.","address":"400 Monroe St.","zipcode":"48226"},{"establishmentid":"1505","name":"Fishbones Rhythm Kitchen ","address":"400 Monroe St.","zipcode":"48226"},{"establishmentid":"964","name":"Bouzouki Club","address":"432 Lafayette Ave. E.","zipcode":"48226"},{"establishmentid":"4681","name":"Dream Club","address":"400 Lafayette Ave. E.","zipcode":"48226"},{"establishmentid":"2350","name":"Marilyn's on Monroe","address":"419-21 Monroe","zipcode":"48227"},{"establishmentid":"4230","name":"Marilyn's American Tavern","address":"419 Monroe","zipcode":"48226"},{"establishmentid":"4624","name":"Firebird Tavern","address":"419 Monroe St.","zipcode":"48226"},{"establishmentid":"51623739","name":"Pizza Cat","address":"407 E Fort St","zipcode":"48226"}],"inspectionsByEstablishmentidList":[]}],"maxInspectionDate":[{"inspectionDate":"2022-07-25T00:00:00"}]}},"pageContext":{"eid":"4447"}},"staticQueryHashes":["3649515864","63159454"]}