{"data":{"site":{"pathPrefix":"/restaurant-inspections"},"postgres":{"establishment":[{"establishmentid":"803","name":"Gigi's","address":"16920 W Warren Ave","zipcode":"48228","owner":"Jol-Ton, Inc.","licenseNumber":"034828","licenseType":"Fixed Establishment","establishmentType":"Food Service Establishment","establishmentStatus":"Open","riskCategory":"High","reviewFrequencyDays":"365.0","coords":"-83.21124,42.34364","geojson":{"id":"803","type":"Feature","geometry":{"type":"Point","coordinates":[-83.2112446789999,42.3436402310001]},"properties":{"name":"Gigi's","owner":"Jol-Ton, Inc.","address":"16920 W Warren Ave","zipcode":"48228","license_type":"Fixed Establishment","risk_category":"High","license_number":"034828","establishmentid":"803","establishment_type":"Food Service Establishment","establishment_status":"Open","review_frequency_days":"365.0","most_recent_license_date":"4/18/2019"}},"nearbyList":[{"establishmentid":"1459","name":"Rob's Deli","address":"16956-58 E Warren Ave","zipcode":"48224"},{"establishmentid":"1014","name":"L. George's Restaurant Coney Island","address":"16835 W Warren Ave","zipcode":"48228"},{"establishmentid":"212","name":"Nick's Detroit","address":"16807 W Warren Ave","zipcode":"48228"},{"establishmentid":"5315","name":"Mr. Softy","address":"7262 Memorial St","zipcode":"48228"},{"establishmentid":"5330","name":"Halal Pizza Box","address":"16645 W Warren","zipcode":"48228"},{"establishmentid":"4983","name":"Iraqi Bakery and Carry Out","address":"17022 W Warren Ave","zipcode":"48228"},{"establishmentid":"51622496","name":"Amazing Grill LLC","address":"17044 W Warren Ave","zipcode":"48228"},{"establishmentid":"5030","name":"Good Night Lounge","address":"17621 W Warren Ave","zipcode":"48228"},{"establishmentid":"4134","name":"Subway #47233","address":"17720 W Warren Ave","zipcode":"48228"},{"establishmentid":"4403","name":"Dairy King DBA Beirut Grill","address":"16251 W Warren","zipcode":"48228"}],"inspectionsByEstablishmentidList":[{"inspectionid":"43289","inspectionDate":"2018-08-28T00:00:00","inspectionType":"Routine Inspection","inCompliance":"Yes","violationsByInspectionidList":[]}]}],"maxInspectionDate":[{"inspectionDate":"2019-04-30T00:00:00"}]}},"pageContext":{"eid":"803"}}