{"data":{"site":{"pathPrefix":"/restaurant-inspections"},"postgres":{"establishment":[{"establishmentid":"5390","name":"Premier Ice Cream","address":"2217 Evaline St","zipcode":"48212","owner":"Tawfik Almasmari","licenseNumber":"221022","licenseType":"Mobile Food Establishment","establishmentType":"Food Service Establishment","establishmentStatus":"Plan Review","riskCategory":null,"reviewFrequencyDays":"90.0","coords":"-83.06380,42.39505","geojson":{"id":"5390","type":"Feature","geometry":{"type":"Point","coordinates":[-83.063804524,42.395049412]},"properties":{"name":"Premier Ice Cream","owner":"Tawfik Almasmari","address":"2217 Evaline St","zipcode":"48212","license_type":"Mobile Food Establishment","risk_category":null,"license_number":"221022","establishmentid":"5390","establishment_type":"Food Service Establishment","establishment_status":"Plan Review","review_frequency_days":"90.0","most_recent_license_date":null}},"nearbyList":[{"establishmentid":"4453","name":"Beignet's, LLC","address":"2424 Florian St","zipcode":"48212"},{"establishmentid":"51622689","name":"American Axle Plant #6","address":"2020 Holbrook Ave","zipcode":"48212"},{"establishmentid":"51622757","name":"Supa Flavor ","address":"11514 St Aubin St","zipcode":"48212"},{"establishmentid":"5314","name":"Radda Soft","address":"11516 Saint Aubin St","zipcode":"48212"},{"establishmentid":"5217","name":"Fresh Creamer","address":"2236 Wyandotte St","zipcode":"48212"},{"establishmentid":"5312","name":"Wonka Soft Serve","address":"11609 Lumpkin St","zipcode":"48212"},{"establishmentid":"4016","name":"Mr. Soft Serve","address":"11613 Lumpkin Street","zipcode":"48212"},{"establishmentid":"5214","name":"NYC Yogurt","address":"2261 Faber St","zipcode":"48212"},{"establishmentid":"3650","name":"American Axle","address":"1 Dauch Dr","zipcode":"48211"},{"establishmentid":"5216","name":"OW Soft Serve","address":"2456 Faber","zipcode":"48212"},{"establishmentid":"696","name":"Grandy's Coney Island","address":"1200 Holbrook Rd","zipcode":"48211"},{"establishmentid":"51622747","name":"S.L Ice Cream","address":"2455 Andrus St","zipcode":"48212"},{"establishmentid":"51622748","name":"S.E Ice Cream","address":"2455 Andrus St","zipcode":"48212"},{"establishmentid":"4199","name":"Simpson Softy","address":"3005 Jacob St","zipcode":"48212"},{"establishmentid":"1317","name":"Loving Elementary","address":"1000 Lynn Ave","zipcode":"48202"},{"establishmentid":"4402","name":"Bridge Academy West","address":"3105 Carpenter St","zipcode":"48212"},{"establishmentid":"5204","name":"Miss Virginia's Ice Cream Parlor","address":"8801 Oakland Ave","zipcode":"48211"},{"establishmentid":"5421","name":"Ali's Pizza","address":"11608 Conant St","zipcode":"48212"},{"establishmentid":"4047","name":"Omar's Soft Serve","address":"3833 Evaline","zipcode":"48212"},{"establishmentid":"4809","name":"Moe's Ice Cream","address":"3833 Evaline","zipcode":"48212"}],"inspectionsByEstablishmentidList":[{"inspectionid":"42122","inspectionDate":"2018-05-09T00:00:00","inspectionType":"Mobile Inspection","inCompliance":"Yes","violationsByInspectionidList":[]},{"inspectionid":"41140","inspectionDate":"2017-05-30T00:00:00","inspectionType":"Routine Inspection","inCompliance":"Yes","violationsByInspectionidList":[{"violationCode":"4-602.13","violationDescription":"NonFOOD-CONTACT SURFACES of EQUIPMENT shall be cleaned at a frequency necessary to preclude accumulation of soil residues.\r\n","violationType":"Core","itemDescription":"Nonfood contact surface(s)","subItem":"","problemDescription":"With accumulation of debris","subProblem":"","location":"ICE CREAM MACHINE","subLocation":"","corrected":"Not required","daysToCorrect":"30.0","correctedDate":null,"correctionDescription":"Keep clean."}]}]}]}},"pageContext":{"eid":"5390"}}