{"componentChunkName":"component---src-templates-establishment-page-js","path":"/establishment/3457","result":{"data":{"site":{"pathPrefix":"/restaurant-inspections"},"postgres":{"establishment":[{"establishmentid":"3457","name":"It's all good Bar B Q and Deli","address":"17400 Harper","zipcode":"48224","owner":"Gail Wilkerson","licenseNumber":"DC0321","licenseType":"Fixed Establishment","establishmentType":"Food Service Establishment","establishmentStatus":"Open","riskCategory":null,"reviewFrequencyDays":"335","coords":"-82.93299,42.41819","geojson":{"id":"3457","type":"Feature","geometry":{"type":"Point","coordinates":[-82.932992728,42.418188049]},"properties":{"name":"It's all good Bar B Q and Deli","owner":"Gail Wilkerson","address":"17400 Harper","zipcode":"48224","license_type":"Fixed Establishment","risk_category":null,"license_number":"DC0321","establishmentid":"3457","establishment_type":"Food Service Establishment","establishment_status":"Open","review_frequency_days":"335","most_recent_license_date":"7/6/2007"}},"nearbyList":[{"establishmentid":"551","name":"B.O.B.'z Lounge","address":"17456 Harper Ave.","zipcode":"48224"},{"establishmentid":"2590","name":"Guilford Bar","address":"17305 Harper Ave.","zipcode":"48224"},{"establishmentid":"3742","name":"Mugshot Sport Bar & Grill","address":"17305 Harper Ave.","zipcode":"48224"},{"establishmentid":"1902","name":"Nikki's Place & Lounge","address":"17200 Harper Ave.","zipcode":"48224"},{"establishmentid":"446","name":"Tubby's Sub Shop #37","address":"17195 Harper Ave.","zipcode":"48224"},{"establishmentid":"343","name":"Georgia Cafe","address":"17179 Harper Ave.","zipcode":"48224"},{"establishmentid":"3643","name":"J-Hardy's Lounge","address":"17175 Harper Ave.","zipcode":"48224"},{"establishmentid":"277","name":"Pace Lounge","address":"17175 Harper","zipcode":"48224"},{"establishmentid":"51622597","name":"The Den Sports Grill and Bar","address":"17175 Harper Ave.","zipcode":"48224"},{"establishmentid":"5100","name":"MLJ Pizza","address":"17137 Harper","zipcode":"48224"}],"inspectionsByEstablishmentidList":[]}],"maxInspectionDate":[{"inspectionDate":"2022-07-25T00:00:00"}]}},"pageContext":{"eid":"3457"}},"staticQueryHashes":["3649515864","63159454"]}