{"data":{"site":{"pathPrefix":"/restaurant-inspections"},"postgres":{"establishment":[{"establishmentid":"51622654","name":"La Reata","address":"1633 Lawndale St","zipcode":"48209","owner":"Nancy Diaz","licenseNumber":"PR17119D","licenseType":"Mobile Food Establishment","establishmentType":"LHD - Mobile Food Establishmen","establishmentStatus":"Plan Review","riskCategory":null,"reviewFrequencyDays":"185.0","coords":"-83.12959,42.30481","geojson":{"id":"51622654","type":"Feature","geometry":{"type":"Point","coordinates":[-83.129585225,42.304807107]},"properties":{"name":"La Reata","owner":"Nancy Diaz","address":"1633 Lawndale St","zipcode":"48209","license_type":"Mobile Food Establishment","risk_category":null,"license_number":"PR17119D","establishmentid":"51622654","establishment_type":"LHD - Mobile Food Establishmen","establishment_status":"Plan Review","review_frequency_days":"185.0","most_recent_license_date":null}},"nearbyList":[{"establishmentid":"5028","name":"Marisqueria El Emperio","address":"1633 Lawndale St","zipcode":"48209"},{"establishmentid":"4960","name":"El Parian Commissary","address":"1633 Lawndale St","zipcode":"48209"},{"establishmentid":"51622764","name":"Tres Leches 'n Snacks","address":"1210 Lawndale","zipcode":"48209"},{"establishmentid":"4234","name":"Mangonadas Del Barrio","address":"1210-14 Lawndale St","zipcode":"48209"},{"establishmentid":"926","name":"Bennett Elementary","address":"2111 Mullane St","zipcode":"48209"},{"establishmentid":"370","name":"Los Compadres","address":"1132 Lawndale St","zipcode":"48209"},{"establishmentid":"5173","name":"El Salpicon","address":"8600 W Vernor Hwy","zipcode":"48209"},{"establishmentid":"4241","name":"Tacos El Toro #3","address":"8191 Chamberlain St","zipcode":"48209"},{"establishmentid":"4050","name":"My Spot","address":"1801 Springwells","zipcode":"48209"},{"establishmentid":"51622563","name":"La Pasada","address":"1601 Springwells St","zipcode":"48209"}],"inspectionsByEstablishmentidList":[]}],"maxInspectionDate":[{"inspectionDate":"2019-04-30T00:00:00"}]}},"pageContext":{"eid":"51622654"}}