{"componentChunkName":"component---src-templates-establishment-page-js","path":"/establishment/51623784","result":{"data":{"site":{"pathPrefix":"/restaurant-inspections"},"postgres":{"establishment":[{"establishmentid":"51623784","name":"La Casa Ice Cream ","address":"7615 W. Vernor Hwy","zipcode":"48209","owner":"Angelica Garcia ","licenseNumber":"PR22098A","licenseType":"Fixed Establishment","establishmentType":"Food Service Establishment","establishmentStatus":"Plan Review","riskCategory":null,"reviewFrequencyDays":"150","coords":"-83.12318,42.31282","geojson":{"id":"51623784","type":"Feature","geometry":{"type":"Point","coordinates":[-83.123182696,42.312822285]},"properties":{"name":"La Casa Ice Cream ","owner":"Angelica Garcia ","address":"7615 W. Vernor Hwy","zipcode":"48209","license_type":"Fixed Establishment","risk_category":null,"license_number":"PR22098A","establishmentid":"51623784","establishment_type":"Food Service Establishment","establishment_status":"Plan Review","review_frequency_days":"150","most_recent_license_date":null}},"nearbyList":[{"establishmentid":"4358","name":"Domino's Pizza","address":"7603 Vernor W.","zipcode":"48209"},{"establishmentid":"857","name":"Sherry Lee's Place","address":"7631 Vernor St.W.","zipcode":"48209"},{"establishmentid":"279","name":"Pauls Pizzeria","address":"7635 Vernor St. W.","zipcode":"48209"},{"establishmentid":"51623382","name":"Utila Juices","address":"7600 Vernor W.","zipcode":"48209"},{"establishmentid":"3399","name":"Sweet Maria's","address":"7647 Vernor W. ","zipcode":"48209"},{"establishmentid":"5007","name":"Famous Tasty Chicken","address":"7431  Vernor W.","zipcode":"48209"},{"establishmentid":"51623109","name":"Ice Cream & Cafe La Ni√±a","address":"7431 Vernor W.","zipcode":"48209"},{"establishmentid":"3255","name":"West Vernor Subway","address":"7431 Vernor St.W.","zipcode":"48209"},{"establishmentid":"4873","name":"Neveria La Chilindrina","address":"7431 Vernor W","zipcode":"48209"},{"establishmentid":"1342","name":"Restaurant Nuestra Familia","address":"7620 Vernor St. W.","zipcode":"48209"}],"inspectionsByEstablishmentidList":[]}],"maxInspectionDate":[{"inspectionDate":"2023-04-13T00:00:00"}]}},"pageContext":{"eid":"51623784"}},"staticQueryHashes":["3649515864","63159454"]}