{"componentChunkName":"component---src-templates-establishment-page-js","path":"/establishment/51623717","result":{"data":{"site":{"pathPrefix":"/restaurant-inspections"},"postgres":{"establishment":[{"establishmentid":"51623717","name":"Dooped Donuts","address":"1555 Broadway","zipcode":"48226","owner":"Ferndale Project LLC","licenseNumber":"263590","licenseType":"Fixed Establishment","establishmentType":"Food Service Establishment","establishmentStatus":"Open","riskCategory":null,"reviewFrequencyDays":null,"coords":"-83.04957,42.33608","geojson":{"id":"51623717","type":"Feature","geometry":{"type":"Point","coordinates":[-83.049567484,42.336082953]},"properties":{"name":"Dooped Donuts","owner":"Ferndale Project LLC","address":"1555 Broadway","zipcode":"48226","license_type":"Fixed Establishment","risk_category":null,"license_number":"263590","establishmentid":"51623717","establishment_type":"Food Service Establishment","establishment_status":"Open","review_frequency_days":null,"most_recent_license_date":null}},"nearbyList":[{"establishmentid":"5152","name":"Ashe Supply Co.","address":"1555 Broadway","zipcode":"48226"},{"establishmentid":"4928","name":"Cranes on Broadway","address":"1555 Broadway","zipcode":"48226"},{"establishmentid":"51623074","name":"Buddy's Pizza","address":"1555 Broadway","zipcode":"48226"},{"establishmentid":"4446","name":"Chez Zara,LLC","address":"1555 Broadway","zipcode":"48226"},{"establishmentid":"3706","name":"Angelina Italian Bistro","address":"1565 Broadway","zipcode":"48226"},{"establishmentid":"4398","name":"Chez Zara","address":"1555 Broadway","zipcode":"48226"},{"establishmentid":"4694","name":"Madison Building ","address":"1555 Broadway","zipcode":"48226"},{"establishmentid":"3544","name":"Sports Grill/ Witherell Entertanment inc","address":"1570 Woodward","zipcode":"48226"},{"establishmentid":"5144","name":"Broderick Grille","address":"1570 Woodward Ave.","zipcode":"48226"},{"establishmentid":"51623237","name":"Detroit Sports Bar & Grille","address":"1570 Woodward","zipcode":"48226"}],"inspectionsByEstablishmentidList":[{"inspectionid":"59545","inspectionDate":"2022-06-07T00:00:00","inspectionType":"Routine Inspection","inCompliance":"Yes","violationsByInspectionidList":[{"violationCode":"4-302.14","violationDescription":"A test kit or other device that accurately measures the concentration in mg/L of SANITIZING solutions shall be provided. (Pf)\n","violationType":"Foundation","itemDescription":"Sanitizer test kit","subItem":null,"problemDescription":"Not provided","subProblem":null,"location":"ESTABLISHMENT","subLocation":"At the Three compartment sink","corrected":"True","daysToCorrect":"10","correctedDate":"2022-06-08T00:00:00","correctionDescription":null}]}]}],"maxInspectionDate":[{"inspectionDate":"2022-08-31T00:00:00"}]}},"pageContext":{"eid":"51623717"}},"staticQueryHashes":["3649515864","63159454"]}