{"data":{"site":{"pathPrefix":"/restaurant-inspections"},"postgres":{"establishment":[{"establishmentid":"51622701","name":"Shinola Hotel- Banquet Kitchen","address":"1400 Woodward Ave","zipcode":"48226","owner":"1400 Webward Ave LLC","licenseNumber":"233742","licenseType":"Fixed Establishment","establishmentType":"Food Service Establishment","establishmentStatus":"Open","riskCategory":"High","reviewFrequencyDays":"180","coords":"-83.04846,42.33439","geojson":{"id":"51622701","type":"Feature","geometry":{"type":"Point","coordinates":[-83.048455447,42.334394929]},"properties":{"name":"Shinola Hotel- Banquet Kitchen","owner":"1400 Webward Ave LLC","address":"1400 Woodward Ave","zipcode":"48226","license_type":"Fixed Establishment","risk_category":"High","license_number":"233742","establishmentid":"51622701","establishment_type":"Food Service Establishment","establishment_status":"Open","review_frequency_days":"180","most_recent_license_date":"4/23/2019"}},"nearbyList":[{"establishmentid":"51622881","name":"Shinola Hotel- San Morello","address":"1400 Woodward Ave","zipcode":"48226"},{"establishmentid":"51622703","name":"Shinola Hotel-Birdie Room","address":"1400 Woodward Ave","zipcode":"48226"},{"establishmentid":"51622787","name":"The Brakeman","address":"1400 Woodward Ave","zipcode":"48226"},{"establishmentid":"51622702","name":"Shinola Hotel- WW Basement Kitchen","address":"1400 Woodward Ave","zipcode":"48226"},{"establishmentid":"51622886","name":"Shinola Hotel- Evening Bar","address":"1400 Woodward Ave","zipcode":"48226"},{"establishmentid":"51622882","name":"Penny Red's","address":"1400 Woodward Ave","zipcode":"48226"},{"establishmentid":"51622901","name":"Madcap Coffee Company","address":"1413 Farmer Street","zipcode":"48226"},{"establishmentid":"51622578","name":"Lover's Only","address":"34 W Grand River Ave","zipcode":"48226"},{"establishmentid":"51622763","name":"Cannelle Detroit LLC","address":"45 W Grand River Ave","zipcode":"48226"},{"establishmentid":"4957","name":"Cornerstone Barrel House","address":"1456 Woodward Ave","zipcode":"48226"}],"inspectionsByEstablishmentidList":[]}],"maxInspectionDate":[{"inspectionDate":"2020-05-29T00:00:00"}]}},"pageContext":{"eid":"51622701"}}