{"componentChunkName":"component---src-templates-establishment-page-js","path":"/establishment/4723","result":{"data":{"site":{"pathPrefix":"/restaurant-inspections"},"postgres":{"establishment":[{"establishmentid":"4723","name":"Shawarma King","address":"2920 Grand Blvd.","zipcode":"48202","owner":"Hani Kassab","licenseNumber":null,"licenseType":"Fixed Establishment","establishmentType":"Food Service Establishment","establishmentStatus":null,"riskCategory":"High","reviewFrequencyDays":"150","coords":"-83.06729,42.37288","geojson":{"id":"4723","type":"Feature","geometry":{"type":"Point","coordinates":[-83.067287978,42.372881011]},"properties":{"name":"Shawarma King","owner":"Hani Kassab","address":"2920 Grand Blvd.","zipcode":"48202","license_type":"Fixed Establishment","risk_category":"High","license_number":null,"establishmentid":"4723","establishment_type":"Food Service Establishment","establishment_status":null,"review_frequency_days":"150","most_recent_license_date":null}},"nearbyList":[{"establishmentid":"51623260","name":"Freya and Dragonfly LLC","address":"2929 Grand Blvd. E. ","zipcode":"48202"},{"establishmentid":"51622949","name":"Oak and Reel dba Upfront Hospitality LLC","address":"2921 Grand Blvd E.","zipcode":"48202"},{"establishmentid":"2398","name":"B Georges Coney Island","address":"2898 Grand Blvd. W.","zipcode":"48202"},{"establishmentid":"51623450","name":"Reef Kitchens #07 (Fixed Trailer)","address":"2915 Grand Blvd E.","zipcode":"48202"},{"establishmentid":"2313","name":"Mariga's","address":"2894-96 Grand Blvd. W.","zipcode":"48202"},{"establishmentid":"785","name":"Parks Old Style Bar-B-Q ","address":"7444 Beaubien St.","zipcode":"48202"},{"establishmentid":"51622902","name":"Milwaukee Caffe","address":"447 Milwaukee Ave. E.","zipcode":"48202"},{"establishmentid":"51622696","name":"Kiesling","address":"449 Milwaukee Ave. E.","zipcode":"48202"},{"establishmentid":"5182","name":"Simply Spanish","address":"2990 Grand Blvd. W.","zipcode":"48202"},{"establishmentid":"51622869","name":"Dichotomy Coffee","address":"605 Bethune E.","zipcode":"48202"}],"inspectionsByEstablishmentidList":[]}],"maxInspectionDate":[{"inspectionDate":"2022-07-25T00:00:00"}]}},"pageContext":{"eid":"4723"}},"staticQueryHashes":["3649515864","63159454"]}