{"data":{"site":{"pathPrefix":"/restaurant-inspections"},"postgres":{"establishment":[{"establishmentid":"51622959","name":"Peso Bar","address":"2547 Bagley","zipcode":"48216","owner":"Christine Driscoll","licenseNumber":"274-9447","licenseType":"Fixed Establishment","establishmentType":"Food Service Establishment","establishmentStatus":null,"riskCategory":null,"reviewFrequencyDays":"90.0","coords":"-83.07747,42.32555","geojson":{"id":"51622959","type":"Feature","geometry":{"type":"Point","coordinates":[-83.077474942,42.3255513490001]},"properties":{"name":"Peso Bar","owner":"Christine Driscoll","address":"2547 Bagley","zipcode":"48216","license_type":"Fixed Establishment","risk_category":null,"license_number":"274-9447","establishmentid":"51622959","establishment_type":"Food Service Establishment","establishment_status":null,"review_frequency_days":"90.0","most_recent_license_date":"3/26/2019"}},"nearbyList":[{"establishmentid":"5013","name":"Fist of Curry","address":"2547 Bagley Ave","zipcode":"48216"},{"establishmentid":"525","name":"Mexican Village Of Detroit","address":"2600 Bagley Street","zipcode":"48216"},{"establishmentid":"51622952","name":"Academy of America's High School","address":"2635 Howard","zipcode":"48216"},{"establishmentid":"3745","name":"Mercury Burger Bar","address":"2163 Michigan Ave","zipcode":"48216"},{"establishmentid":"51622645","name":"Grandma Bobs Pizza","address":"2135 Michigan Ave","zipcode":"48216"},{"establishmentid":"51622672","name":"Cork & Gabel","address":"2415 Michigan Ave","zipcode":"48216"},{"establishmentid":"2950","name":"Slows BBQ","address":"2138 Michigan Ave","zipcode":"48216"},{"establishmentid":"4300","name":"Sugar House","address":"2130 Michigan Ave","zipcode":"48216"},{"establishmentid":"284","name":"L J'S Sweetheart bar","address":"2114 Michigan Ave","zipcode":"48216"},{"establishmentid":"5394","name":"Ima","address":"2015 Michigan Ave","zipcode":"48216"}],"inspectionsByEstablishmentidList":[]}],"maxInspectionDate":[{"inspectionDate":"2019-03-31T00:00:00"}]}},"pageContext":{"eid":"51622959"}}