{"data":{"postgres":{"establishment":[{"establishmentid":"51622458","name":"Willis Show Bar","address":"4156 Third St","zipcode":"48201","owner":"Detroit Prestige Holdings, LLC","licenseNumber":"226564","licenseType":"Fixed Establishment","establishmentType":"Food Service Establishment","establishmentStatus":"Open","riskCategory":"Medium","reviewFrequencyDays":"365.0","coords":"-83.06781,42.34890","geojson":{"id":"51622458","type":"Feature","geometry":{"type":"Point","coordinates":[-83.0678115219999,42.3489016240001]},"properties":{"name":"Willis Show Bar","owner":"Detroit Prestige Holdings, LLC","address":"4156 Third St","zipcode":"48201","license_type":"Fixed Establishment","risk_category":"Medium","license_number":"226564","establishmentid":"51622458","establishment_type":"Food Service Establishment","establishment_status":"Open","review_frequency_days":"365.0","most_recent_license_date":"4/23/2018"}},"nearbyList":[{"establishmentid":"5180","name":"Cinema Detroit","address":"4126 Third St","zipcode":"48201"},{"establishmentid":"5193","name":"Gus's Fried Chicken","address":"4101 Third St","zipcode":"48201"},{"establishmentid":"235","name":"Traffic Jam-Snug","address":"4268 Second Ave","zipcode":"48201"},{"establishmentid":"4658","name":"Traffic Jam-Snug/Brewery","address":"4268 Second Ave","zipcode":"48201"},{"establishmentid":"718","name":"Mario's","address":"4222 Second Ave","zipcode":"48201"},{"establishmentid":"5126","name":"Will Leather Goods Coffee Shop","address":"4120 Second Ave","zipcode":"48201"},{"establishmentid":"4657","name":"Traffic Jam-Snug/Bakery","address":"511 W Canfield St","zipcode":"48201"},{"establishmentid":"5036","name":"Maya's Indo-Pak Cuisine","address":"4445 Second Ave","zipcode":"48201"},{"establishmentid":"4392","name":"The Bottom Line Coffee House","address":"4474 Third St","zipcode":"48201"},{"establishmentid":"4941","name":"Jolly Pumpkin Pizzeria","address":"441 W Canfield St","zipcode":"48201"},{"establishmentid":"4919","name":"Shinola Coffee Bar","address":"441 W Canfield St","zipcode":"48202"},{"establishmentid":"5372","name":"Foundation Rock Spirits LLC dba Castalia","address":"3980 Second Ave Unit E","zipcode":"48201"},{"establishmentid":"436","name":"Jumbo's Bar","address":"3736 Third St","zipcode":"48201"},{"establishmentid":"238","name":"Bronx Bar","address":"4476 Second Ave","zipcode":"48201"},{"establishmentid":"4827","name":"Selden Standard","address":"3921-29 Second Ave","zipcode":"48201"},{"establishmentid":"5345","name":"Juice Joint Detroit","address":"4614 Second Ave","zipcode":"48201"},{"establishmentid":"51622646","name":"El Taco Veloz LLC","address":"4614 Second Ave","zipcode":"48201"},{"establishmentid":"1155","name":"Jolly Old Timers Club","address":"641 W Forest Ave","zipcode":"48201"},{"establishmentid":"2140","name":"Honest John's Bar & Grill","address":"488 Selden St","zipcode":"48201"},{"establishmentid":"51622811","name":"Avalon International Breads","address":"422 W Willis St","zipcode":"48201"}],"inspectionsByEstablishmentidList":[{"inspectionid":"43324","inspectionDate":"2018-08-09T00:00:00","inspectionType":"Routine Inspection","inCompliance":"No","violationsByInspectionidList":[{"violationCode":"7-204.11","violationDescription":"Chemical SANITIZERS and other chemical antimicrobials applied to FOOD-CONTACT SURFACES shall meet the requirements specified in this code. (P)\r\n","violationType":"Priority","itemDescription":"Sanitizer(s)","subItem":"","problemDescription":"Do not comply with law","subProblem":"","location":"DISHWASHING AREA","subLocation":"","corrected":"No","daysToCorrect":"10.0","correctedDate":null,"correctionDescription":"Remove and replace to be in compliance with law."}]},{"inspectionid":"42035","inspectionDate":"2018-04-24T00:00:00","inspectionType":"Preopening/New","inCompliance":"Yes","violationsByInspectionidList":[]}]}]}},"pageContext":{"eid":"51622458"}}