{"componentChunkName":"component---src-templates-establishment-page-js","path":"/establishment/51622738","result":{"data":{"site":{"pathPrefix":"/restaurant-inspections"},"postgres":{"establishment":[{"establishmentid":"51622738","name":"Good Cakes & Bakes","address":"1314 Holden","zipcode":"48202","owner":"April & Michelle Anderson","licenseNumber":"PR18041A","licenseType":"Fixed Establishment","establishmentType":"Food Service Establishment","establishmentStatus":"Permanently Closed","riskCategory":null,"reviewFrequencyDays":null,"coords":"-83.08254,42.36323","geojson":{"id":"51622738","type":"Feature","geometry":{"type":"Point","coordinates":[-83.082539617,42.363234027]},"properties":{"name":"Good Cakes & Bakes","owner":"April & Michelle Anderson","address":"1314 Holden","zipcode":"48202","license_type":"Fixed Establishment","risk_category":null,"license_number":"PR18041A","establishmentid":"51622738","establishment_type":"Food Service Establishment","establishment_status":"Permanently Closed","review_frequency_days":null,"most_recent_license_date":null}},"nearbyList":[{"establishmentid":"51623987","name":"Michigan & Trumbull Pizza","address":"1331 Holden","zipcode":"48202"},{"establishmentid":"5129","name":"The Marble Bar","address":"1501 Holden","zipcode":"48208"},{"establishmentid":"5130","name":"Marble Bar","address":"1501  Holden","zipcode":"48208"},{"establishmentid":"1694","name":"Subway #14651","address":"2790 Grand Blvd. W.","zipcode":"48202"},{"establishmentid":"1830","name":"Koolies","address":"2850 Grand Blvd. W.","zipcode":"48202"},{"establishmentid":"1755","name":"Total Vending","address":"2850 Grand Blvd. W.","zipcode":"48202"},{"establishmentid":"1051","name":"Kentucky Fried Chicken H730215","address":"2716 Grand Blvd. W.","zipcode":"48208"},{"establishmentid":"1723","name":"Anthony's Complete Services","address":"2888 Grand Blvd. W.","zipcode":"48202"},{"establishmentid":"51623252","name":"Junk Food and Friends ","address":"5581 John  Lodge ","zipcode":"48206"},{"establishmentid":"51622682","name":"Zo's Good Burger","address":"2894 W. Grand Blvd.","zipcode":"48202"}],"inspectionsByEstablishmentidList":[]}],"maxInspectionDate":[{"inspectionDate":"2023-04-13T00:00:00"}]}},"pageContext":{"eid":"51622738"}},"staticQueryHashes":["3649515864","63159454"]}