{"data":{"postgres":{"establishment":[{"establishmentid":"4635","name":"Bert's Warehouse Theater","address":"2739 Russell St","zipcode":"48207","owner":"Dearing Company, Inc.","licenseNumber":"075143","licenseType":"Fixed Establishment","establishmentType":"Food Service Establishment","establishmentStatus":"Open","riskCategory":"Medium","reviewFrequencyDays":"365.0","coords":"-83.09120,42.44486","geojson":{"id":"4635","type":"Feature","geometry":{"type":"Point","coordinates":[-83.0912021509999,42.444856643]},"properties":{"name":"Bert's Warehouse Theater","owner":"Dearing Company, Inc.","address":"2739 Russell St","zipcode":"48207","license_type":"Fixed Establishment","risk_category":"Medium","license_number":"075143","establishmentid":"4635","establishment_type":"Food Service Establishment","establishment_status":"Open","review_frequency_days":"365.0","most_recent_license_date":"4/27/2017"}},"nearbyList":[{"establishmentid":"210","name":"Domino's Pizza #1169","address":"1636 E Eight Mile Rd","zipcode":"48203"},{"establishmentid":"953","name":"Golden Greek Lounge","address":"1800 E Eight Mile Rd","zipcode":"48203"},{"establishmentid":"897","name":"Nolan Junior High School","address":"1150 E Lantz St","zipcode":"48238"},{"establishmentid":"1017","name":"McDonald's Detroit","address":"20405 Conant Ave","zipcode":"48234"},{"establishmentid":"1502","name":"Fish King Restaurant","address":"20351 Conant Ave","zipcode":"48234"},{"establishmentid":"1212","name":"Little Caesar's Pizza #15","address":"2024 E Eight Mile Rd","zipcode":"48234"},{"establishmentid":"2377","name":"Pete's Grill","address":"1400 E Outer Dr","zipcode":"48234"},{"establishmentid":"4475","name":"Applebee's #7833","address":"2111 W Eight Mile Rd","zipcode":"48203"},{"establishmentid":"1919","name":"L & L Adult Day Care","address":"1485 E Outer Dr","zipcode":"48234"},{"establishmentid":"382","name":"Centerfold","address":"20222 John R St","zipcode":"48203"},{"establishmentid":"384","name":"Subway #66","address":"2240 E Eight Mile Rd","zipcode":"48234"},{"establishmentid":"5339","name":"Liangs Beijing","address":"1136 E Seven Mile Rd","zipcode":"48203"},{"establishmentid":"682","name":"Mr. Mapps Lounge","address":"1627 E Seven Mile Rd","zipcode":"48203"},{"establishmentid":"5281","name":"Davison Fish N Seafood LLC","address":"1520 E Seven Mile","zipcode":"48203"},{"establishmentid":"2724","name":"Grinder 2","address":"1648 E Seven Mile Rd","zipcode":"48203"},{"establishmentid":"51622461","name":"Magic City of Detroit-Dreams","address":"141 W Eight Mile","zipcode":"48203"},{"establishmentid":"51622678","name":"Holy Moly Donut Shop","address":"201 W Eight Mile Rd","zipcode":"48203"},{"establishmentid":"4065","name":"Ms. E-Vee's Soul Food","address":"201 W Eight Mile Ave","zipcode":"48203"},{"establishmentid":"2127","name":"Kentucky Fried Chicken","address":"2600 E Eight Mile Rd","zipcode":"48234"},{"establishmentid":"686","name":"West Indian Amerian Assn","address":"2015 E Seven Mile Rd","zipcode":"48234"}],"inspectionsByEstablishmentidList":[{"inspectionid":"41452","inspectionDate":"2018-02-08T00:00:00","inspectionType":"Routine Inspection","inCompliance":"Yes","violationsByInspectionidList":[]},{"inspectionid":"38100","inspectionDate":"2017-02-14T00:00:00","inspectionType":"Routine Inspection","inCompliance":"Yes","violationsByInspectionidList":[{"violationCode":"4-602.11","violationDescription":"(A) Equipment FOOD-CONTACT SURFACES and UTENSILS shall be cleaned:     \r\n  (1) Except as specified in ¶ (B) of this section, before each use with a different   type of raw animal FOOD such as beef, FISH, lamb, pork, or POULTRY; (P)   \r\n  (2) Each time there is a change from working with raw FOODS to working with   READY-TO-EAT FOODS; (P)   \r\n  (3) Between uses with raw fruits and vegetables and with POTENTIALLY   HAZARDOUS FOOD (TIME/TEMPERATURE CONTROL FOR SAFETY FOOD);   (P)   \r\n  (4) Before using or storing a FOOD TEMPERATURE MEASURING   DEVICE; (P) and   \r\n  (5) At any time during the operation when contamination may have occurred. (P)\r\n(B) Subparagraph (A)(1) of this section does not apply if the FOOD-CONTACT SURFACE or UTENSIL is in contact with a succession of different raw animal FOODS each requiring a higher cooking temperature as specified under § 3-401.11 than the previous FOOD, such as preparing raw FISH followed by cutting raw poultry on the same cutting board.   \r\n(C) Except as specified in ¶ (D) of this section, if used with POTENTIALLY HAZARDOUS FOOD (TIME/TEMPERATURE CONTROL FOR SAFETY FOOD), EQUIPMENT FOOD-CONTACT SURFACES and UTENSILS shall be cleaned throughout the day at least every 4 hours. (P)   \r\n(D) Except when dry cleaning methods are used as specified under § 4-603.11, surfaces of UTENSILS and EQUIPMENT contacting FOOD that is not POTENTIALLY HAZARDOUS (TIME/TEMPERATURE CONTROL FOR SAFETY FOOD) shall be cleaned:     \r\n  (1)   At any time when contamination may have occurred;\r\n  (2)   At least every 24 hours for iced tea dispensers and CONSUMER self-service UTENSILS such as tongs, scoops, or ladles;\r\n  (3) Before restocking CONSUMER self-service EQUIPMENT and UTENSILS such as condiment dispensers and display containers; and\r\n  (4) In EQUIPMENT such as ice bins and BEVERAGE dispensing nozzles and   enclosed components of EQUIPMENT such as ice makers, cooking oil storage   tanks and distribution lines, BEVERAGE and syrup dispensing lines or tubes,   coffee bean grinders, and water vending EQUIPMENT:\r\n     (a) At a frequency specified by the manufacturer, or\r\n     (b) Absent manufacturer specifications, at a frequency necessary to preclude      accumulation of soil or mold.","violationType":"Core","itemDescription":"Food-contact surface(s) used for nonpotentially hazardous food(s)","subItem":"ice bin(s)","problemDescription":"Not cleaned","subProblem":"At least every 24 hours","location":"BAR","subLocation":"Ice bin","corrected":"Not required","daysToCorrect":"10.0","correctedDate":null,"correctionDescription":"Clean as specified above."}]}]}]}},"pageContext":{"eid":"4635"}}