{"data":{"site":{"pathPrefix":null},"postgres":{"establishment":[{"establishmentid":"51622892","name":"Dairy Queen","address":"9151 Wyoming Ave","zipcode":"48204","owner":"Ajef Hamad","licenseNumber":"229349","licenseType":"Fixed Establishment","establishmentType":"Food Service Establishment","establishmentStatus":"Seasonal","riskCategory":"Low","reviewFrequencyDays":"395.0","coords":"-83.15830,42.36193","geojson":{"id":"51622892","type":"Feature","geometry":{"type":"Point","coordinates":[-83.158299036,42.361930326]},"properties":{"name":"Dairy Queen","owner":"Ajef Hamad","address":"9151 Wyoming Ave","zipcode":"48204","license_type":"Fixed Establishment","risk_category":"Low","license_number":"229349","establishmentid":"51622892","establishment_type":"Food Service Establishment","establishment_status":"Seasonal","review_frequency_days":"395.0","most_recent_license_date":null}},"nearbyList":[{"establishmentid":"425","name":" Dairy Queen Inc.","address":"9151 Wyoming ","zipcode":"48204"},{"establishmentid":"4337","name":"MacKenzie PK-8","address":"10147 W Chicago Ave","zipcode":"48208"},{"establishmentid":"4150","name":"Grace Bible Chapel","address":"5440 Oakman Blvd","zipcode":"48204"},{"establishmentid":"4833","name":"GFFD Community Center Northwest","address":"8530 Joy Rd","zipcode":"48204"},{"establishmentid":"1042","name":"Charles R. Drew Transition","address":"9600 Wyoming Ave","zipcode":"48204"},{"establishmentid":"4887","name":"Clara's Place","address":"8505 Joy Rd","zipcode":"48204"},{"establishmentid":"598","name":"Elmer's LLC","address":"8515 W Chicago W","zipcode":"48204"},{"establishmentid":"5230","name":"Detroit Fresh Fish & Chicken Market inc.","address":"10515 Joy Rd","zipcode":"48204"},{"establishmentid":"505","name":"Blue Star Lounge","address":"10600 Joy Rd","zipcode":"48204"},{"establishmentid":"878","name":"John's Grill Coney Island","address":"10534 W Chicago","zipcode":"48204"}],"inspectionsByEstablishmentidList":[]}]}},"pageContext":{"eid":"51622892"}}