{"componentChunkName":"component---src-templates-establishment-page-js","path":"/establishment/51623010","result":{"data":{"site":{"pathPrefix":"/restaurant-inspections"},"postgres":{"establishment":[{"establishmentid":"51623010","name":"Toss & Sauce","address":"18673 Livernois","zipcode":"48221","owner":"A. Patton, C Slater, A. McFarl","licenseNumber":"PR19068A","licenseType":"Fixed Establishment","establishmentType":"Food Service Establishment","establishmentStatus":"Plan Review","riskCategory":null,"reviewFrequencyDays":"150","coords":"-83.14173,42.42910","geojson":{"id":"51623010","type":"Feature","geometry":{"type":"Point","coordinates":[-83.141726659,42.429102389]},"properties":{"name":"Toss & Sauce","owner":"A. Patton, C Slater, A. McFarl","address":"18673 Livernois","zipcode":"48221","license_type":"Fixed Establishment","risk_category":null,"license_number":"PR19068A","establishmentid":"51623010","establishment_type":"Food Service Establishment","establishment_status":"Plan Review","review_frequency_days":"150","most_recent_license_date":null}},"nearbyList":[{"establishmentid":"51622468","name":"Social Sushi","address":"18663 Livernois","zipcode":"48221"},{"establishmentid":"51622673","name":"Biggby Coffee","address":"18685 Livernois","zipcode":"48221"},{"establishmentid":"51623576","name":"Detroit Finger Licken ","address":"18925 Livernois ","zipcode":"48221"},{"establishmentid":"51623964","name":"Big Moe's Kitchen","address":"18925 Livernois","zipcode":"48221"},{"establishmentid":"459","name":"Sheppard's Soul Food","address":"18925 Livernois Ave.","zipcode":"48221"},{"establishmentid":"51622548","name":"Table No. 2 Restaurant","address":"18925 Livernois ","zipcode":"48219"},{"establishmentid":"2469","name":"Pizza Hut #26313","address":"18680 Livernois Ave.","zipcode":"48221"},{"establishmentid":"2467","name":"China Wok","address":"18670 Livernois Ave.","zipcode":"48221"},{"establishmentid":"51623883","name":"Tang 168 China Wok LLC","address":"18670 Livernois","zipcode":"48221"},{"establishmentid":"1656","name":"Boston Market #976","address":"18610 Livernois Ave.","zipcode":"48221"}],"inspectionsByEstablishmentidList":[]}],"maxInspectionDate":[{"inspectionDate":"2023-04-25T00:00:00"}]}},"pageContext":{"eid":"51623010"}},"staticQueryHashes":["3649515864","63159454"]}