{"componentChunkName":"component---src-templates-establishment-page-js","path":"/establishment/2574","result":{"data":{"site":{"pathPrefix":"/restaurant-inspections"},"postgres":{"establishment":[{"establishmentid":"2574","name":"Lee's Restaurant LLC","address":"1145 Grand Blvd. E.","zipcode":"48207","owner":"Mao Shun Li","licenseNumber":"044281","licenseType":"Fixed Establishment","establishmentType":"Food Service Establishment","establishmentStatus":"Open","riskCategory":null,"reviewFrequencyDays":"150","coords":"-83.10149,42.33499","geojson":{"id":"2574","type":"Feature","geometry":{"type":"Point","coordinates":[-83.101487462,42.334988637]},"properties":{"name":"Lee's Restaurant LLC","owner":"Mao Shun Li","address":"1145 Grand Blvd. E.","zipcode":"48207","license_type":"Fixed Establishment","risk_category":null,"license_number":"044281","establishmentid":"2574","establishment_type":"Food Service Establishment","establishment_status":"Open","review_frequency_days":"150","most_recent_license_date":"4/11/2007"}},"nearbyList":[{"establishmentid":"3216","name":"Que's Soulful Soulfood","address":"1145 Grand Blvd. E.","zipcode":"48207"},{"establishmentid":"51623104","name":"Ladder 4, LLC","address":"3396 Vinewood","zipcode":"48208"},{"establishmentid":"3345","name":"Total Vending","address":"4086 Scotten","zipcode":"48210"},{"establishmentid":"2082","name":"Don's Vending Service","address":"2880 Scotten","zipcode":"48210"},{"establishmentid":"51623491","name":"Sakura Hibachi Grill","address":"3109 Roosevelt","zipcode":"48216"},{"establishmentid":"5253","name":"Total Vending","address":"2860 Clark","zipcode":"48210"},{"establishmentid":"3091","name":"Westside Academy","address":"4701 McKinley","zipcode":"48208"},{"establishmentid":"2060","name":"Westside Academy Alternative Education","address":"4701 McKinley","zipcode":"48208"},{"establishmentid":"1790","name":"Metro Vending","address":"2627 Clark","zipcode":"48210"},{"establishmentid":"2536","name":"ROBINSON DAIRY VENDING","address":"2627 CLARK","zipcode":"48212"}],"inspectionsByEstablishmentidList":[]}],"maxInspectionDate":[{"inspectionDate":"2022-07-25T00:00:00"}]}},"pageContext":{"eid":"2574"}},"staticQueryHashes":["3649515864","63159454"]}