{"componentChunkName":"component---src-templates-establishment-page-js","path":"/establishment/3342","result":{"data":{"site":{"pathPrefix":"/restaurant-inspections"},"postgres":{"establishment":[{"establishmentid":"3342","name":"Big Ed's Hot Dog","address":"15250 Seven Mile Rd. W.","zipcode":"48205","owner":"DEANDRE SMITH ","licenseNumber":"037616","licenseType":"Mobile Food Establishment","establishmentType":"LHD - Mobile Food Establishmen","establishmentStatus":"Open","riskCategory":null,"reviewFrequencyDays":null,"coords":"-83.19712,42.43079","geojson":{"id":"3342","type":"Feature","geometry":{"type":"Point","coordinates":[-83.197124611,42.430793167]},"properties":{"name":"Big Ed's Hot Dog","owner":"DEANDRE SMITH ","address":"15250 Seven Mile Rd. W.","zipcode":"48205","license_type":"Mobile Food Establishment","risk_category":null,"license_number":"037616","establishmentid":"3342","establishment_type":"LHD - Mobile Food Establishmen","establishment_status":"Open","review_frequency_days":null,"most_recent_license_date":null}},"nearbyList":[{"establishmentid":"3118","name":"Mama's Place","address":"15250 Seven Mile Rd. W.","zipcode":"48235"},{"establishmentid":"3352","name":"Big Ed's Hot Dogs","address":"15250 Seven Mile Rd. W.","zipcode":"48235"},{"establishmentid":"4354","name":"Da Kitchen II","address":"15250 Seven Mile Rd. W","zipcode":"48235"},{"establishmentid":"2369","name":"Mama's Place","address":"15250 Seven Mile Rd. W.","zipcode":"48235"},{"establishmentid":"2142","name":"Wing Yuen","address":"15251 Seven Mile Rd. W.","zipcode":"48235"},{"establishmentid":"5239","name":"Paradise Fish & Chicken Market","address":"15251 Seven Mile Rd. W.","zipcode":"48235"},{"establishmentid":"51623000","name":"Seven Mile Ocean Delight Site 2","address":"15251 Seven Mile W.","zipcode":"48235"},{"establishmentid":"51624007","name":"Seven Mile Royal Food Market Inc.","address":"15251 Seven Mile W.","zipcode":"48235"},{"establishmentid":"1421","name":"7 Mile Shrimp Palace","address":"15321 Seven Mile Rd. W.","zipcode":"48235"},{"establishmentid":"3886","name":"Lucki's Cheesecake","address":"15137 Seven Mile Rd. W.","zipcode":"48235"}],"inspectionsByEstablishmentidList":[]}],"maxInspectionDate":[{"inspectionDate":"2023-04-25T00:00:00"}]}},"pageContext":{"eid":"3342"}},"staticQueryHashes":["3649515864","63159454"]}