{"data":{"site":{"pathPrefix":"/restaurant-inspections"},"postgres":{"establishment":[{"establishmentid":"51622781","name":"Lagerhaus 5 Bottle & Bier","address":"1529 Adelaide St","zipcode":"48207","owner":"1529 Adelaide LLC","licenseNumber":"247254","licenseType":"Fixed Establishment","establishmentType":"Food Service Establishment","establishmentStatus":"Open","riskCategory":"High","reviewFrequencyDays":"180","coords":"-83.03888,42.34728","geojson":{"id":"51622781","type":"Feature","geometry":{"type":"Point","coordinates":[-83.038881303,42.34728353]},"properties":{"name":"Lagerhaus 5 Bottle & Bier","owner":"1529 Adelaide LLC","address":"1529 Adelaide St","zipcode":"48207","license_type":"Fixed Establishment","risk_category":"High","license_number":"247254","establishmentid":"51622781","establishment_type":"Food Service Establishment","establishment_status":"Open","review_frequency_days":"180","most_recent_license_date":"10/23/2019"}},"nearbyList":[{"establishmentid":"51622596","name":"The Elephant Shack LLC","address":"2515 Riopelle St","zipcode":"48207"},{"establishmentid":"51622482","name":"Eastern Market Brewing Co.","address":"2515 Riopelle St","zipcode":"48207"},{"establishmentid":"3895","name":"Butcher's Inn","address":"1489 Winder Ave","zipcode":"48207"},{"establishmentid":"51623117","name":"Jose Taco's Eastern Market","address":"2510 Market St","zipcode":"48207"},{"establishmentid":"485","name":"Farmer's Restaurant","address":"2542 Market St","zipcode":"48207"},{"establishmentid":"51623037","name":"DeVries & Co. 1887","address":"2468 Market St","zipcode":"48207"},{"establishmentid":"4964","name":"Detroit City Distillery","address":"2462 Riopelle St","zipcode":"48207"},{"establishmentid":"501","name":"Vivio's Market Center Club","address":"2460 Market St","zipcode":"48207"},{"establishmentid":"1178","name":"Cutters Bar And Grill","address":"2638 Orleans St","zipcode":"48207"},{"establishmentid":"647","name":"Zeff's Coney Island","address":"2469 Russell St","zipcode":"48207"}],"inspectionsByEstablishmentidList":[{"inspectionid":"50082","inspectionDate":"2019-12-06T00:00:00","inspectionType":"Preopening/New","inCompliance":"Yes","violationsByInspectionidList":[{"violationCode":"4-501.11","violationDescription":"EQUIPMENT shall be maintained in a state of repair and condition that meets the requirements of the code.\r\n","violationType":"Core","itemDescription":"Equipment","subItem":"","problemDescription":"Broken","subProblem":"","location":"THROUGHOUT FACILITY","subLocation":"Equipment","corrected":"Not required","daysToCorrect":"30","correctedDate":null,"correctionDescription":null}]}]}],"maxInspectionDate":[{"inspectionDate":"2020-05-29T00:00:00"}]}},"pageContext":{"eid":"51622781"}}