{"componentChunkName":"component---src-templates-establishment-page-js","path":"/establishment/4819","result":{"data":{"site":{"pathPrefix":"/restaurant-inspections"},"postgres":{"establishment":[{"establishmentid":"4819","name":"Miami Fish & Chicken, LLC","address":"7255  Jefferson E.","zipcode":"48214","owner":"Arafat Wasel","licenseNumber":"078802","licenseType":"Fixed Establishment","establishmentType":"Food Service Establishment","establishmentStatus":"Plan Review","riskCategory":null,"reviewFrequencyDays":null,"coords":"-83.00109,42.34802","geojson":{"id":"4819","type":"Feature","geometry":{"type":"Point","coordinates":[-83.001086317,42.348019386]},"properties":{"name":"Miami Fish & Chicken, LLC","owner":"Arafat Wasel","address":"7255  Jefferson E.","zipcode":"48214","license_type":"Fixed Establishment","risk_category":null,"license_number":"078802","establishmentid":"4819","establishment_type":"Food Service Establishment","establishment_status":"Plan Review","review_frequency_days":null,"most_recent_license_date":null}},"nearbyList":[{"establishmentid":"5054","name":"Belle Isle Krispy Crunchy Chicken","address":"7255 Jefferson Ave. E.","zipcode":"48214"},{"establishmentid":"2094","name":"Salvation Army Evangeline Center","address":"130 Grand Blvd. W.","zipcode":"48216"},{"establishmentid":"4538","name":"Continental Canteen","address":"130 E. Grand Blvd","zipcode":"48207"},{"establishmentid":"2242","name":"Tim Hortons","address":"7201 Jefferson Ave. E.","zipcode":"48214"},{"establishmentid":"1188","name":"Church's Fried Chicken #345","address":"6931 Jefferson Ave. E.","zipcode":"48207"},{"establishmentid":"3097","name":"Church's Fried Chicken","address":"6931 Jefferson St. E.","zipcode":"48213"},{"establishmentid":"51623632","name":"Nicky D's","address":"6931 Jefferson E.","zipcode":"48207"},{"establishmentid":"2257","name":"SNACK-A-LOT VENDING","address":"7601 JEFFERSON E.","zipcode":"48219"},{"establishmentid":"3422","name":"The Bean Cafe","address":"7633 Jefferson E.","zipcode":"48214"},{"establishmentid":"2332","name":"City Pekins Chinese Food","address":"6905 Jefferson E.","zipcode":"48207"}],"inspectionsByEstablishmentidList":[]}],"maxInspectionDate":[{"inspectionDate":"2022-07-25T00:00:00"}]}},"pageContext":{"eid":"4819"}},"staticQueryHashes":["3649515864","63159454"]}