{"data":{"site":{"pathPrefix":"/restaurant-inspections"},"postgres":{"establishment":[{"establishmentid":"1527","name":"Ferguson Building","address":"2750 Selden St","zipcode":"48208","owner":"Detroit Board of Education","licenseNumber":"217597","licenseType":"Fixed Establishment","establishmentType":"Public School","establishmentStatus":"Open","riskCategory":null,"reviewFrequencyDays":"210","coords":"-83.08960,42.34037","geojson":{"id":"1527","type":"Feature","geometry":{"type":"Point","coordinates":[-83.089602923,42.34037326]},"properties":{"name":"Ferguson Building","owner":"Detroit Board of Education","address":"2750 Selden St","zipcode":"48208","license_type":"Fixed Establishment","risk_category":null,"license_number":"217597","establishmentid":"1527","establishment_type":"Public School","establishment_status":"Open","review_frequency_days":"210","most_recent_license_date":"4/15/2019"}},"nearbyList":[{"establishmentid":"2727","name":"Salvation Army","address":"3737 Lawton St","zipcode":"48208"},{"establishmentid":"3853","name":"Salvation Army #1","address":"3737 Lawton St","zipcode":"48208"},{"establishmentid":"3855","name":"Salvation Army #3","address":"3737 Lawton St","zipcode":"48208"},{"establishmentid":"5064","name":"Salvation Army #12","address":"3737 Lawton St","zipcode":"48208"},{"establishmentid":"3854","name":"Salvation Army #2","address":"3737 Lawton St","zipcode":"48208"},{"establishmentid":"3856","name":"Salvation Army #4","address":"3737 Lawton St","zipcode":"48208"},{"establishmentid":"1640","name":"University of Detroit Dental School","address":"2700 Martin L King Jr. Blvd","zipcode":"48208"},{"establishmentid":"4673","name":"Covenant Central-Covenent House Michigan","address":"2959 Martin Luther King ","zipcode":"48208"},{"establishmentid":"51622907","name":"Covenant House Academy-Central","address":"2959 Martin Luther King Blvd","zipcode":"48208"},{"establishmentid":"51623197","name":"St. Leos Soup Kitchen","address":"4800 Grand River Ave","zipcode":"48208"}],"inspectionsByEstablishmentidList":[{"inspectionid":"48047","inspectionDate":"2019-06-13T00:00:00","inspectionType":"Routine Inspection","inCompliance":"Yes","violationsByInspectionidList":[{"violationCode":"4-501.11","violationDescription":"EQUIPMENT shall be maintained in a state of repair and condition that meets the requirements of the code.\r\n","violationType":"Core","itemDescription":"Equipment","subItem":"","problemDescription":"Broken","subProblem":"","location":"RESTROOM (EMPLOYEE)","subLocation":"At the Paper towel dispenser","corrected":"Not required","daysToCorrect":"30","correctedDate":null,"correctionDescription":"Repair/replace."}]}]}],"maxInspectionDate":[{"inspectionDate":"2020-05-29T00:00:00"}]}},"pageContext":{"eid":"1527"}}