{"data":{"site":{"pathPrefix":"/restaurant-inspections"},"postgres":{"establishment":[{"establishmentid":"51623127","name":"Shelly's Hot Dog (Oakland Co.)","address":"20749 Negaunee","zipcode":"48034","owner":"Michelle Williams","licenseNumber":"20749","licenseType":"Special Transitory Food Unit","establishmentType":null,"establishmentStatus":null,"riskCategory":null,"reviewFrequencyDays":"90.0","coords":"-83.31306,42.44269","geojson":{"id":"51623127","type":"Feature","geometry":{"type":"Point","coordinates":[-83.313063587,42.442694413]},"properties":{"name":"Shelly's Hot Dog (Oakland Co.)","owner":"Michelle Williams","address":"20749 Negaunee","zipcode":"48034","license_type":"Special Transitory Food Unit","risk_category":null,"license_number":"20749","establishmentid":"51623127","establishment_type":null,"establishment_status":null,"review_frequency_days":"90.0","most_recent_license_date":null}},"nearbyList":[{"establishmentid":"2655","name":"TV Lounge","address":"2548 Grand River","zipcode":"48201"},{"establishmentid":"5291","name":"Cosmic Burrito LLC","address":"24806 Frisbee St","zipcode":"48219"},{"establishmentid":"4209","name":"Enjoy In & Out Southern Cooking","address":"24737 W Eight Mile Rd","zipcode":"48219"},{"establishmentid":"4267","name":"Opyum Lounge","address":"24587 W Eight Mile Rd","zipcode":"48219"},{"establishmentid":"51623222","name":"A & N Chicken & Seafood","address":"24761 7 Mile Rd W","zipcode":"48219"},{"establishmentid":"751","name":"Dairy Queen ","address":"24671 Grand River Ave","zipcode":"48219"},{"establishmentid":"929","name":"City Limits Bar and Grill","address":"24501 Grand River Ave","zipcode":"48219"},{"establishmentid":"51622942","name":"Nikki's Palace Soulful Eats","address":"24311 W Seven Mile Rd","zipcode":"48219"},{"establishmentid":"1575","name":"China 1 Chinese Restaurant","address":"19129 Telegraph Rd","zipcode":"48219"},{"establishmentid":"4318","name":"Nu Wave Fish & Chicken","address":"19125 Telegraph Rd","zipcode":"48219"}],"inspectionsByEstablishmentidList":[]}],"maxInspectionDate":[{"inspectionDate":"2020-10-30T00:00:00"}]}},"pageContext":{"eid":"51623127"}}