{"componentChunkName":"component---src-templates-establishment-page-js","path":"/establishment/372","result":{"data":{"site":{"pathPrefix":"/restaurant-inspections"},"postgres":{"establishment":[{"establishmentid":"372","name":"Mitch's Bar","address":"2549 Grand River Ave.","zipcode":"48202","owner":"Donald J. Housey","licenseNumber":"034099","licenseType":"Fixed Establishment","establishmentType":"Food Service Establishment","establishmentStatus":"Open","riskCategory":null,"reviewFrequencyDays":"335","coords":"-83.06290,42.33767","geojson":{"id":"372","type":"Feature","geometry":{"type":"Point","coordinates":[-83.062896592,42.337665567]},"properties":{"name":"Mitch's Bar","owner":"Donald J. Housey","address":"2549 Grand River Ave.","zipcode":"48202","license_type":"Fixed Establishment","risk_category":null,"license_number":"034099","establishmentid":"372","establishment_type":"Food Service Establishment","establishment_status":"Open","review_frequency_days":"335","most_recent_license_date":null}},"nearbyList":[{"establishmentid":"4735","name":"Entertainment Concepts, LLC","address":"2548 Grand River Ave.","zipcode":"48201"},{"establishmentid":"2655","name":"TV Lounge","address":"2554 Grand River","zipcode":"48201"},{"establishmentid":"51623671","name":"Subway","address":"2713 Grand River","zipcode":"48201"},{"establishmentid":"3598","name":"Cass Technical High School","address":"2501  Second Ave.","zipcode":"48201-3400"},{"establishmentid":"51623226","name":"Temple Hotel ","address":"640  Temple ","zipcode":"48201"},{"establishmentid":"2315","name":"Motor City Casino","address":"1225 Temple","zipcode":"48201"},{"establishmentid":"291","name":"Burton International School","address":"1333 Pine","zipcode":"48201"},{"establishmentid":"1140","name":"Masonic Temple","address":"500 Temple","zipcode":"48201"},{"establishmentid":"1405","name":"Mariner's Inn","address":"445 Ledyard","zipcode":"48201"},{"establishmentid":"3679","name":"MGM Grand Casino- Main Kitchen","address":"1777  Third St","zipcode":"48226"}],"inspectionsByEstablishmentidList":[]}],"maxInspectionDate":[{"inspectionDate":"2022-08-31T00:00:00"}]}},"pageContext":{"eid":"372"}},"staticQueryHashes":["3649515864","63159454"]}