{"componentChunkName":"component---src-templates-establishment-page-js","path":"/establishment/3474","result":{"data":{"site":{"pathPrefix":"/restaurant-inspections"},"postgres":{"establishment":[{"establishmentid":"3474","name":"Starbucks Coffee Company","address":"3670 Woodward","zipcode":"48201","owner":"Starbucks Coffee/Eric Quigley","licenseNumber":"054042","licenseType":"Fixed Establishment","establishmentType":"Food Service Establishment","establishmentStatus":"Open","riskCategory":null,"reviewFrequencyDays":"360","coords":"-83.05787,42.34822","geojson":{"id":"3474","type":"Feature","geometry":{"type":"Point","coordinates":[-83.057868886,42.348224696]},"properties":{"name":"Starbucks Coffee Company","owner":"Starbucks Coffee/Eric Quigley","address":"3670 Woodward","zipcode":"48201","license_type":"Fixed Establishment","risk_category":null,"license_number":"054042","establishmentid":"3474","establishment_type":"Food Service Establishment","establishment_status":"Open","review_frequency_days":"360","most_recent_license_date":"2022-04-12"}},"nearbyList":[{"establishmentid":"5331","name":"Starbucks Coffee Co.","address":"3670 Woodward ","zipcode":"48201"},{"establishmentid":"3470","name":"Starbucks Coffee","address":"3670 Woodward Ave.","zipcode":"48202"},{"establishmentid":"2502","name":"Koolies","address":"3663 Woodward","zipcode":"48201"},{"establishmentid":"4544","name":"Continental Canteen","address":"3663 Woodward Ave","zipcode":"48201"},{"establishmentid":"1859","name":"Modern Vending","address":"3663 Woodward","zipcode":"48201"},{"establishmentid":"4524","name":"Continental Canteen","address":"3663 Woodward Ave","zipcode":"48201"},{"establishmentid":"772","name":"China 1","address":"3750 Woodward Ave.","zipcode":"48201"},{"establishmentid":"4037","name":"Subway","address":"3750 Woodward Ave.","zipcode":"48201"},{"establishmentid":"51622888","name":"Hammer & Nail Bar","address":"3800 Woodward","zipcode":"48201"},{"establishmentid":"51623499","name":"Give Thanks Bakery Detroit","address":"3800 Woodward Ave.","zipcode":"48201"}],"inspectionsByEstablishmentidList":[]}],"maxInspectionDate":[{"inspectionDate":"2023-04-25T00:00:00"}]}},"pageContext":{"eid":"3474"}},"staticQueryHashes":["3649515864","63159454"]}