{"componentChunkName":"component---src-templates-establishment-page-js","path":"/establishment/51622752","result":{"data":{"site":{"pathPrefix":"/restaurant-inspections"},"postgres":{"establishment":[{"establishmentid":"51622752","name":"Holy Moly Donut Shop","address":"20301  W. Seven Mile Rd.","zipcode":"48203","owner":"Larry Miller","licenseNumber":"PR18051A","licenseType":"Fixed Establishment","establishmentType":"Food Service Establishment","establishmentStatus":"Plan Review","riskCategory":null,"reviewFrequencyDays":null,"coords":"-83.24204,42.42922","geojson":{"id":"51622752","type":"Feature","geometry":{"type":"Point","coordinates":[-83.242035172,42.429216612]},"properties":{"name":"Holy Moly Donut Shop","owner":"Larry Miller","address":"20301  W. Seven Mile Rd.","zipcode":"48203","license_type":"Fixed Establishment","risk_category":null,"license_number":"PR18051A","establishmentid":"51622752","establishment_type":"Food Service Establishment","establishment_status":"Plan Review","review_frequency_days":null,"most_recent_license_date":null}},"nearbyList":[{"establishmentid":"3565","name":"Club G-Wiz","address":"20327 Seven Mile Rd. W.","zipcode":"48219"},{"establishmentid":"5241","name":"S & T Fresh Fish & Seafood Inc.","address":"20231 Seven Mile Rd. W.","zipcode":"48219"},{"establishmentid":"2736","name":"Oh Mama's Kitchen, Inc.","address":"20353 Seven Mile Rd. W.","zipcode":"48219"},{"establishmentid":"51623575","name":"Motorcity Smoothie Cafe","address":"20170 Seven Mile W.","zipcode":"48219"},{"establishmentid":"2238","name":"Subway #15573","address":"20170 Seven Mile Rd. W.","zipcode":"48219"},{"establishmentid":"467","name":"Club 7","address":"20410 Seven Mile rd. W.","zipcode":"48219"},{"establishmentid":"1647","name":"China One","address":"20160 Seven Mile Rd. W.","zipcode":"48219"},{"establishmentid":"2246","name":"Happy's Pizza #5","address":"20150 Seven Mile Rd. W.","zipcode":"48219"},{"establishmentid":"422","name":"Evergreen Gardens","address":"20430 Seven Mile Rd. W.","zipcode":"48219"},{"establishmentid":"51623166","name":"House of Gumbo ","address":"20430 W. Seven Mile Rd.","zipcode":"48219"}],"inspectionsByEstablishmentidList":[]}],"maxInspectionDate":[{"inspectionDate":"2022-08-31T00:00:00"}]}},"pageContext":{"eid":"51622752"}},"staticQueryHashes":["3649515864","63159454"]}