{"data":{"site":{"pathPrefix":"/restaurant-inspections"},"postgres":{"establishment":[{"establishmentid":"51622917","name":"Yum Yoshi LLC","address":"14535 Fenkell Ave","zipcode":"48203","owner":"Mosil Blackwell","licenseNumber":null,"licenseType":"Fixed Establishment","establishmentType":"Food Service Establishment","establishmentStatus":"Open","riskCategory":null,"reviewFrequencyDays":"180.0","coords":"-83.18818,42.40178","geojson":{"id":"51622917","type":"Feature","geometry":{"type":"Point","coordinates":[-83.188176714,42.401783891]},"properties":{"name":"Yum Yoshi LLC","owner":"Mosil Blackwell","address":"14535 Fenkell Ave","zipcode":"48203","license_type":"Fixed Establishment","risk_category":null,"license_number":null,"establishmentid":"51622917","establishment_type":"Food Service Establishment","establishment_status":"Open","review_frequency_days":"180.0","most_recent_license_date":null}},"nearbyList":[{"establishmentid":"5400","name":"Hubbell Fish & Chicken","address":"14535 Fenkell","zipcode":"48227"},{"establishmentid":"1319","name":"Coleman A. Young Elementary","address":"15771 Hubbell St","zipcode":"48227"},{"establishmentid":"1866","name":"Lee's Texas Style Bar-B-Que","address":"14001 Fenkell Ave","zipcode":"48227"},{"establishmentid":"852","name":"John R King Academic & Performing Arts ","address":"15850 Strathmoor St","zipcode":"48227"},{"establishmentid":"870","name":"Burns Elementary- Middle School","address":"14350 Terry St","zipcode":"48227"},{"establishmentid":"5175","name":"Gunny Ray's Shrimp & Chicken","address":"15391 Schaefer Hwy","zipcode":"48227"},{"establishmentid":"51622893","name":"Lighthouse Fish Market & Grocery","address":"15391 Schaefer Rd","zipcode":"48227"},{"establishmentid":"51622734","name":"Club Caribbean Bar & Grill","address":"15331 Fenkell Ave","zipcode":"48227"},{"establishmentid":"5393","name":"Five Hundred Degrees","address":"15090 Schaefer","zipcode":"48227"},{"establishmentid":"1214","name":"Church's Fried Chicken #964","address":"13531 Fenkell Ave","zipcode":"48227"}],"inspectionsByEstablishmentidList":[{"inspectionid":"45788","inspectionDate":"2019-04-03T00:00:00","inspectionType":"Routine Inspection","inCompliance":"Yes","violationsByInspectionidList":[]}]}],"maxInspectionDate":[{"inspectionDate":"2019-10-31T00:00:00"}]}},"pageContext":{"eid":"51622917"}}