{"componentChunkName":"component---src-templates-establishment-page-js","path":"/establishment/4185","result":{"data":{"site":{"pathPrefix":"/restaurant-inspections"},"postgres":{"establishment":[{"establishmentid":"4185","name":"Cut Fresh Deli","address":"8500 Eight Mile Rd. E","zipcode":"48234","owner":"Rodney Lynn","licenseNumber":"Unlic","licenseType":"Fixed Establishment","establishmentType":"Food Service Establishment","establishmentStatus":"Open","riskCategory":"Medium","reviewFrequencyDays":"150","coords":"-83.01890,42.44538","geojson":{"id":"4185","type":"Feature","geometry":{"type":"Point","coordinates":[-83.018903285,42.445378778]},"properties":{"name":"Cut Fresh Deli","owner":"Rodney Lynn","address":"8500 Eight Mile Rd. E","zipcode":"48234","license_type":"Fixed Establishment","risk_category":"Medium","license_number":"Unlic","establishmentid":"4185","establishment_type":"Food Service Establishment","establishment_status":"Open","review_frequency_days":"150","most_recent_license_date":null}},"nearbyList":[{"establishmentid":"5120","name":"AC's Hot Dog Express","address":"8500 Eight Mile E.","zipcode":"48214"},{"establishmentid":"2003","name":"Bally Total Fitness","address":"9800 Eight Mile Rd. E.","zipcode":"48234"},{"establishmentid":"3623","name":"Heaven Sent Eatery","address":"9800  Eight Mile Rd. E.","zipcode":"48234"},{"establishmentid":"2005","name":"Subway","address":"9500 Eight Mile Rd. E.","zipcode":"48238"},{"establishmentid":"1856","name":"AVI Foodsystems","address":"20000 Conner Ave.","zipcode":"48234"},{"establishmentid":"2881","name":"AVI Foodsystems","address":"20000 Conner Ave.","zipcode":"48234"},{"establishmentid":"2500","name":"Robinson Dairy Vending","address":"20000 Conner","zipcode":"48234"},{"establishmentid":"2882","name":"AVI Foodsystems","address":"20000 Conner Ave. ","zipcode":"48234"},{"establishmentid":"643","name":"UAW Local Union #1700","address":"8230 Eight Mile Rd. E.","zipcode":"48234"},{"establishmentid":"1641","name":"ST. JOHN N.E. COMMUNITY HOS","address":"4777 Outer Dr. E.","zipcode":"48234"}],"inspectionsByEstablishmentidList":[]}],"maxInspectionDate":[{"inspectionDate":"2022-07-25T00:00:00"}]}},"pageContext":{"eid":"4185"}},"staticQueryHashes":["3649515864","63159454"]}