{"data":{"site":{"pathPrefix":"/restaurant-inspections"},"postgres":{"establishment":[{"establishmentid":"51623218","name":"Coriander LLC (Oakland Co.)","address":"1792 Parker St","zipcode":"48212","owner":"Coriander LLC","licenseNumber":"218853","licenseType":"Special Transitory Food Unit","establishmentType":null,"establishmentStatus":null,"riskCategory":null,"reviewFrequencyDays":"90.0","coords":"-82.99796,42.35845","geojson":{"id":"51623218","type":"Feature","geometry":{"type":"Point","coordinates":[-82.997960475,42.358454645]},"properties":{"name":"Coriander LLC (Oakland Co.)","owner":"Coriander LLC","address":"1792 Parker St","zipcode":"48212","license_type":"Special Transitory Food Unit","risk_category":null,"license_number":"218853","establishmentid":"51623218","establishment_type":null,"establishment_status":null,"review_frequency_days":"90.0","most_recent_license_date":null}},"nearbyList":[{"establishmentid":"51622821","name":"Destination 1905","address":"8130 Kercheval Ave","zipcode":"48214"},{"establishmentid":"5284","name":"Conventional Missionary Baptist Church","address":"2255 Seminole","zipcode":"48214"},{"establishmentid":"1336","name":"Indian Village Tennis Club","address":"1502 Parker Ave","zipcode":"48214"},{"establishmentid":"51622951","name":"Snack Camp","address":"1464 Van Dyke Ave","zipcode":"48214"},{"establishmentid":"833","name":"Marcus Garvey","address":"2301 Van Dyke Ave","zipcode":"48207"},{"establishmentid":"51622473","name":"Yum Village Food Truck Works Detroit","address":"1415 Parker St #867 ","zipcode":"48214"},{"establishmentid":"4817","name":"Craft Work","address":"8047 Agnes St","zipcode":"48214"},{"establishmentid":"4765","name":"Detroit Vegan Soul, LLC","address":"8029 Agnes St","zipcode":"48214"},{"establishmentid":"4953","name":"The Red Hook, Detroit, LLC","address":"8025 Agnes St","zipcode":"48214"},{"establishmentid":"51622619","name":"Detroit Prep","address":"2411 Iroquois St","zipcode":"48214"}],"inspectionsByEstablishmentidList":[{"inspectionid":"51032","inspectionDate":"2020-03-01T00:00:00","inspectionType":"Routine Inspection","inCompliance":"Yes","violationsByInspectionidList":[{"violationCode":"4-501.11","violationDescription":"EQUIPMENT shall be maintained in a state of repair and condition that meets the requirements of the code.\r\n","violationType":"Core","itemDescription":"Equipment","subItem":"","problemDescription":"In poor repair","subProblem":"","location":"STFU","subLocation":"Above the ACCESS","corrected":"Not required","daysToCorrect":"30","correctedDate":null,"correctionDescription":"Repair"}]}]}],"maxInspectionDate":[{"inspectionDate":"2020-05-29T00:00:00"}]}},"pageContext":{"eid":"51623218"}}