{"componentChunkName":"component---src-templates-establishment-page-js","path":"/establishment/3313","result":{"data":{"site":{"pathPrefix":"/restaurant-inspections"},"postgres":{"establishment":[{"establishmentid":"3313","name":"J & C Fun Foods","address":"4429 Van Dyke Ave.","zipcode":"48212","owner":"JOHN CREWS","licenseNumber":"037918","licenseType":"Special Transitory Food Unit","establishmentType":"LHD - Mobile Food Establishmen","establishmentStatus":"Open","riskCategory":null,"reviewFrequencyDays":null,"coords":"-83.01010,42.37219","geojson":{"id":"3313","type":"Feature","geometry":{"type":"Point","coordinates":[-83.010100841,42.372188343]},"properties":{"name":"J & C Fun Foods","owner":"JOHN CREWS","address":"4429 Van Dyke Ave.","zipcode":"48212","license_type":"Special Transitory Food Unit","risk_category":null,"license_number":"037918","establishmentid":"3313","establishment_type":"LHD - Mobile Food Establishmen","establishment_status":"Open","review_frequency_days":null,"most_recent_license_date":"5/1/2013"}},"nearbyList":[{"establishmentid":"4172","name":"J & C Fun Foods III","address":"4429 Van Dyke","zipcode":"48214"},{"establishmentid":"4415","name":"J & C Fun Foods #1","address":"4429 Van Dyke Ave.","zipcode":"48214"},{"establishmentid":"3336","name":"J & C Fun Foods II","address":"4429 Van Dyke Ave.","zipcode":"48212"},{"establishmentid":"3555","name":"Friends of Detroit & Tri County","address":"8230 Forest Ave. E.","zipcode":"48214"},{"establishmentid":"4831","name":"Cesar Chavez Academy - East","address":"4130 Maxwell","zipcode":"48214"},{"establishmentid":"2032","name":"Inner City Sub Center","address":"8411 Forest E.","zipcode":"48214"},{"establishmentid":"4713","name":"Inner City Sub","address":"8411 E. Forest ","zipcode":null},{"establishmentid":"933","name":"Barbour Jr.High","address":"4209 Seneca","zipcode":"48214"},{"establishmentid":"51623706","name":"Lil Clint's Mini Mart","address":"7631 Warren E.","zipcode":"48214"},{"establishmentid":"51623075","name":"Detroit Prep","address":"8411 Sylvester","zipcode":"48214"}],"inspectionsByEstablishmentidList":[]}],"maxInspectionDate":[{"inspectionDate":"2022-08-31T00:00:00"}]}},"pageContext":{"eid":"3313"}},"staticQueryHashes":["3649515864","63159454"]}