{"componentChunkName":"component---src-templates-establishment-page-js","path":"/establishment/51623444","result":{"data":{"site":{"pathPrefix":"/restaurant-inspections"},"postgres":{"establishment":[{"establishmentid":"51623444","name":"The Warren Cafe","address":"16314 E. Warren","zipcode":"48224","owner":"Darrell Walker","licenseNumber":"052421","licenseType":"Fixed Establishment","establishmentType":"Food Service Establishment","establishmentStatus":null,"riskCategory":null,"reviewFrequencyDays":"350","coords":"-82.93937,42.40227","geojson":{"id":"51623444","type":"Feature","geometry":{"type":"Point","coordinates":[-82.939371554,42.402266333]},"properties":{"name":"The Warren Cafe","owner":"Darrell Walker","address":"16314 E. Warren","zipcode":"48224","license_type":"Fixed Establishment","risk_category":null,"license_number":"052421","establishmentid":"51623444","establishment_type":"Food Service Establishment","establishment_status":null,"review_frequency_days":"350","most_recent_license_date":null}},"nearbyList":[{"establishmentid":"2333","name":"Club Xhale","address":"16314 Warren E.","zipcode":"48224"},{"establishmentid":"51623669","name":"Terri's Cakes Detroit","address":"16311 Warren E.","zipcode":"48224"},{"establishmentid":"51622801","name":"Soul Food Shawarma","address":"16353 E. Warren","zipcode":"48224"},{"establishmentid":"439","name":"Gino's Coney Island","address":"16353 Warren Ave. E.","zipcode":"48224"},{"establishmentid":"2861","name":"Jeanie's Lounge","address":"16200 Warren Ave. E.","zipcode":"48224"},{"establishmentid":"51622845","name":"Flamzs","address":"16369 Warren E.","zipcode":"48224"},{"establishmentid":"51623573","name":"Morningside Cafe","address":"16369 Warren E.","zipcode":"48224"},{"establishmentid":"855","name":"Fair Star Inn","address":"16209 Warren Ave. E.","zipcode":"48224"},{"establishmentid":"51623318","name":"Ziggy's Bar & Grill","address":"16390-94 E. Warren Ave ","zipcode":"48224"},{"establishmentid":"797","name":"Ziggy's Bar & Grill","address":"16390-94 Warren E.","zipcode":"48224"}],"inspectionsByEstablishmentidList":[]}],"maxInspectionDate":[{"inspectionDate":"2022-08-31T00:00:00"}]}},"pageContext":{"eid":"51623444"}},"staticQueryHashes":["3649515864","63159454"]}