{"componentChunkName":"component---src-templates-establishment-page-js","path":"/establishment/862","result":{"data":{"site":{"pathPrefix":"/restaurant-inspections"},"postgres":{"establishment":[{"establishmentid":"862","name":"Joyce Elementary","address":"8411 Sylvester","zipcode":"48213","owner":"Bd.of Education","licenseNumber":"034894","licenseType":"Fixed Establishment","establishmentType":"Public School","establishmentStatus":"Permanently Closed","riskCategory":null,"reviewFrequencyDays":"150","coords":"-83.00382,42.37167","geojson":{"id":"862","type":"Feature","geometry":{"type":"Point","coordinates":[-83.003821156,42.371674786]},"properties":{"name":"Joyce Elementary","owner":"Bd.of Education","address":"8411 Sylvester","zipcode":"48213","license_type":"Fixed Establishment","risk_category":null,"license_number":"034894","establishmentid":"862","establishment_type":"Public School","establishment_status":"Permanently Closed","review_frequency_days":"150","most_recent_license_date":"14/5/2008"}},"nearbyList":[{"establishmentid":"51623075","name":"Detroit Prep","address":"8411 Sylvester","zipcode":"48214"},{"establishmentid":"933","name":"Barbour Jr.High","address":"4209 Seneca","zipcode":"48214"},{"establishmentid":"4831","name":"Cesar Chavez Academy - East","address":"4130 Maxwell","zipcode":"48214"},{"establishmentid":"1158","name":"Franklin Gourmet Dairy Bar","address":"8405 Mack Ave.","zipcode":"48214"},{"establishmentid":"4713","name":"Inner City Sub","address":"8411 E. Forest ","zipcode":null},{"establishmentid":"2032","name":"Inner City Sub Center","address":"8411 Forest E.","zipcode":"48214"},{"establishmentid":"3555","name":"Friends of Detroit & Tri County","address":"8230 Forest Ave. E.","zipcode":"48214"},{"establishmentid":"51622465","name":"The Commons","address":"7900 Mack","zipcode":"48214"},{"establishmentid":"3336","name":"J & C Fun Foods II","address":"4429 Van Dyke Ave.","zipcode":"48212"},{"establishmentid":"4172","name":"J & C Fun Foods III","address":"4429 Van Dyke","zipcode":"48214"}],"inspectionsByEstablishmentidList":[]}],"maxInspectionDate":[{"inspectionDate":"2023-04-13T00:00:00"}]}},"pageContext":{"eid":"862"}},"staticQueryHashes":["3649515864","63159454"]}