{"componentChunkName":"component---src-templates-establishment-page-js","path":"/establishment/1620","result":{"data":{"site":{"pathPrefix":"/restaurant-inspections"},"postgres":{"establishment":[{"establishmentid":"1620","name":"Marrell's Express Fine Food","address":"7334 Chicago W.","zipcode":"48204","owner":"Christine Garner","licenseNumber":"035937","licenseType":"Fixed Establishment","establishmentType":"Food Service Establishment","establishmentStatus":"Permanently Closed","riskCategory":null,"reviewFrequencyDays":"150","coords":"-83.14286,42.36669","geojson":{"id":"1620","type":"Feature","geometry":{"type":"Point","coordinates":[-83.142860875,42.366687244]},"properties":{"name":"Marrell's Express Fine Food","owner":"Christine Garner","address":"7334 Chicago W.","zipcode":"48204","license_type":"Fixed Establishment","risk_category":null,"license_number":"035937","establishmentid":"1620","establishment_type":"Food Service Establishment","establishment_status":"Permanently Closed","review_frequency_days":"150","most_recent_license_date":"4/17/2006"}},"nearbyList":[{"establishmentid":"5058","name":"Esquire Deli","address":"7334 Chicago W.","zipcode":"48204"},{"establishmentid":"5399","name":"Esquire Deli","address":"7334 Chicago W.","zipcode":"48204"},{"establishmentid":"1693","name":"Malcolm X Academy","address":"6311 Chicago W.","zipcode":"48204"},{"establishmentid":"2650","name":"McDonald's","address":"9815 Grand River Ave.","zipcode":"48204"},{"establishmentid":"1012","name":"Burger King #1028","address":"9871 Livernois Ave.","zipcode":"48204"},{"establishmentid":"3752","name":"Subway","address":"9600 Livernois","zipcode":"48204"},{"establishmentid":"4883","name":"Livernois & I96 Subway Inc","address":"9600 Livernois","zipcode":"48204"},{"establishmentid":"1709","name":"Wendy's ","address":"9768 Grand River Ave.","zipcode":"48204"},{"establishmentid":"1004","name":"Kentucky Fried Chicken ","address":"9848 Livernois Ave.","zipcode":"48204"},{"establishmentid":"1128","name":"Royal Grill","address":"9850 Livernois Ave.","zipcode":"48204"}],"inspectionsByEstablishmentidList":[]}],"maxInspectionDate":[{"inspectionDate":"2022-08-31T00:00:00"}]}},"pageContext":{"eid":"1620"}},"staticQueryHashes":["3649515864","63159454"]}