{"componentChunkName":"component---src-templates-establishment-page-js","path":"/establishment/3572","result":{"data":{"site":{"pathPrefix":"/restaurant-inspections"},"postgres":{"establishment":[{"establishmentid":"3572","name":"Cafe Con Leche","address":"4200 Vernor St. W.","zipcode":"48209","owner":"Jordi Carbonell","licenseNumber":"DR52716","licenseType":"Fixed Establishment","establishmentType":"Food Service Establishment","establishmentStatus":"Permanently Closed","riskCategory":null,"reviewFrequencyDays":"335","coords":"-83.09436,42.32107","geojson":{"id":"3572","type":"Feature","geometry":{"type":"Point","coordinates":[-83.094358385,42.321070038]},"properties":{"name":"Cafe Con Leche","owner":"Jordi Carbonell","address":"4200 Vernor St. W.","zipcode":"48209","license_type":"Fixed Establishment","risk_category":null,"license_number":"DR52716","establishmentid":"3572","establishment_type":"Food Service Establishment","establishment_status":"Permanently Closed","review_frequency_days":"335","most_recent_license_date":null}},"nearbyList":[{"establishmentid":"794","name":"Armando's Mexican Restaurant","address":"4242 Vernor St. W.","zipcode":"48209"},{"establishmentid":"4178","name":"Mexican Fiesta Center","address":"4114 W.Vernor","zipcode":"48209"},{"establishmentid":"5209","name":"El Club","address":"4114 Vernor W.","zipcode":"48209"},{"establishmentid":"1520","name":"La Gran Tenochtitlan","address":"4314 Vernor St.W.","zipcode":"48209"},{"establishmentid":"51623802","name":"Paleteria Michoacanita ","address":"4336  W. Vernor Hwy ","zipcode":null},{"establishmentid":"470","name":"Neveria La Michoacana","address":"4336 Vernor St. W.","zipcode":"48209"},{"establishmentid":"338","name":"EL PAPA DE LOS POLLITOS","address":"4049 Vernor Ave. W.","zipcode":"48209"},{"establishmentid":"5308","name":"Mangonadas Del Barrio #1, LLC","address":"4029 Vernor W.","zipcode":"48209"},{"establishmentid":"1750","name":"El Chapparel Lounge","address":"4426 Vernor St.W.","zipcode":"48209"},{"establishmentid":"295","name":"Vernor Coney Island","address":"4430 Vernor St.W.","zipcode":"48209"}],"inspectionsByEstablishmentidList":[]}],"maxInspectionDate":[{"inspectionDate":"2022-07-25T00:00:00"}]}},"pageContext":{"eid":"3572"}},"staticQueryHashes":["3649515864","63159454"]}