{"data":{"site":{"pathPrefix":"/restaurant-inspections"},"postgres":{"establishment":[{"establishmentid":"51622659","name":"Wallstreet Lounge","address":"18458 James Couzens Fwy","zipcode":"48235","owner":"Carnell Smith (Manager )","licenseNumber":"220229","licenseType":"Fixed Establishment","establishmentType":"Food Service Establishment","establishmentStatus":"Open","riskCategory":"High","reviewFrequencyDays":"180","coords":"-83.18132,42.42648","geojson":{"id":"51622659","type":"Feature","geometry":{"type":"Point","coordinates":[-83.181323168,42.426479435]},"properties":{"name":"Wallstreet Lounge","owner":"Carnell Smith (Manager )","address":"18458 James Couzens Fwy","zipcode":"48235","license_type":"Fixed Establishment","risk_category":"High","license_number":"220229","establishmentid":"51622659","establishment_type":"Food Service Establishment","establishment_status":"Open","review_frequency_days":"180","most_recent_license_date":"4/26/2018"}},"nearbyList":[{"establishmentid":"51622793","name":"Rocky's Road Brew","address":"18626 Hartwell Dr","zipcode":"48228"},{"establishmentid":"3786","name":"Hartford Memorial Baptist Church","address":"18700 James Couzens Hwy","zipcode":"48235"},{"establishmentid":"3558","name":"David Ellis Academy","address":"18977 Schaefer Hwy","zipcode":"48235"},{"establishmentid":"3988","name":"Precise Home Health Care Services, LLC","address":"18940 Schaefer Hwy","zipcode":"48235"},{"establishmentid":"4761","name":"David Ellis Academy Kindergarten","address":"18962 Schaefer Hwy","zipcode":"48235"},{"establishmentid":"280","name":"New China One","address":"13611 W Seven Mile Rd","zipcode":"48235"},{"establishmentid":"5309","name":"Louisiana Creole Gumbo/Commissary","address":"13505 W Seven Mile Rd Ste A","zipcode":"48235"},{"establishmentid":"5179","name":"Original T & J Coney Island","address":"13600 W Seven Mile Rd","zipcode":"48235"},{"establishmentid":"2666","name":"Kentucky Fried Chicken","address":"14201 W Seven Mile Rd","zipcode":"48235"},{"establishmentid":"1352","name":"McDonald's #7025","address":"14204 W Seven Mile Rd","zipcode":"48235"}],"inspectionsByEstablishmentidList":[]}],"maxInspectionDate":[{"inspectionDate":"2020-10-30T00:00:00"}]}},"pageContext":{"eid":"51622659"}}