{"data":{"site":{"pathPrefix":null},"postgres":{"establishment":[{"establishmentid":"4644","name":"Joe Louis Arena Canadian Club/ Alumni Rm","address":"600 Civic Center Drive","zipcode":"48226","owner":"Olympia Entertainment","licenseNumber":"075429","licenseType":"Fixed Establishment","establishmentType":"Food Service Establishment","establishmentStatus":"Permanently Closed","riskCategory":"Medium","reviewFrequencyDays":"365.0","coords":"-83.05141,42.32519","geojson":{"id":"4644","type":"Feature","geometry":{"type":"Point","coordinates":[-83.051406129,42.325190385]},"properties":{"name":"Joe Louis Arena Canadian Club/ Alumni Rm","owner":"Olympia Entertainment","address":"600 Civic Center Drive","zipcode":"48226","license_type":"Fixed Establishment","risk_category":"Medium","license_number":"075429","establishmentid":"4644","establishment_type":"Food Service Establishment","establishment_status":"Permanently Closed","review_frequency_days":"365.0","most_recent_license_date":"5/10/2017"}},"nearbyList":[{"establishmentid":"4200","name":"Joe Louis Arena-Suite Kitchen","address":"600 Civic Center Dr","zipcode":"48226"},{"establishmentid":"1193","name":"Joe Louis Sports Arena","address":"600 Civic Center Dr","zipcode":"48226"},{"establishmentid":"4203","name":"Joe Louis Arena- Eastend Joes","address":"600 Civic Center Dr","zipcode":"48226"},{"establishmentid":"4204","name":"Joe Louis Arena- Little Ceasars","address":"600 Civic Center Dr","zipcode":"48226"},{"establishmentid":"4207","name":"Joe Louis Arena- Bars","address":"600 Civic Center Dr","zipcode":"48226"},{"establishmentid":"4201","name":"Joe Louis Arena-VIP Service Buffet","address":"600 Civic Center Dr","zipcode":"48226"},{"establishmentid":"4202","name":"Joe Louis Arena- Buffalo Wild Wings","address":"600 Civic Center Dr","zipcode":"48226"},{"establishmentid":"4206","name":"Joe Louis Arena- Concessions","address":"600 Civic Center Dr","zipcode":"48226"},{"establishmentid":"4208","name":"Joe Louis Arena - Beer Portables","address":"600 Civic Center Dr","zipcode":"48226"},{"establishmentid":"741","name":"Detroit Racquet Club","address":"626 Woodbridge St","zipcode":"48226"}],"inspectionsByEstablishmentidList":[{"inspectionid":"37872","inspectionDate":"2017-01-31T00:00:00","inspectionType":"Routine Inspection","inCompliance":"Yes","violationsByInspectionidList":[{"violationCode":"5-205.11","violationDescription":"(A) A HANDWASHING SINK shall be maintained so that it is accessible at all times for EMPLOYEE use and used for no other purpose. (Pf)\r\n(B)  An automatic handwashing facility shall be used in accordance with manufacturer's instructions. (Pf)\r\n","violationType":"Foundation","itemDescription":"Handwashing sink(s)","subItem":"","problemDescription":"Not easily accessible","subProblem":"Items stored In","location":"BAR","subLocation":"At the Handsink","corrected":"Yes","daysToCorrect":"10.0","correctedDate":"2017-01-31T00:00:00","correctionDescription":"Remove items from handsink.  Do not store items at handsink."}]}]}]}},"pageContext":{"eid":"4644"}}