{"componentChunkName":"component---src-templates-establishment-page-js","path":"/establishment/5303","result":{"data":{"site":{"pathPrefix":"/restaurant-inspections"},"postgres":{"establishment":[{"establishmentid":"5303","name":"Kreative Cream ","address":"11790 Kennebec","zipcode":"48205","owner":"Keshia Sawyers","licenseNumber":"208163","licenseType":"Mobile Food Establishment","establishmentType":"LHD - Mobile Food Establishmen","establishmentStatus":null,"riskCategory":"Low","reviewFrequencyDays":"180","coords":"-83.00085,42.41985","geojson":{"id":"5303","type":"Feature","geometry":{"type":"Point","coordinates":[-83.000845764,42.419847859]},"properties":{"name":"Kreative Cream ","owner":"Keshia Sawyers","address":"11790 Kennebec","zipcode":"48205","license_type":"Mobile Food Establishment","risk_category":"Low","license_number":"208163","establishmentid":"5303","establishment_type":"LHD - Mobile Food Establishmen","establishment_status":null,"review_frequency_days":"180","most_recent_license_date":null}},"nearbyList":[{"establishmentid":"3750","name":"Zorba's Coney Island","address":"11701 McNichols Ave. E.","zipcode":"48205"},{"establishmentid":"3405","name":"Lucky's Resturant","address":"11701 McNichols Rd. E.","zipcode":"48224"},{"establishmentid":"4244","name":"Zorba's Fine Food","address":"11701 McNichols Ave. E.","zipcode":"48205"},{"establishmentid":"1402","name":"Zorba's Coney Island","address":"11701 McNichols Ave. E.","zipcode":"48205"},{"establishmentid":"1554","name":"Academy of Fine and Peforming Arts","address":"17201 Annott","zipcode":"48205"},{"establishmentid":"309","name":"P.P.H Lounge","address":"11526 Portlance","zipcode":"48205"},{"establishmentid":"1166","name":"Wilkins Elementary School","address":"12400 Nashville","zipcode":"48205"},{"establishmentid":"51623780","name":"K & K Eatz & Catering ","address":"13066 Canonbury","zipcode":"48205"},{"establishmentid":"1385","name":"Little Caesar's Pizza #81","address":"12039 Gratiot Ave.","zipcode":"48205"},{"establishmentid":"4192","name":"Rob & John's Grill","address":"11999 Gratiot","zipcode":"48213"}],"inspectionsByEstablishmentidList":[]}],"maxInspectionDate":[{"inspectionDate":"2022-07-25T00:00:00"}]}},"pageContext":{"eid":"5303"}},"staticQueryHashes":["3649515864","63159454"]}