{"componentChunkName":"component---src-templates-establishment-page-js","path":"/establishment/3410","result":{"data":{"site":{"pathPrefix":"/restaurant-inspections"},"postgres":{"establishment":[{"establishmentid":"3410","name":"A to Z Vending","address":"6600 Mt. Elliott Ave.","zipcode":"48211","owner":"Andy Ziegler","licenseNumber":"041204","licenseType":"Other","establishmentType":"LHD - Vending","establishmentStatus":"Open","riskCategory":null,"reviewFrequencyDays":"355","coords":"-83.03668,42.38477","geojson":{"id":"3410","type":"Feature","geometry":{"type":"Point","coordinates":[-83.036684322,42.38477434]},"properties":{"name":"A to Z Vending","owner":"Andy Ziegler","address":"6600 Mt. Elliott Ave.","zipcode":"48211","license_type":"Other","risk_category":null,"license_number":"041204","establishmentid":"3410","establishment_type":"LHD - Vending","establishment_status":"Open","review_frequency_days":"355","most_recent_license_date":"2015-04-29"}},"nearbyList":[{"establishmentid":"1878","name":"DUBLIN","address":"6500 MT ELLIOTT","zipcode":"48221"},{"establishmentid":"2068","name":"Metropol Vending","address":"6515 Mt. Elliott","zipcode":"48211"},{"establishmentid":"2175","name":"Detroit Mr. Softy","address":"7934 Klein","zipcode":"48211"},{"establishmentid":"3944","name":"Ice Cream Land","address":"6338 Selkirk","zipcode":"48211"},{"establishmentid":"3945","name":"Mr. Softy","address":"6340 Selkirk","zipcode":"48211"},{"establishmentid":"51623014","name":"Saleh Ice Cream","address":"6356 Selkirk St.","zipcode":"48211"},{"establishmentid":"4005","name":"M & H Soft Serve","address":"7895 Girardin St","zipcode":"48211"},{"establishmentid":"51623726","name":"Spiderman Soft Serve","address":"8154 Winkleman St","zipcode":"48211"},{"establishmentid":"5342","name":"Oakland International Academy","address":"6111 Miller","zipcode":"48211"},{"establishmentid":"3111","name":"Super Softy","address":"4000 Miller","zipcode":"48211"}],"inspectionsByEstablishmentidList":[]}],"maxInspectionDate":[{"inspectionDate":"2023-04-25T00:00:00"}]}},"pageContext":{"eid":"3410"}},"staticQueryHashes":["3649515864","63159454"]}