{"data":{"site":{"pathPrefix":"/restaurant-inspections"},"postgres":{"establishment":[{"establishmentid":"51623011","name":"Detroit Ice Cream","address":"11613 Lumpkin","zipcode":"48212","owner":"Ali Almasmari","licenseNumber":"SJ11613","licenseType":"Mobile Food Establishment","establishmentType":"LHD - Mobile Food Establishmen","establishmentStatus":"Seasonal","riskCategory":"Medium","reviewFrequencyDays":"90.0","coords":"-83.06754,42.40011","geojson":{"id":"51623011","type":"Feature","geometry":{"type":"Point","coordinates":[-83.067543975,42.4001080740001]},"properties":{"name":"Detroit Ice Cream","owner":"Ali Almasmari","address":"11613 Lumpkin","zipcode":"48212","license_type":"Mobile Food Establishment","risk_category":"Medium","license_number":"SJ11613","establishmentid":"51623011","establishment_type":"LHD - Mobile Food Establishmen","establishment_status":"Seasonal","review_frequency_days":"90.0","most_recent_license_date":null}},"nearbyList":[{"establishmentid":"4016","name":"Mr. Soft Serve","address":"11613 Lumpkin Street","zipcode":"48212"},{"establishmentid":"5312","name":"Wonka Soft Serve","address":"11609 Lumpkin St","zipcode":"48212"},{"establishmentid":"5314","name":"Fresh Soft Serve","address":"11516 Saint Aubin St","zipcode":"48212"},{"establishmentid":"51622757","name":"Supa Flavor ","address":"11514 St Aubin St","zipcode":"48212"},{"establishmentid":"5390","name":"Premier Ice Cream","address":"2217 Evaline St","zipcode":"48212"},{"establishmentid":"4402","name":"Bridge Academy West","address":"3105 Carpenter St","zipcode":"48212"},{"establishmentid":"4453","name":"Beignet's, LLC","address":"2424 Florian St","zipcode":"48212"},{"establishmentid":"51622689","name":"American Axle Plant #6","address":"2020 Holbrook Ave","zipcode":"48212"},{"establishmentid":"914","name":"Davison Elementary Annex","address":"13210 Maine St","zipcode":"48238"},{"establishmentid":"1317","name":"Loving Elementary","address":"1000 Lynn Ave","zipcode":"48202"}],"inspectionsByEstablishmentidList":[]}],"maxInspectionDate":[{"inspectionDate":"2019-04-30T00:00:00"}]}},"pageContext":{"eid":"51623011"}}