{"data":{"site":{"pathPrefix":"/restaurant-inspections"},"postgres":{"establishment":[{"establishmentid":"3812","name":"Tacos El Caballo","address":"8084 Rathbone St","zipcode":"48209","owner":"Jose de Jesus Barbados","licenseNumber":"037829","licenseType":"Mobile Food Establishment","establishmentType":"LHD - Mobile Food Establishmen","establishmentStatus":"Open","riskCategory":null,"reviewFrequencyDays":"395.0","coords":"-83.12372,42.30400","geojson":{"id":"3812","type":"Feature","geometry":{"type":"Point","coordinates":[-83.1237202359999,42.303998818]},"properties":{"name":"Tacos El Caballo","owner":"Jose de Jesus Barbados","address":"8084 Rathbone St","zipcode":"48209","license_type":"Mobile Food Establishment","risk_category":null,"license_number":"037829","establishmentid":"3812","establishment_type":"LHD - Mobile Food Establishmen","establishment_status":"Open","review_frequency_days":"395.0","most_recent_license_date":"4/12/2016"}},"nearbyList":[{"establishmentid":"1353","name":"Vince's Italian Rest & Pizzeria","address":"1341 Springwells Ave","zipcode":"48209"},{"establishmentid":"2224","name":"El Asador","address":"1312 Springwells Ave","zipcode":"48209"},{"establishmentid":"4241","name":"Tacos El Toro #3","address":"8191 Chamberlain St","zipcode":"48209"},{"establishmentid":"413","name":"Charlie's Bar","address":"1503 Springwells Ave","zipcode":"48209"},{"establishmentid":"51622563","name":"La Pasada","address":"1601 Springwells St","zipcode":"48209"},{"establishmentid":"1184","name":"McDonald's #5251","address":"1101 Springwells Ave","zipcode":"48209"},{"establishmentid":"370","name":"Los Compadres","address":"1132 Lawndale St","zipcode":"48209"},{"establishmentid":"4234","name":"Mangonadas Del Barrio","address":"1210-14 Lawndale St","zipcode":"48209"},{"establishmentid":"51622764","name":"Tres Leches 'n Snacks","address":"1210 Lawndale Detroit MI 48209","zipcode":"48209"},{"establishmentid":"4050","name":"My Spot","address":"1801 Springwells","zipcode":"48209"},{"establishmentid":"469","name":"Puerto Rican Club","address":"8050 Fort St W","zipcode":"48209"},{"establishmentid":"3926","name":"Taqueria Camino Real","address":"1100 Central","zipcode":"48209"},{"establishmentid":"51622803","name":"La Posada","address":"1930 Springwells St","zipcode":"48209"},{"establishmentid":"5028","name":"Marisqueria El Emperio","address":"1633 Lawndale St","zipcode":"48209"},{"establishmentid":"4960","name":"El Parian Commissary","address":"1633 Lawndale St","zipcode":"48209"},{"establishmentid":"768","name":"Family Treat","address":"2010 Springwells Ave","zipcode":"48209"},{"establishmentid":"3800","name":"All Saints Soup Kitchen","address":"7824 Fort St W","zipcode":"48209"},{"establishmentid":"926","name":"Bennett Elementary","address":"2111 Mullane St","zipcode":"48209"},{"establishmentid":"3140","name":"West Fort Street Bar & Grill","address":"7642 Fort St W","zipcode":"48209"},{"establishmentid":"735","name":"Happy Bar","address":"1247 Green St N","zipcode":"48209"}],"inspectionsByEstablishmentidList":[{"inspectionid":"43847","inspectionDate":"2018-10-23T00:00:00","inspectionType":"Routine Inspection","inCompliance":"Yes","violationsByInspectionidList":[]},{"inspectionid":"41153","inspectionDate":"2017-05-09T00:00:00","inspectionType":"Routine Inspection","inCompliance":"Yes","violationsByInspectionidList":[{"violationCode":"MFL289.2129","violationDescription":"Sec. 2129. (1) All of the following food establishments shall employ a minimum of 1 managerial employee who is currently certified under a personnel certification program accredited by the American national standards institute, utilizing the conference for food protection standards:  (a) A food service establishment that is not any of the following:    (i) Operating under a temporary food service establishment license.  (ii) A vending machine location.     (b) An extended retail food establishment.  (c) Operated within a retail grocery.  (2) An individual certified under subsection (1) shall be recognized with full faith and credit by the state and all local units of government throughout the state.  (3) The department may promulgate rules to do all of the following:  (a) Develop requirements for retail food establishments to follow when employing certified food safety managers or personnel.  (b) Set a reasonable date for compliance with the requirements under subdivision (a) taking into consideration existing local personnel certification requirements.  (c) Establish certification fees necessary to implement, maintain, and track certified individuals directly or by contract. The department may annually adjust the schedule of fees to provide that the fee charged is sufficient to cover the cost of the certification tracking program.  (d) Implement and enforce the requirements described in subdivision (a).    (4) The certification program developed by the American national standards institute, as it exists on April 1, 2008 , is incorporated by reference. The department may adopt updates to the certification program accreditation standards in subsection (1) by rule.     (5) This section does not prohibit any local legislative body from implementing a food handler program, an employee health certification program, or a manager certification program, if it is not in conflict with this section.","violationType":"Core","itemDescription":"Person-in-charge","subItem":"","problemDescription":"Missing","subProblem":"","location":"MOBILE UNIT","subLocation":"","corrected":"Not required","daysToCorrect":"30.0","correctedDate":null,"correctionDescription":"Provide manufacture lable "}]}]}]}},"pageContext":{"eid":"3812"}}