{"componentChunkName":"component---src-templates-establishment-page-js","path":"/establishment/4582","result":{"data":{"site":{"pathPrefix":"/restaurant-inspections"},"postgres":{"establishment":[{"establishmentid":"4582","name":"Total Vending","address":"9100 John Kronk","zipcode":"48210","owner":"Joann Trevisan","licenseNumber":"045167","licenseType":"Other","establishmentType":null,"establishmentStatus":null,"riskCategory":null,"reviewFrequencyDays":"500","coords":"-83.14558,42.32034","geojson":{"id":"4582","type":"Feature","geometry":{"type":"Point","coordinates":[-83.145576687,42.320343391]},"properties":{"name":"Total Vending","owner":"Joann Trevisan","address":"9100 John Kronk","zipcode":"48210","license_type":"Other","risk_category":null,"license_number":"045167","establishmentid":"4582","establishment_type":null,"establishment_status":null,"review_frequency_days":"500","most_recent_license_date":null}},"nearbyList":[{"establishmentid":"5282","name":"All Star Services Inc.","address":"9100 John Kronk","zipcode":"48210"},{"establishmentid":"51623092","name":"Gordo's Lonchera","address":"3867 Lawndale","zipcode":"48210"},{"establishmentid":"2991","name":"Modern Vending","address":"8800 Dix","zipcode":"48209"},{"establishmentid":"1851","name":"Modern Vending","address":"8800 Dix","zipcode":"48209"},{"establishmentid":"3346","name":"Total Vending","address":"4815 Cabit St.","zipcode":"48210"},{"establishmentid":"4784","name":"Universal Academy","address":"4833 Ogden","zipcode":"48210"},{"establishmentid":"969","name":"Universal Academy","address":"4833 Ogden St.","zipcode":"48210"},{"establishmentid":"403","name":"Universal Academy","address":"4612 Lonyo","zipcode":"48210"},{"establishmentid":"3491","name":"Acapulco Cuerpo Y Alama, L.L.C.","address":"4929 Trenton","zipcode":"48210"},{"establishmentid":"51623956","name":"Sabor","address":"4540 Ternes St.","zipcode":"48210"}],"inspectionsByEstablishmentidList":[]}],"maxInspectionDate":[{"inspectionDate":"2023-04-13T00:00:00"}]}},"pageContext":{"eid":"4582"}},"staticQueryHashes":["3649515864","63159454"]}