{"componentChunkName":"component---src-templates-establishment-page-js","path":"/establishment/51622719","result":{"data":{"site":{"pathPrefix":"/restaurant-inspections"},"postgres":{"establishment":[{"establishmentid":"51622719","name":"Toarmina's Pizza","address":"12400 Morang","zipcode":"48224","owner":"Trinity Ventures Enterprise","licenseNumber":"224659","licenseType":"Fixed Establishment","establishmentType":"Food Service Establishment","establishmentStatus":"Permanently Closed","riskCategory":"High","reviewFrequencyDays":"150","coords":"-82.95539,42.42865","geojson":{"id":"51622719","type":"Feature","geometry":{"type":"Point","coordinates":[-82.955387687,42.428654771]},"properties":{"name":"Toarmina's Pizza","owner":"Trinity Ventures Enterprise","address":"12400 Morang","zipcode":"48224","license_type":"Fixed Establishment","risk_category":"High","license_number":"224659","establishmentid":"51622719","establishment_type":"Food Service Establishment","establishment_status":"Permanently Closed","review_frequency_days":"150","most_recent_license_date":null}},"nearbyList":[{"establishmentid":"4997","name":"Grace Cuisine Inc.","address":"12400 Morang Dr.","zipcode":"48224"},{"establishmentid":"2585","name":"Pro Wash Food","address":"12400 Morang","zipcode":"48224"},{"establishmentid":"4336","name":"King Fish & Chicken","address":"12400 Morang","zipcode":"48224"},{"establishmentid":"3910","name":"Roza's Coney Island and Pizzeria","address":"12400 Morang","zipcode":"48224"},{"establishmentid":"2109","name":"Pagoda Chop Suey","address":"12411 Morang ","zipcode":"48224"},{"establishmentid":"1885","name":"Fat-n-Juicy Smoke Bone","address":"12351 Morang","zipcode":"48224"},{"establishmentid":"3099","name":"Lin Panda","address":"18087 Kelly Rd.","zipcode":"48224"},{"establishmentid":"51623184","name":"Lin Panda","address":"18087 Kelly Rd.","zipcode":"48224"},{"establishmentid":"3073","name":"Ching's Panda Restaurant","address":"18077 Kelly","zipcode":"48224"},{"establishmentid":"3127","name":"Mo's Weenies","address":"12410 Duchess","zipcode":"48215"}],"inspectionsByEstablishmentidList":[{"inspectionid":"41995","inspectionDate":"2018-04-18T00:00:00","inspectionType":"Routine Inspection","inCompliance":"Yes","violationsByInspectionidList":[{"violationCode":"7-204.11","violationDescription":"Chemical SANITIZERS and other chemical antimicrobials applied to FOOD-CONTACT SURFACES shall meet the requirements specified in this code. (P)\n","violationType":"Priority","itemDescription":"Sanitizer(s)","subItem":null,"problemDescription":"Do not comply with law","subProblem":null,"location":"3 COMPARTMENT SINK AREA","subLocation":null,"corrected":"True","daysToCorrect":"10","correctedDate":"2018-04-18T00:00:00","correctionDescription":"Provide labels that comply with law."}]}]}],"maxInspectionDate":[{"inspectionDate":"2022-07-25T00:00:00"}]}},"pageContext":{"eid":"51622719"}},"staticQueryHashes":["3649515864","63159454"]}