{"data":{"site":{"pathPrefix":"/restaurant-inspections"},"postgres":{"establishment":[{"establishmentid":"51622994","name":"EL Paisa","address":"4368 6 St","zipcode":"48229","owner":"JDE-Jesus Gomez","licenseNumber":"237727","licenseType":"Mobile Food Establishment","establishmentType":"LHD - Mobile Food Establishmen","establishmentStatus":"Seasonal","riskCategory":"Medium","reviewFrequencyDays":"395.0","coords":"-83.15321,42.24533","geojson":{"id":"51622994","type":"Feature","geometry":{"type":"Point","coordinates":[-83.153205294,42.245332283]},"properties":{"name":"EL Paisa","owner":"JDE-Jesus Gomez","address":"4368 6 St","zipcode":"48229","license_type":"Mobile Food Establishment","risk_category":"Medium","license_number":"237727","establishmentid":"51622994","establishment_type":"LHD - Mobile Food Establishmen","establishment_status":"Seasonal","review_frequency_days":"395.0","most_recent_license_date":"5/2/2019"}},"nearbyList":[{"establishmentid":"5222","name":"El Paisano ","address":"4370 6th Street","zipcode":"48229"},{"establishmentid":"4979","name":"Pathway Academy","address":"11340-43 E Jefferson Ave","zipcode":"48214"},{"establishmentid":"617","name":"New Paradigm College Prep School","address":"2450  S Beatrice St ","zipcode":"48217"},{"establishmentid":"1879","name":"First Congregational Church","address":"33 E Forest Ave","zipcode":"48201"},{"establishmentid":"51622624","name":"Operation ABLE of Michigan Site #2","address":"33 E Forest Ave","zipcode":"48201"},{"establishmentid":"5370","name":"The Griot Music Lounge","address":"66 E Forest Ave","zipcode":"48201"},{"establishmentid":"4165","name":"SEVA DETROIT","address":"66 E Forest Ave., Suite D","zipcode":"48201"},{"establishmentid":"51622561","name":"The Paris Cafe","address":"2709 South Fort Street","zipcode":"48217"},{"establishmentid":"4660","name":"El Parian #2","address":"1064 London St","zipcode":"48149"},{"establishmentid":"4246","name":"El Parian #1","address":"1064 London St","zipcode":"48149"}],"inspectionsByEstablishmentidList":[{"inspectionid":"48520","inspectionDate":"2019-07-26T00:00:00","inspectionType":"Routine Inspection","inCompliance":"Yes","violationsByInspectionidList":[{"violationCode":"5-202.12","violationDescription":"(A) A handwashing sink shall be equipped to provide water at a temperature of at least 38°C (100°F) through a mixing valve or combination faucet. (Pf)  \r\n(B) A steam mixing valve may not be used at a handwashing sink.  \r\n(C) A self-closing, slow-closing, or metering faucet shall provide a flow of water for at least 15 seconds without the need to reactivate the faucet.   \r\n(D) An automatic handwashing facility shall be installed in accordance with manufacturer's instructions.\r\n","violationType":"Priority","itemDescription":"Handwashing facility","subItem":"","problemDescription":"Lack of hot water","subProblem":"","location":"MOBILE UNIT","subLocation":"","corrected":"Yes","daysToCorrect":"10.0","correctedDate":"2019-07-26T00:00:00","correctionDescription":null}]}]}],"maxInspectionDate":[{"inspectionDate":"2019-10-31T00:00:00"}]}},"pageContext":{"eid":"51622994"}}