{"data":{"site":{"pathPrefix":"/restaurant-inspections"},"postgres":{"establishment":[{"establishmentid":"51623056","name":"Poke Poke","address":"4501 Woodward Ave","zipcode":"48201","owner":"Poke Poke Midtown LLC","licenseNumber":"241590","licenseType":"Fixed Establishment","establishmentType":"Food Service Establishment","establishmentStatus":"Open","riskCategory":"Medium","reviewFrequencyDays":"365","coords":"-83.06264,42.35358","geojson":{"id":"51623056","type":"Feature","geometry":{"type":"Point","coordinates":[-83.062640208,42.353581128]},"properties":{"name":"Poke Poke","owner":"Poke Poke Midtown LLC","address":"4501 Woodward Ave","zipcode":"48201","license_type":"Fixed Establishment","risk_category":"Medium","license_number":"241590","establishmentid":"51623056","establishment_type":"Food Service Establishment","establishment_status":"Open","review_frequency_days":"365","most_recent_license_date":"4/23/2020"}},"nearbyList":[{"establishmentid":"5305","name":"Firehouse Subs","address":"4501 Woodward, Ste 103","zipcode":"48201"},{"establishmentid":"3977","name":"Starter's Bar and Grill","address":"4501 Woodward Ave","zipcode":"48202"},{"establishmentid":"4943","name":"Checkers Restaurant","address":"4662 Woodward Ave","zipcode":"48201"},{"establishmentid":"1415","name":"The Whitney Restaurant","address":"4421 Woodward Ave","zipcode":"48201"},{"establishmentid":"3600","name":"MOCAD - Museum of Contemporary Arts Det","address":"4454 Woodward Ave","zipcode":"48201"},{"establishmentid":"5061","name":"Cafe' 78","address":"4454 Woodward Ave","zipcode":"48201"},{"establishmentid":"4616","name":"Socra Tea LLC","address":"71 Garfield St, Suite 50","zipcode":"48201"},{"establishmentid":"2075","name":"McDonald's","address":"4235 Woodward Ave","zipcode":"48201"},{"establishmentid":"5086","name":"Operation ABLE of Michigan- Det Training","address":"4750 Woodward Ave","zipcode":"48201"},{"establishmentid":"2444","name":"Association of Chinese Americans","address":"4750 Woodward Ave","zipcode":"48201"}],"inspectionsByEstablishmentidList":[{"inspectionid":"48734","inspectionDate":"2019-08-14T00:00:00","inspectionType":"Routine Inspection","inCompliance":"No","violationsByInspectionidList":[{"violationCode":"3-602.11","violationDescription":"(A)  FOOD PACKAGED in a FOOD ESTABLISHMENT, shall be labeled as specified in LAW. \r\n(B) The name of the FOOD source for each MAJOR FOOD ALLERGEN contained in the FOOD unless the FOOD source is already part of the common or usual name of the respective ingredient. (Pf)\r\n(C)  Bulk FOOD that is available for CONSUMER self-dispensing shall be prominently labeled with the following information in plain view of the CONSUMER:\r\n(1)  the manufacturer's or processor's label that was provided with the  FOOD; or \r\n(2)  A card, sign, or other method of notification that includes the information required by law. \r\n","violationType":"Foundation","itemDescription":"Packaged food label(s)","subItem":"","problemDescription":"Missing","subProblem":"","location":"FACILITY","subLocation":"","corrected":"No","daysToCorrect":"10","correctedDate":null,"correctionDescription":null}]}]}],"maxInspectionDate":[{"inspectionDate":"2020-10-30T00:00:00"}]}},"pageContext":{"eid":"51623056"}}