{"componentChunkName":"component---src-templates-establishment-page-js","path":"/establishment/51623882","result":{"data":{"site":{"pathPrefix":"/restaurant-inspections"},"postgres":{"establishment":[{"establishmentid":"51623882","name":"Muncheez Pizza LLC ","address":"19522 Joy Rd ","zipcode":"48228","owner":"Hamze Merhi","licenseNumber":"10262022","licenseType":"Fixed Establishment","establishmentType":"Food Service Establishment","establishmentStatus":"Open","riskCategory":null,"reviewFrequencyDays":"150","coords":"-83.23283,42.35784","geojson":{"id":"51623882","type":"Feature","geometry":{"type":"Point","coordinates":[-83.232828217,42.3578396]},"properties":{"name":"Muncheez Pizza LLC ","owner":"Hamze Merhi","address":"19522 Joy Rd ","zipcode":"48228","license_type":"Fixed Establishment","risk_category":null,"license_number":"10262022","establishmentid":"51623882","establishment_type":"Food Service Establishment","establishment_status":"Open","review_frequency_days":"150","most_recent_license_date":null}},"nearbyList":[{"establishmentid":"498","name":"Club Topaze","address":"19618 Joy Rd.","zipcode":"48228"},{"establishmentid":"1466","name":"China Garden","address":"19641 Joy Rd.","zipcode":"48228"},{"establishmentid":"209","name":"Bebe's Original Open Pit","address":"19331 Joy Rd.","zipcode":"48228"},{"establishmentid":"719","name":"L. George Coney Island #7","address":"20003 Joy Rd.","zipcode":"48228"},{"establishmentid":"51623193","name":"Soul To Go Kitchen","address":"19241 Joy Rd.","zipcode":"48228"},{"establishmentid":"1130","name":"Mike's Coney Island","address":"19241 Joy Rd.","zipcode":"48228"},{"establishmentid":"51622577","name":"Lemonade/Food Stand","address":"8906 Grandville","zipcode":"48228"},{"establishmentid":"51622775","name":"Joy & Green Mart LLC","address":"20000 Joy Rd.","zipcode":"48228"},{"establishmentid":"51623483","name":"Joy Chicken & Seafood","address":"20000 Joy","zipcode":"48228"},{"establishmentid":"214","name":"A & G Lunch","address":"19214 Joy Rd.","zipcode":"48228"}],"inspectionsByEstablishmentidList":[]}],"maxInspectionDate":[{"inspectionDate":"2023-04-13T00:00:00"}]}},"pageContext":{"eid":"51623882"}},"staticQueryHashes":["3649515864","63159454"]}