{"componentChunkName":"component---src-templates-establishment-page-js","path":"/establishment/51623731","result":{"data":{"site":{"pathPrefix":"/restaurant-inspections"},"postgres":{"establishment":[{"establishmentid":"51623731","name":"Janna Kay LLC","address":"22735 Fenkell","zipcode":"48223","owner":"Janica Smith","licenseNumber":"350024","licenseType":"Fixed Establishment","establishmentType":"Food Service Establishment","establishmentStatus":"Open","riskCategory":null,"reviewFrequencyDays":"150","coords":"-83.26631,42.39995","geojson":{"id":"51623731","type":"Feature","geometry":{"type":"Point","coordinates":[-83.266313862,42.399953033]},"properties":{"name":"Janna Kay LLC","owner":"Janica Smith","address":"22735 Fenkell","zipcode":"48223","license_type":"Fixed Establishment","risk_category":null,"license_number":"350024","establishmentid":"51623731","establishment_type":"Food Service Establishment","establishment_status":"Open","review_frequency_days":"150","most_recent_license_date":null}},"nearbyList":[{"establishmentid":"51622975","name":"Lit Vegan Kitchen","address":"22735 Fenkell","zipcode":"48223"},{"establishmentid":"51623105","name":"Kaleidoscope Catering","address":"22735 Fenkell St.","zipcode":"48223"},{"establishmentid":"51622899","name":"Guerrilla Food","address":"22735 Fenkell St.","zipcode":"48223"},{"establishmentid":"51622923","name":"Metropolis Carni Vegan LLC","address":"22735 Fenkell","zipcode":"48223"},{"establishmentid":"51622718","name":"Green House Soups & Chili","address":"22735 Fenkell","zipcode":"48223"},{"establishmentid":"51623042","name":"Alani's Soul Kitchen","address":"22735 Fenkell","zipcode":"48223"},{"establishmentid":"51622831","name":"Soula Culinary Ambition LLC","address":"22735 Fenkell","zipcode":"48214"},{"establishmentid":"51622695","name":"Estella's Vegan Cuisine & Dessert's","address":"22735 Fenkell","zipcode":"48223"},{"establishmentid":"5121","name":"Brightmoor Artisans Collective","address":"22735 Fenkell","zipcode":"48223"},{"establishmentid":"51623212","name":"Relish Catering","address":"22735 Fenkell Ave","zipcode":"48223"}],"inspectionsByEstablishmentidList":[{"inspectionid":"62238","inspectionDate":"2023-04-23T00:00:00","inspectionType":"Routine Inspection","inCompliance":"Yes","violationsByInspectionidList":[]},{"inspectionid":"59426","inspectionDate":"2022-05-11T00:00:00","inspectionType":"Routine Inspection","inCompliance":"Yes","violationsByInspectionidList":[]}]}],"maxInspectionDate":[{"inspectionDate":"2023-04-25T00:00:00"}]}},"pageContext":{"eid":"51623731"}},"staticQueryHashes":["3649515864","63159454"]}