{"data":{"postgres":{"establishment":[{"establishmentid":"4208","name":"Joe Louis Arena - Beer Portables","address":"600 Civic Center Dr","zipcode":"48226","owner":"Olympia Entertainment","licenseNumber":"069256","licenseType":"Fixed Establishment","establishmentType":"Food Service Establishment","establishmentStatus":"Permanently Closed","riskCategory":null,"reviewFrequencyDays":"365.0","coords":"-83.05141,42.32519","geojson":{"id":"4208","type":"Feature","geometry":{"type":"Point","coordinates":[-83.051406129,42.325190385]},"properties":{"name":"Joe Louis Arena - Beer Portables","owner":"Olympia Entertainment","address":"600 Civic Center Dr","zipcode":"48226","license_type":"Fixed Establishment","risk_category":null,"license_number":"069256","establishmentid":"4208","establishment_type":"Food Service Establishment","establishment_status":"Permanently Closed","review_frequency_days":"365.0","most_recent_license_date":"5/10/2017"}},"nearbyList":[{"establishmentid":"741","name":"Detroit Racquet Club","address":"626 Woodbridge St","zipcode":"48226"},{"establishmentid":"4397","name":"Cobo Hall- New Kitchen/Concessions","address":"1 Washington Blvd","zipcode":"48226"},{"establishmentid":"4048","name":"Cobo Hall-Wayne Hall Kitchen","address":"1 Washington Blvd","zipcode":"48226"},{"establishmentid":"4049","name":"Cobo Hall-Go Gourmet/Coffee Shop","address":"1 Washington Blvd","zipcode":"48226"},{"establishmentid":"4211","name":"Cobo Hall- Portables","address":"1 Washington Blvd","zipcode":"48226"},{"establishmentid":"5117","name":"Cobo Hall- Cork and Grind","address":"1 Washington Blvd","zipcode":"48226"},{"establishmentid":"4291","name":"Tommy's Detroit Bar and Grill","address":"624 Third St","zipcode":"48226"},{"establishmentid":"1387","name":"Cobo Joe's","address":"422 W Congress","zipcode":"48226"},{"establishmentid":"1407","name":"Fort Street Presbyterian Church","address":"631 W Fort St","zipcode":"48226"},{"establishmentid":"5388","name":"The Drink Hall","address":"408 W Congress","zipcode":"48226"},{"establishmentid":"3451","name":"Signature Grill","address":"250 Riverfront Drive","zipcode":"48226"},{"establishmentid":"51622912","name":"Anchor Bar ","address":"450 W Fort St","zipcode":"48226"},{"establishmentid":"1597","name":"Anchor Bar","address":"450 W Fort St","zipcode":"48226"},{"establishmentid":"5419","name":"Press Room Cafe","address":"615 W Lafayette","zipcode":"48226"},{"establishmentid":"3956","name":"Motor City Kitchen","address":"525 W Lafayette Blvd","zipcode":"48226"},{"establishmentid":"3992","name":"Motor City Kitchen Market","address":"525 W Lafayette St","zipcode":"48226"},{"establishmentid":"5396","name":"Foundation Hotel- Apparatus Room","address":"250 W Larned","zipcode":"48226"},{"establishmentid":"51622489","name":"Foundation Hotel- Employee Dining","address":"250 W Larned","zipcode":"48226"},{"establishmentid":"51622490","name":"Foundation Hotel- Chef's Table","address":"250 W Larned","zipcode":"48226"},{"establishmentid":"51622491","name":"Foundation Hotel- Banquet","address":"250 W Larned","zipcode":"48226"}],"inspectionsByEstablishmentidList":[{"inspectionid":"38013","inspectionDate":"2017-01-31T00:00:00","inspectionType":"Routine Inspection","inCompliance":"Yes","violationsByInspectionidList":[]},{"inspectionid":"37999","inspectionDate":"2017-01-31T00:00:00","inspectionType":"Routine Inspection","inCompliance":"Yes","violationsByInspectionidList":[]}]}]}},"pageContext":{"eid":"4208"}}