{"data":{"site":{"pathPrefix":"/restaurant-inspections"},"postgres":{"establishment":[{"establishmentid":"2691","name":"Checkers","address":"17630 Grand River Ave","zipcode":"48227","owner":"Metro H&N Inc.","licenseNumber":"077778","licenseType":"Fixed Establishment","establishmentType":"Food Service Establishment","establishmentStatus":"Open","riskCategory":"Medium","reviewFrequencyDays":"365.0","coords":"-83.21544,42.39961","geojson":{"id":"2691","type":"Feature","geometry":{"type":"Point","coordinates":[-83.215441036,42.399612968]},"properties":{"name":"Checkers","owner":"Metro H&N Inc.","address":"17630 Grand River Ave","zipcode":"48227","license_type":"Fixed Establishment","risk_category":"Medium","license_number":"077778","establishmentid":"2691","establishment_type":"Food Service Establishment","establishment_status":"Open","review_frequency_days":"365.0","most_recent_license_date":"4/24/2015"}},"nearbyList":[{"establishmentid":"2296","name":"Wendy's Old Fashioned Hamburgers #2259","address":"17420 Grand River Ave","zipcode":"48227"},{"establishmentid":"2100","name":"Popeye's Chicken & Biscuits #6095","address":"17700 Grand River Ave","zipcode":"48227"},{"establishmentid":"2413","name":"White Castle #58","address":"17739 Grand River Ave","zipcode":"48227"},{"establishmentid":"2649","name":"Subway #30489","address":"17776 Grand River Ave","zipcode":"48227"},{"establishmentid":"5405","name":"It'z a Wrap","address":"17400 W Grand River","zipcode":"48227"},{"establishmentid":"2386","name":"Kentucky Fried Chicken F428107","address":"17750 Fenkell Ave","zipcode":"48227"},{"establishmentid":"1222","name":"Edison Elementary School","address":"17045 Grand River Ave","zipcode":"48227"},{"establishmentid":"787","name":"Omega Grill","address":"18130 Fenkell Ave","zipcode":"48223"},{"establishmentid":"5417","name":"Brooklyn Fish and Chicken","address":"18354 Fenkell Ave","zipcode":"48223"},{"establishmentid":"2345","name":"Subway #11686/Mama Delucas","address":"18288 Grand River Ave","zipcode":"48223"},{"establishmentid":"1501","name":"Tubby's Sub Shop #75","address":"16543 Grand River Ave","zipcode":"48227"},{"establishmentid":"2045","name":"McDonald's #567","address":"18403 Grand River Ave","zipcode":"48223"},{"establishmentid":"5165","name":"Papa's Pizza","address":"16501 Grand River","zipcode":"48227"},{"establishmentid":"5237","name":"Metro Fish & Seafood LLC","address":"18440 Grand River","zipcode":"48223"},{"establishmentid":"51622571","name":"River Bistro Detroit","address":"18456 Grand River Ave","zipcode":"48223"},{"establishmentid":"2669","name":"Fish Express","address":"18509 Grand River Ave","zipcode":"48223"},{"establishmentid":"5420","name":"La Kabob Grill ","address":"18616 Fenkell","zipcode":"48223"},{"establishmentid":"1562","name":"Panda Chinese Restaurant","address":"18614 Fenkell Ave","zipcode":"48223"},{"establishmentid":"1582","name":"Communication and Media Arts School","address":"14771 Mansfield","zipcode":"48227"},{"establishmentid":"601","name":"North Rosedale Community House","address":"18445 Scarsdale St","zipcode":"48223"}],"inspectionsByEstablishmentidList":[{"inspectionid":"42336","inspectionDate":"2018-05-17T00:00:00","inspectionType":"Routine Inspection","inCompliance":"Yes","violationsByInspectionidList":[{"violationCode":"6-301.11","violationDescription":"Each HANDWASHING SINK or group of 2 adjacent HANDWASHING SINKS shall be provided with a supply of hand cleaning liquid, powder, or bar soap. (Pf)\r\n","violationType":"Foundation","itemDescription":"Soap","subItem":"at handsink","problemDescription":"Not provided","subProblem":"At hand sink","location":"HANDSINK(S)","subLocation":"","corrected":"Yes","daysToCorrect":"10.0","correctedDate":"2018-05-17T00:00:00","correctionDescription":"Provide."}]},{"inspectionid":"39233","inspectionDate":"2017-05-11T00:00:00","inspectionType":"Routine Inspection","inCompliance":"Yes","violationsByInspectionidList":[]}]}]}},"pageContext":{"eid":"2691"}}