{"data":{"site":{"pathPrefix":"/restaurant-inspections"},"postgres":{"establishment":[{"establishmentid":"51623216","name":"The Breakfast Bar","address":"14444 W McNichols Rd","zipcode":"48235","owner":"D'Angelo Kenney","licenseNumber":"PR20020A","licenseType":"Fixed Establishment","establishmentType":"Food Service Establishment","establishmentStatus":"Plan Review","riskCategory":null,"reviewFrequencyDays":"90.0","coords":"-83.18826,42.41675","geojson":{"id":"51623216","type":"Feature","geometry":{"type":"Point","coordinates":[-83.188258691,42.416753003]},"properties":{"name":"The Breakfast Bar","owner":"D'Angelo Kenney","address":"14444 W McNichols Rd","zipcode":"48235","license_type":"Fixed Establishment","risk_category":null,"license_number":"PR20020A","establishmentid":"51623216","establishment_type":"Food Service Establishment","establishment_status":"Plan Review","review_frequency_days":"90.0","most_recent_license_date":null}},"nearbyList":[{"establishmentid":"3520","name":"Nu Wave Fish & Chicken","address":"14541 W McNichols Rd","zipcode":"48235"},{"establishmentid":"4454","name":"Southern Smokehouse","address":"14340 W McNichols Rd","zipcode":"48235"},{"establishmentid":"1543","name":"Foreign Language Immersion","address":"6501 W Outer Dr","zipcode":"48235"},{"establishmentid":"5033","name":"Great Lakes Coffee Beanery","address":"6071 W Outer Dr","zipcode":"48235"},{"establishmentid":"5292","name":"Subway","address":"6071 Outer Drive","zipcode":"48235"},{"establishmentid":"5000","name":"Sinai Grace Hospital","address":"6071 W Outer Dr","zipcode":"48235"},{"establishmentid":"51622963","name":"Subway","address":"6071 W Outer Drive","zipcode":"48235"},{"establishmentid":"1703","name":"Westminster Church of Detroit","address":"17567 Hubbell St","zipcode":"48235"},{"establishmentid":"345","name":"Teresa's Place","address":"14000 W McNichols Rd","zipcode":"48235"},{"establishmentid":"51623067","name":"Teresas Place Food Truck","address":"14000 W McNichols Rd","zipcode":"48235"}],"inspectionsByEstablishmentidList":[]}],"maxInspectionDate":[{"inspectionDate":"2020-10-30T00:00:00"}]}},"pageContext":{"eid":"51623216"}}