{"data":{"postgres":{"establishment":[{"establishmentid":"2444","name":"Association of Chinese Americans","address":"4750 Woodward Ave","zipcode":"48201","owner":"ASSOC OF CHINESE AM","licenseNumber":"070060","licenseType":"Fixed Establishment","establishmentType":"Food Service Establishment","establishmentStatus":"Open","riskCategory":"Medium","reviewFrequencyDays":"365.0","coords":"-83.06307,42.35568","geojson":{"id":"2444","type":"Feature","geometry":{"type":"Point","coordinates":[-83.063072156,42.355679609]},"properties":{"name":"Association of Chinese Americans","owner":"ASSOC OF CHINESE AM","address":"4750 Woodward Ave","zipcode":"48201","license_type":"Fixed Establishment","risk_category":"Medium","license_number":"070060","establishmentid":"2444","establishment_type":"Food Service Establishment","establishment_status":"Open","review_frequency_days":"365.0","most_recent_license_date":"4/30/2018"}},"nearbyList":[{"establishmentid":"5158","name":"Red Pepper Foods","address":"4800 Woodward Ave","zipcode":"48201"},{"establishmentid":"1718","name":"Cathedral Church of St. Paul","address":"4800 Woodward Ave","zipcode":"48201"},{"establishmentid":"4943","name":"Checkers Restaurant","address":"4662 Woodward Ave","zipcode":"48201"},{"establishmentid":"4388","name":"The Potato Place","address":"107 W Warren Ave","zipcode":"48201-34"},{"establishmentid":"2411","name":"Epicurus Place","address":"111 W Warren Ave","zipcode":"48201"},{"establishmentid":"1161","name":"Olympic Grill","address":"119 W Warren Ave","zipcode":"48201"},{"establishmentid":"3977","name":"Starter's Bar and Grill","address":"4501 Woodward Ave","zipcode":"48202"},{"establishmentid":"5305","name":"Firehouse Subs","address":"4501 Woodward, Ste 103","zipcode":"48201"},{"establishmentid":"4616","name":"Socra Tea LLC","address":"71 Garfield St, Suite 50","zipcode":"48201"},{"establishmentid":"450","name":"Blimpies","address":"108 W Hancock","zipcode":"48201"},{"establishmentid":"5061","name":"Cafe' 78","address":"4454 Woodward Ave","zipcode":"48201"},{"establishmentid":"3600","name":"MOCAD - Museum of Contemporary Arts Det","address":"4454 Woodward Ave","zipcode":"48201"},{"establishmentid":"3218","name":"Midtown Shangri-La","address":"4710 Cass Ave","zipcode":"48201"},{"establishmentid":"4352","name":"Tim Hortons","address":"4830 Cass Ave, Suite A","zipcode":"48201"},{"establishmentid":"4406","name":"Byblos Cafe & Grill II","address":"4830 Cass Ave","zipcode":"48201"},{"establishmentid":"51622777","name":"Tim Hortons","address":"4830 Cass Ave, Suite A","zipcode":"48201"},{"establishmentid":"1596","name":"Cass Cafe","address":"4620 Cass Ave","zipcode":"48201"},{"establishmentid":"2126","name":"Michigan Science Center/Edibles Rex","address":"5020 John R Street","zipcode":"48202"},{"establishmentid":"1415","name":"The Whitney Restaurant","address":"4421 Woodward Ave","zipcode":"48201"},{"establishmentid":"4248","name":"Detroit Institute of Arts-Kresge Court","address":"5200 Woodward Ave","zipcode":"48202"}],"inspectionsByEstablishmentidList":[{"inspectionid":"44623","inspectionDate":"2018-12-19T00:00:00","inspectionType":"Routine Inspection","inCompliance":"Yes","violationsByInspectionidList":[{"violationCode":"4-602.12","violationDescription":"(A) The FOOD-CONTACT SURFACES of cooking and baking EQUIPMENT shall be cleaned at least every 24 hours. This section does not apply to hot oil cooking and filtering EQUIPMENT if it is cleaned as specified in Subparagraph 4-602.11(D)(6).   \r\n(B) The cavities and door seals of microwave ovens shall be cleaned at least every 24 hours by using the manufacturer's recommended cleaning procedure.","violationType":"Core","itemDescription":"Microwave oven door seals and cavities","subItem":"","problemDescription":"Not cleaned","subProblem":"At least every 24 hours","location":"KITCHEN","subLocation":"Microwave Oven(s)","corrected":"Not required","daysToCorrect":"30.0","correctedDate":null,"correctionDescription":"Clean as specified above."}]},{"inspectionid":"44637","inspectionDate":"2018-12-03T00:00:00","inspectionType":"Routine Inspection","inCompliance":"Yes","violationsByInspectionidList":[]},{"inspectionid":"40852","inspectionDate":"2017-11-15T00:00:00","inspectionType":"Routine Inspection","inCompliance":"Yes","violationsByInspectionidList":[]},{"inspectionid":"37566","inspectionDate":"2016-12-13T00:00:00","inspectionType":"Routine Inspection","inCompliance":"Yes","violationsByInspectionidList":[]}]}]}},"pageContext":{"eid":"2444"}}