{"data":{"postgres":{"establishment":[{"establishmentid":"4286","name":"Jalen Rose Leadership Acadamy","address":"15000 Trojan St","zipcode":"48235","owner":"Detroit Board of Education","licenseNumber":"0708830","licenseType":"Fixed Establishment","establishmentType":"Non-Public School","establishmentStatus":"Open","riskCategory":null,"reviewFrequencyDays":"210.0","coords":"-83.19472,42.44188","geojson":{"id":"4286","type":"Feature","geometry":{"type":"Point","coordinates":[-83.194719138,42.4418768200001]},"properties":{"name":"Jalen Rose Leadership Acadamy","owner":"Detroit Board of Education","address":"15000 Trojan St","zipcode":"48235","license_type":"Fixed Establishment","risk_category":null,"license_number":"0708830","establishmentid":"4286","establishment_type":"Non-Public School","establishment_status":"Open","review_frequency_days":"210.0","most_recent_license_date":"4/30/2018"}},"nearbyList":[{"establishmentid":"3199","name":"Detroit Fish & Shrimp III","address":"20030 James Couzens","zipcode":"48235"},{"establishmentid":"2776","name":"Nu Wave Fish & Chicken","address":"15030 E Eight Mile Rd","zipcode":"48205"},{"establishmentid":"5116","name":"Subway","address":"15000 E Eight Mile Rd","zipcode":"48205"},{"establishmentid":"4915","name":"The Jamaican Pot","address":"14615 W Eight Mile Rd","zipcode":"48235"},{"establishmentid":"1991","name":"Mama's, Inc.","address":"14620 E Eight Mile Rd","zipcode":"48205"},{"establishmentid":"5286","name":"Rinor LLC / Mama's","address":"14620 E Eight Mile Rd","zipcode":"48205"},{"establishmentid":"2130","name":"White Castle #38","address":"20409 James Couzens","zipcode":"48235"},{"establishmentid":"5157","name":"44 Burrito","address":"14015 W Eight Mile Rd","zipcode":"48235"},{"establishmentid":"5151","name":"Pop'n Smoke BBQ","address":"13849 W 8 Mile Rd","zipcode":"48235"},{"establishmentid":"4839","name":"Asian Corned Beef","address":"14820 Seven Mile Rd W","zipcode":"48235"},{"establishmentid":"51622825","name":"Pembroke Academy","address":"19940 Mansfield St","zipcode":"48235"},{"establishmentid":"2037","name":"Michigan Technical Academy","address":"19940 Mansfield Ave","zipcode":"48235"},{"establishmentid":"1118","name":"Bow Elementary School","address":"19801 Prevost Ave","zipcode":"48235"},{"establishmentid":"1179","name":"Nicky D's Coney Island","address":"15447 W Seven Mile Rd","zipcode":"48235"},{"establishmentid":"4998","name":"Encore Lounge and Grill","address":"15407 W Seven Mile Rd","zipcode":"48235"},{"establishmentid":"5221","name":"Captain Jay's #119","address":"14420 Seven Mile Rd W","zipcode":"48235"},{"establishmentid":"1475","name":"Burger King ","address":"15500 W Seven Mile Rd","zipcode":"48235"},{"establishmentid":"849","name":"Vernor Elementary","address":"13726 Pembroke","zipcode":"48235"},{"establishmentid":"2664","name":"Wendy's Old Fashioned Hamburgers #8633","address":"14401 W Seven Mile Rd","zipcode":"48235"},{"establishmentid":"5373","name":"Schaefer Fish Market LLC","address":"20449 Schaefer Hwy","zipcode":"48235"}],"inspectionsByEstablishmentidList":[{"inspectionid":"43038","inspectionDate":"2018-07-31T00:00:00","inspectionType":"Routine Inspection","inCompliance":"Yes","violationsByInspectionidList":[]},{"inspectionid":"40866","inspectionDate":"2017-11-16T00:00:00","inspectionType":"Routine Inspection","inCompliance":"Yes","violationsByInspectionidList":[]},{"inspectionid":"38851","inspectionDate":"2017-05-24T00:00:00","inspectionType":"Routine Inspection","inCompliance":"Yes","violationsByInspectionidList":[]},{"inspectionid":"36903","inspectionDate":"2016-10-26T00:00:00","inspectionType":"Routine Inspection","inCompliance":"Yes","violationsByInspectionidList":[]}]}]}},"pageContext":{"eid":"4286"}}