{"data":{"site":{"pathPrefix":"/restaurant-inspections"},"postgres":{"establishment":[{"establishmentid":"4050","name":"My Spot","address":"1801 Springwells","zipcode":"48209","owner":"Tanya Moss","licenseNumber":"075709","licenseType":"Fixed Establishment","establishmentType":"Food Service Establishment","establishmentStatus":"Permanently Closed","riskCategory":null,"reviewFrequencyDays":"365","coords":"-83.12506,42.30812","geojson":{"id":"4050","type":"Feature","geometry":{"type":"Point","coordinates":[-83.125064963,42.308116271]},"properties":{"name":"My Spot","owner":"Tanya Moss","address":"1801 Springwells","zipcode":"48209","license_type":"Fixed Establishment","risk_category":null,"license_number":"075709","establishmentid":"4050","establishment_type":"Food Service Establishment","establishment_status":"Permanently Closed","review_frequency_days":"365","most_recent_license_date":"4/16/2015"}},"nearbyList":[{"establishmentid":"51622803","name":"La Posada","address":"1930 Springwells St","zipcode":"48209"},{"establishmentid":"51622563","name":"La Pasada","address":"1601 Springwells St","zipcode":"48209"},{"establishmentid":"768","name":"Family Treat","address":"2010 Springwells Ave","zipcode":"48209"},{"establishmentid":"51622723","name":"Vitamin Juice ","address":"2030 Springwells St","zipcode":"48209"},{"establishmentid":"413","name":"Charlie's Bar","address":"1503 Springwells Ave","zipcode":"48209"},{"establishmentid":"1353","name":"Vince's Italian Rest & Pizzeria","address":"1341 Springwells Ave","zipcode":"48209"},{"establishmentid":"1730","name":"Great Panda Garden Chinese Restaurant","address":"7930 W Vernor","zipcode":"48209"},{"establishmentid":"51622935","name":"Taqueria Y Cenaduria Triangulo Dorado","address":"8065 W Vernor","zipcode":"48209"},{"establishmentid":"5082","name":"El Caribeno","address":"8065 W Vernor","zipcode":"48209"},{"establishmentid":"3812","name":"Tacos El Caballo","address":"8084 Rathbone St","zipcode":"48209"}],"inspectionsByEstablishmentidList":[{"inspectionid":"39281","inspectionDate":"2017-07-20T00:00:00","inspectionType":"Routine Inspection","inCompliance":"No","violationsByInspectionidList":[]}]}],"maxInspectionDate":[{"inspectionDate":"2020-05-29T00:00:00"}]}},"pageContext":{"eid":"4050"}}