{"data":{"postgres":{"establishment":[{"establishmentid":"1236","name":"Ann Arbor Trail Magnet School","address":"7635 Chatham St","zipcode":"48228","owner":"Detroit Board of Education","licenseNumber":"078729","licenseType":"Fixed Establishment","establishmentType":"Public School","establishmentStatus":"Open","riskCategory":null,"reviewFrequencyDays":"210.0","coords":"-83.26101,42.34703","geojson":{"id":"1236","type":"Feature","geometry":{"type":"Point","coordinates":[-83.261008093,42.3470305210001]},"properties":{"name":"Ann Arbor Trail Magnet School","owner":"Detroit Board of Education","address":"7635 Chatham St","zipcode":"48228","license_type":"Fixed Establishment","risk_category":null,"license_number":"078729","establishmentid":"1236","establishment_type":"Public School","establishment_status":"Open","review_frequency_days":"210.0","most_recent_license_date":"5/15/2017"}},"nearbyList":[{"establishmentid":"473","name":"J.P.'s West","address":"22234 W Warren Ave","zipcode":"48239"},{"establishmentid":"542","name":"3 ELEVEN ULTRA LOUNGE","address":"22100 W Warren Ave","zipcode":"48239"},{"establishmentid":"261","name":"Park-Joy Bar","address":"23220 Joy Rd","zipcode":"48239"},{"establishmentid":"890","name":"Dixon Educational Learning Center","address":"8401 Trinity St","zipcode":"48228"},{"establishmentid":"3921","name":"Westside Christian Academy","address":"9540 Bramell St","zipcode":"48239"},{"establishmentid":"262","name":"B. M. G. Bar & Grill","address":"20809 Joy Rd","zipcode":"48228"},{"establishmentid":"3552","name":"El Bosque Salon","address":"6705 Lafayette Ave W","zipcode":"48209"},{"establishmentid":"2605","name":"Prince Pizza II","address":"22507 Plymouth Rd","zipcode":"48239"},{"establishmentid":"1524","name":"North American Indian Association","address":"22720 Plymouth Rd","zipcode":"48239"},{"establishmentid":"719","name":"L. George Coney Island #7","address":"20003 Joy Rd","zipcode":"48228"},{"establishmentid":"51622775","name":"Joy & Green Mart LLC","address":"20000 Joy Rd","zipcode":"48228"},{"establishmentid":"5233","name":"Evergreen Fish Express LLC","address":"6540 Evergreen Rd","zipcode":"48228"},{"establishmentid":"5176","name":"Mary's Grill #2","address":"20804 Plymouth","zipcode":"48228"},{"establishmentid":"991","name":"Rouge Park Golf Course","address":"11701 Burt Rd","zipcode":"48228"},{"establishmentid":"1933","name":"Warrendale Academy","address":"19400 Sawyer","zipcode":"48228"},{"establishmentid":"256","name":"Hurry Inn ","address":"19430-32 W Warren Ave","zipcode":"48228"},{"establishmentid":"51622861","name":"Little Pizza","address":"19240 W Warren Ave","zipcode":"48228"},{"establishmentid":"1510","name":"New Taystee's Pizza","address":"19240 W Warren Ave","zipcode":"48228"},{"establishmentid":"4284","name":"Detroit Leadership Academy","address":"5845 Auburn St","zipcode":"48228"},{"establishmentid":"1130","name":"Mike's Coney Island","address":"19241 Joy Rd","zipcode":"48228"}],"inspectionsByEstablishmentidList":[{"inspectionid":"43576","inspectionDate":"2018-09-25T00:00:00","inspectionType":"Routine Inspection","inCompliance":"Yes","violationsByInspectionidList":[{"violationCode":"6-501.11","violationDescription":"PHYSICAL FACILITIES shall be maintained in good repair.\r\n","violationType":"Core","itemDescription":"Physical facilities","subItem":"ceiling(s)","problemDescription":"In poor repair","subProblem":"","location":"DRY STORAGE AREA","subLocation":"","corrected":"Not required","daysToCorrect":"30.0","correctedDate":null,"correctionDescription":null}]},{"inspectionid":"42061","inspectionDate":"2018-04-24T00:00:00","inspectionType":"Routine Inspection","inCompliance":"Yes","violationsByInspectionidList":[]},{"inspectionid":"40022","inspectionDate":"2017-09-19T00:00:00","inspectionType":"Routine Inspection","inCompliance":"Yes","violationsByInspectionidList":[]},{"inspectionid":"38684","inspectionDate":"2017-04-25T00:00:00","inspectionType":"Routine Inspection","inCompliance":"Yes","violationsByInspectionidList":[]},{"inspectionid":"36689","inspectionDate":"2016-10-04T00:00:00","inspectionType":"Routine Inspection","inCompliance":"Yes","violationsByInspectionidList":[]}]}]}},"pageContext":{"eid":"1236"}}