{"componentChunkName":"component---src-templates-establishment-page-js","path":"/establishment/51623533","result":{"data":{"site":{"pathPrefix":"/restaurant-inspections"},"postgres":{"establishment":[{"establishmentid":"51623533","name":"Trio Community Meals","address":"1980 Bagley","zipcode":"48216","owner":"Trio Community Meals LLC","licenseNumber":"255073","licenseType":"Fixed Establishment","establishmentType":"Food Service Establishment","establishmentStatus":"Open","riskCategory":"High","reviewFrequencyDays":"335","coords":"-83.07108,42.32838","geojson":{"id":"51623533","type":"Feature","geometry":{"type":"Point","coordinates":[-83.07107543,42.32838439]},"properties":{"name":"Trio Community Meals","owner":"Trio Community Meals LLC","address":"1980 Bagley","zipcode":"48216","license_type":"Fixed Establishment","risk_category":"High","license_number":"255073","establishmentid":"51623533","establishment_type":"Food Service Establishment","establishment_status":"Open","review_frequency_days":"335","most_recent_license_date":"4/26/2022"}},"nearbyList":[{"establishmentid":"2656","name":"Valley Foods","address":"1980 Bagley","zipcode":"48216"},{"establishmentid":"1932","name":"Hernandez Center Head Start","address":"2051 Rosa Parks Blvd.","zipcode":"48216"},{"establishmentid":"1646","name":"Parabox Cafe","address":"1927 Michigan","zipcode":"48216"},{"establishmentid":"51623611","name":"Reef Kitchens Food Truck #3","address":"1401 Vermont","zipcode":"48216"},{"establishmentid":"51623357","name":"Reef Kitchens #01 (Fixed Trailer)","address":"1401 Vermont","zipcode":"48216"},{"establishmentid":"51623100","name":"Toma Detroit","address":"1830 Michigan","zipcode":"48216"},{"establishmentid":"407","name":"Casey's Pub d/b/a The Red Corridor","address":"1830 Michigan Ave.","zipcode":"48216"},{"establishmentid":"408","name":"Maltese Am Benevolent Society","address":"1832 Michigan Avenue","zipcode":"48216"},{"establishmentid":"3460","name":"Oblivions","address":"1800 Michigan Ave.","zipcode":"48216"},{"establishmentid":"5378","name":"Bobcat Bonnies","address":"1800 Michigan Ave.","zipcode":"48216"}],"inspectionsByEstablishmentidList":[]}],"maxInspectionDate":[{"inspectionDate":"2022-07-25T00:00:00"}]}},"pageContext":{"eid":"51623533"}},"staticQueryHashes":["3649515864","63159454"]}