{"componentChunkName":"component---src-templates-establishment-page-js","path":"/establishment/2239","result":{"data":{"site":{"pathPrefix":"/restaurant-inspections"},"postgres":{"establishment":[{"establishmentid":"2239","name":"Taqueria El Enano","address":"6620 Fort St. W.","zipcode":"48209","owner":"Mr. Nick Mouhos","licenseNumber":"058563","licenseType":"Fixed Establishment","establishmentType":"Food Service Establishment","establishmentStatus":"Open","riskCategory":null,"reviewFrequencyDays":"360","coords":"-83.10766,42.30510","geojson":{"id":"2239","type":"Feature","geometry":{"type":"Point","coordinates":[-83.107656038,42.305098949]},"properties":{"name":"Taqueria El Enano","owner":"Mr. Nick Mouhos","address":"6620 Fort St. W.","zipcode":"48209","license_type":"Fixed Establishment","risk_category":null,"license_number":"058563","establishmentid":"2239","establishment_type":"Food Service Establishment","establishment_status":"Open","review_frequency_days":"360","most_recent_license_date":null}},"nearbyList":[{"establishmentid":"3871","name":"Taqueria El Enano","address":"6620 Fort Ave. W.","zipcode":"48209"},{"establishmentid":"5255","name":"Total Vending","address":"6401 Fort W.","zipcode":"48209"},{"establishmentid":"2320","name":"Stella-Wit-Her-Spoon","address":"6401 Fort St. W.","zipcode":"48209"},{"establishmentid":"3008","name":"Robinson Dairy Vending","address":"6401 Fort W.","zipcode":"48209"},{"establishmentid":"578","name":"Continental Canteen","address":"6401 Fort W.","zipcode":"48209"},{"establishmentid":"5053","name":"Taqueria Valente","address":"6426  W.Fort","zipcode":null},{"establishmentid":"3552","name":"El Bosque Salon","address":"6705 Lafayette Ave. W. ","zipcode":"48209"},{"establishmentid":"3802","name":"Tacos El Michoacano","address":"1003 Waterman","zipcode":"48209"},{"establishmentid":"1204","name":"Kentucky Fried Chicken H730209/Taco Bell","address":"6320 Fort St. W.","zipcode":"48216"},{"establishmentid":"2535","name":"Robinson Dairy Vending","address":"150 American Way","zipcode":"48209"}],"inspectionsByEstablishmentidList":[]}],"maxInspectionDate":[{"inspectionDate":"2023-04-25T00:00:00"}]}},"pageContext":{"eid":"2239"}},"staticQueryHashes":["3649515864","63159454"]}