{"data":{"postgres":{"establishment":[{"establishmentid":"51622812","name":"Rich Man Poor Man","address":"14619 Kercheval Ave","zipcode":"48215","owner":"Benedict & David Hospitality","licenseNumber":"ps071618","licenseType":"Fixed Establishment","establishmentType":"Food Service Establishment","establishmentStatus":"Open","riskCategory":null,"reviewFrequencyDays":"365.0","coords":"-82.94579,42.37957","geojson":{"id":"51622812","type":"Feature","geometry":{"type":"Point","coordinates":[-82.9457906759999,42.3795720850001]},"properties":{"name":"Rich Man Poor Man","owner":"Benedict & David Hospitality","address":"14619 Kercheval Ave","zipcode":"48215","license_type":"Fixed Establishment","risk_category":null,"license_number":"ps071618","establishmentid":"51622812","establishment_type":"Food Service Establishment","establishment_status":"Open","review_frequency_days":"365.0","most_recent_license_date":null}},"nearbyList":[{"establishmentid":"2676","name":"Texas Bar and Grill","address":"14619 Kercheval","zipcode":"48215"},{"establishmentid":"4126","name":"My Dad's Bar","address":"14911 Kercheval Ave","zipcode":"48215"},{"establishmentid":"3260","name":"St. John's Congregational Church","address":"14320 Kercheval Ave","zipcode":"48215"},{"establishmentid":"1684","name":"Ye Olde Tap Room","address":"14915 Charlevoix","zipcode":"48215"},{"establishmentid":"2317","name":"Detroit Merit Academy","address":"1091 Alter Rd","zipcode":"48215"},{"establishmentid":"5406","name":"Norma G's Detroit","address":"14628 E Jefferson Ave","zipcode":"48215"},{"establishmentid":"5408","name":"The French Cow (Crepes Shop)","address":"1349 Beaconsfield Ave","zipcode":"4823"},{"establishmentid":"282","name":"Marshalls Bar","address":"14716 E Jefferson Ave","zipcode":"48215"},{"establishmentid":"2002","name":"East Bar-Detroit","address":"15045 Mack Ave","zipcode":"48224"},{"establishmentid":"5148","name":"Detroits Finest Coney Island","address":"13337 E Jefferson Ave. ","zipcode":"48215"}],"inspectionsByEstablishmentidList":[]}]}},"pageContext":{"eid":"51622812"}}