{"data":{"postgres":{"establishment":[{"establishmentid":"51622632","name":"Detroit Achievement Academy","address":"7000 W Outer Drive","zipcode":"48235","owner":"Kyle Smitley","licenseNumber":"ps082517","licenseType":"Fixed Establishment","establishmentType":"Charter School","establishmentStatus":"Open","riskCategory":"Medium","reviewFrequencyDays":"180.0","coords":"-83.20201,42.41986","geojson":{"id":"51622632","type":"Feature","geometry":{"type":"Point","coordinates":[-83.2020087769999,42.4198564070001]},"properties":{"name":"Detroit Achievement Academy","owner":"Kyle Smitley","address":"7000 W Outer Drive","zipcode":"48235","license_type":"Fixed Establishment","risk_category":"Medium","license_number":"ps082517","establishmentid":"51622632","establishment_type":"Charter School","establishment_status":"Open","review_frequency_days":"180.0","most_recent_license_date":null}},"nearbyList":[{"establishmentid":"4271","name":"Sweetwater Express","address":"15640 W McNichols Rd","zipcode":"48235"},{"establishmentid":"1199","name":"Taco Bell #24449","address":"15624 W McNichols Rd","zipcode":"48235"},{"establishmentid":"1330","name":"McDonald's #6799","address":"15550 W McNichols Rd","zipcode":"48235"},{"establishmentid":"1413","name":"Lady Louisa's Place","address":"15535 W McNichols Rd","zipcode":"48235"},{"establishmentid":"51622870","name":"Wild Wild West Wings","address":"15535 W McNichols","zipcode":"48066"},{"establishmentid":"1419","name":"Domino's Pizza #1027","address":"16005 W McNichols Rd","zipcode":"48235"},{"establishmentid":"2026","name":"Palushaj's Olympia Coney Island","address":"15425 W McNichols Rd","zipcode":"48235"},{"establishmentid":"4553","name":"Royal Grill and Deli","address":"16031 W McNichols Rd","zipcode":"48235"},{"establishmentid":"3971","name":"Hood Kafe","address":"15349 W McNichols Rd","zipcode":"48235"},{"establishmentid":"4044","name":"Oriental Meat Market","address":"15349 W McNichols Rd","zipcode":"48235"},{"establishmentid":"748","name":"Renaissance High School","address":"6565 W Outer Dr","zipcode":"48235"},{"establishmentid":"1131","name":"Clara Rutherford/Winans Academy","address":"16411 Curtis Ave","zipcode":"48235"},{"establishmentid":"4435","name":"Spud Headz","address":"16400 W McNichols Rd","zipcode":"48235"},{"establishmentid":"51622633","name":"Fellowship Chapel","address":"7707 W Outer Drive","zipcode":"48235"},{"establishmentid":"3537","name":"Fat Boyz Steak and Chicken","address":"15917 W Seven Mile Rd","zipcode":"48235"},{"establishmentid":"4125","name":"University Yes Academy","address":"14669 Curtis","zipcode":"48235"},{"establishmentid":"4998","name":"Encore Lounge and Grill","address":"15407 W Seven Mile Rd","zipcode":"48235"},{"establishmentid":"5009","name":"Uncle Big John's Fresh Fish Mkt.","address":"15834 W Seven Mile Rd","zipcode":"48235"},{"establishmentid":"4414","name":"Saucebar","address":"15838 W Seven Mile Rd","zipcode":"48235"},{"establishmentid":"1179","name":"Nicky D's Coney Island","address":"15447 W Seven Mile Rd","zipcode":"48235"}],"inspectionsByEstablishmentidList":[{"inspectionid":"43818","inspectionDate":"2018-10-18T00:00:00","inspectionType":"Routine Inspection","inCompliance":"Yes","violationsByInspectionidList":[]},{"inspectionid":"42024","inspectionDate":"2018-04-19T00:00:00","inspectionType":"Routine Inspection","inCompliance":"Yes","violationsByInspectionidList":[]},{"inspectionid":"40218","inspectionDate":"2017-09-27T00:00:00","inspectionType":"Routine Inspection","inCompliance":"Yes","violationsByInspectionidList":[{"violationCode":"7-102.11","violationDescription":"Working containers used for storing POISONOUS OR TOXIC MATERIALS such as cleaners and SANITIZERS taken from bulk supplies shall be clearly and individually identified with the common name of the material. (Pf)\r\n","violationType":"Foundation","itemDescription":"Working containers-toxics","subItem":"sanitizer","problemDescription":"Not labeled as to content","subProblem":"","location":"KITCHEN","subLocation":"","corrected":"Yes","daysToCorrect":"10.0","correctedDate":"2017-09-27T00:00:00","correctionDescription":"Label containers with common name."}]}]}]}},"pageContext":{"eid":"51622632"}}