{"componentChunkName":"component---src-templates-establishment-page-js","path":"/establishment/3291","result":{"data":{"site":{"pathPrefix":"/restaurant-inspections"},"postgres":{"establishment":[{"establishmentid":"3291","name":"Mr. Munchy","address":"14831 Heyden","zipcode":"48223","owner":"Gerald E. Childress","licenseNumber":"037545","licenseType":"Special Transitory Food Unit","establishmentType":"LHD - Special Transitory Food","establishmentStatus":"Open","riskCategory":null,"reviewFrequencyDays":null,"coords":"-83.23961,42.39625","geojson":{"id":"3291","type":"Feature","geometry":{"type":"Point","coordinates":[-83.239605992,42.396247265]},"properties":{"name":"Mr. Munchy","owner":"Gerald E. Childress","address":"14831 Heyden","zipcode":"48223","license_type":"Special Transitory Food Unit","risk_category":null,"license_number":"037545","establishmentid":"3291","establishment_type":"LHD - Special Transitory Food","establishment_status":"Open","review_frequency_days":null,"most_recent_license_date":null}},"nearbyList":[{"establishmentid":"4167","name":"Ms B's Coney & Pita","address":"19850  Fenkell Ave.","zipcode":"48223"},{"establishmentid":"3411","name":"Subway","address":"19850 Fenkell Ave.","zipcode":"48223"},{"establishmentid":"4027","name":"Subday and Chicken","address":"19850  Fenkell","zipcode":"48223"},{"establishmentid":"3341","name":"Brightmoor Coney Island","address":"20740 Fenkell Ave.","zipcode":"48223"},{"establishmentid":"1032","name":"Harding Elementary School","address":"14450 Burt  Rd.","zipcode":"48223"},{"establishmentid":"4175","name":"Samuel Gompers Learning Academy PK-8","address":"14450 Burt Rd.","zipcode":"48223"},{"establishmentid":"1055","name":"Shurly School","address":"14450 Burt  Rd.","zipcode":"48223"},{"establishmentid":"1521","name":"Mt. Vernon Missionary Baptist Church","address":"15125 Burt Rd.","zipcode":"48223"},{"establishmentid":"776","name":"Brightmoor Community Center","address":"14451 Burt Rd.","zipcode":"48223"},{"establishmentid":"1229","name":"Vetal K-8 School","address":"14200 Westwood ","zipcode":"48223"}],"inspectionsByEstablishmentidList":[]}],"maxInspectionDate":[{"inspectionDate":"2023-04-13T00:00:00"}]}},"pageContext":{"eid":"3291"}},"staticQueryHashes":["3649515864","63159454"]}