{"componentChunkName":"component---src-templates-establishment-page-js","path":"/establishment/5008","result":{"data":{"site":{"pathPrefix":"/restaurant-inspections"},"postgres":{"establishment":[{"establishmentid":"5008","name":"Motor City Yacht Club","address":"10835 E. Jefferson","zipcode":"48214","owner":"","licenseNumber":"2-4-2015","licenseType":"Fixed Establishment","establishmentType":null,"establishmentStatus":null,"riskCategory":null,"reviewFrequencyDays":null,"coords":"-82.97516,42.36514","geojson":{"id":"5008","type":"Feature","geometry":{"type":"Point","coordinates":[-82.975155383,42.365135383]},"properties":{"name":"Motor City Yacht Club","owner":"","address":"10835 E. Jefferson","zipcode":"48214","license_type":"Fixed Establishment","risk_category":null,"license_number":"2-4-2015","establishmentid":"5008","establishment_type":null,"establishment_status":null,"review_frequency_days":null,"most_recent_license_date":null}},"nearbyList":[{"establishmentid":"1616","name":"River Breeze Dairy","address":"10800 Jefferson Ave. E.","zipcode":"48214"},{"establishmentid":"3811","name":"Ms. Chi-Town Soul Food","address":"10736 Jefferson Ave. E.","zipcode":"48214"},{"establishmentid":"4670","name":"The River Krispy Crunchy Chicken","address":"10736  Jefferson E.","zipcode":"48214"},{"establishmentid":"2795","name":"Wall Street Cafe","address":"10920  Jefferson E.","zipcode":"48214"},{"establishmentid":"51623337","name":"Mr. Corned Beef","address":"11000 Jefferson Ave. Ste. B","zipcode":"48214"},{"establishmentid":"360","name":"Gateway P.D.P.","address":"11105 Jefferson Ave. E.","zipcode":"48214"},{"establishmentid":"3331","name":"Legends Grill","address":"11123 Jefferson Ave. E.","zipcode":"48214"},{"establishmentid":"4952","name":"Rose's Fine Food","address":"10551  E. Jefferson","zipcode":"48214"},{"establishmentid":"544","name":"Elmo's Fine Food Inc.","address":"10551 Jefferson Ave. E.","zipcode":"48213"},{"establishmentid":"3317","name":"Detroit Enterprise Academy","address":"11224 Kercheval Ave","zipcode":"48214"}],"inspectionsByEstablishmentidList":[]}],"maxInspectionDate":[{"inspectionDate":"2023-04-13T00:00:00"}]}},"pageContext":{"eid":"5008"}},"staticQueryHashes":["3649515864","63159454"]}