{"data":{"site":{"pathPrefix":null},"postgres":{"establishment":[{"establishmentid":"5215","name":"Showtime Ice Cream","address":"12874 Greenfield Rd","zipcode":"48227","owner":"Younes ALfaghi","licenseNumber":"038487","licenseType":"Mobile Food Establishment","establishmentType":null,"establishmentStatus":null,"riskCategory":"Medium","reviewFrequencyDays":"90.0","coords":"-83.19757,42.38325","geojson":{"id":"5215","type":"Feature","geometry":{"type":"Point","coordinates":[-83.197574902,42.383251226]},"properties":{"name":"Showtime Ice Cream","owner":"Younes ALfaghi","address":"12874 Greenfield Rd","zipcode":"48227","license_type":"Mobile Food Establishment","risk_category":"Medium","license_number":"038487","establishmentid":"5215","establishment_type":null,"establishment_status":null,"review_frequency_days":"90.0","most_recent_license_date":"5/30/2017"}},"nearbyList":[{"establishmentid":"5228","name":"All Star Fish & Seafood Inc.","address":"13585 Greenfield Rd","zipcode":"48227"},{"establishmentid":"4801","name":"Hot Toppings","address":"15539 Schoolcraft","zipcode":"48227"},{"establishmentid":"51622464","name":"Burger Grille LLC","address":"15539 Schoolcraft","zipcode":"48227"},{"establishmentid":"1463","name":"Rikshaw House","address":"14135 Greenfield Rd","zipcode":"48227"},{"establishmentid":"641","name":"Korner Coney Island ","address":"14253 Greenfield Rd","zipcode":"48227"},{"establishmentid":"358","name":"Great Wall","address":"14307 Greenfield Rd","zipcode":"48227"},{"establishmentid":"340","name":"Little Caesar's Pizza #59","address":"14301 Greenfield Rd","zipcode":"48227"},{"establishmentid":"5051","name":"Seven Days Fish and Chicken Inc.","address":"15370 Grand River Ave","zipcode":"48227"},{"establishmentid":"5379","name":"Seven Days Fish & Grill Inc.","address":"15370 Grand River Ave","zipcode":"48227"},{"establishmentid":"5385","name":"Yum Yumz Snack Shack LLC","address":"15400 Grand River","zipcode":"48227"}],"inspectionsByEstablishmentidList":[{"inspectionid":"42124","inspectionDate":"2018-05-09T00:00:00","inspectionType":"Mobile Inspection","inCompliance":"Yes","violationsByInspectionidList":[{"violationCode":"6-301.12","violationDescription":"Each HANDWASHING SINK or group of adjacent HANDWASHING SINKS shall be provided with:\r\n(A) Individual, disposable towels; (Pf)\r\n(B) A continuous towel system that supplies the user with a clean towel;(Pf) or \r\n(C) A heated-air hand drying device.(Pf)\r\n(D) A hand drying device that employs an air-knife system that delivers high velocity pressurized air at ambient temperatures.(Pf)\r\n","violationType":"Foundation","itemDescription":"Sanitary hand drying provisions","subItem":"disposable, paper towels","problemDescription":"Not provided","subProblem":"At hand sink","location":"TRUCK","subLocation":"Missing Paper toweling","corrected":"Yes","daysToCorrect":"10.0","correctedDate":"2018-05-09T00:00:00","correctionDescription":"Provide"}]}]}]}},"pageContext":{"eid":"5215"}}