{"data":{"site":{"pathPrefix":"/restaurant-inspections"},"postgres":{"establishment":[{"establishmentid":"51623055","name":"Anna's Soul Food","address":"8560 Grand River","zipcode":"48204","owner":"Kevin Helton","licenseNumber":"070819KG","licenseType":"Fixed Establishment","establishmentType":"Food Service Establishment","establishmentStatus":"Open","riskCategory":"High","reviewFrequencyDays":"180","coords":"-83.12222,42.36203","geojson":{"id":"51623055","type":"Feature","geometry":{"type":"Point","coordinates":[-83.122217609,42.362032065]},"properties":{"name":"Anna's Soul Food","owner":"Kevin Helton","address":"8560 Grand River","zipcode":"48204","license_type":"Fixed Establishment","risk_category":"High","license_number":"070819KG","establishmentid":"51623055","establishment_type":"Food Service Establishment","establishment_status":"Open","review_frequency_days":"180","most_recent_license_date":"7/8/2019"}},"nearbyList":[{"establishmentid":"51622573","name":"Steve's World of Food #2","address":"8443 Grand River Ave","zipcode":"48204"},{"establishmentid":"2011","name":"Steve's World of Food-SEMI Truck","address":"8443-47 Grand River Ave","zipcode":"48204"},{"establishmentid":"1934","name":"Steve's Soul Food-Commissary","address":"8443-47 Grand River Ave","zipcode":"48204"},{"establishmentid":"793","name":"Trade Union Leadership Council","address":"8670 Grand River Ave","zipcode":"48204"},{"establishmentid":"602","name":"Louie's Cocktail Lounge","address":"8053 Grand River Ave","zipcode":"48204"},{"establishmentid":"314","name":"Little Mary's River Inn","address":"7741 Grand River Ave","zipcode":"48204"},{"establishmentid":"5201","name":"Roy Allen Family Life Center","address":"4924 Joy Rd","zipcode":"48204"},{"establishmentid":"4023","name":"Albano Coney Island/DBA Apollo","address":"7635 Grand River Ave","zipcode":"48204"},{"establishmentid":"1146","name":"Church's Fried Chicken #855","address":"9137 W Grand River Ave","zipcode":"48204"},{"establishmentid":"922","name":"Sampson/Webber Academy","address":"4700 Tireman Ave","zipcode":"48204"}],"inspectionsByEstablishmentidList":[{"inspectionid":"50245","inspectionDate":"2020-01-06T00:00:00","inspectionType":"Routine Inspection","inCompliance":"Yes","violationsByInspectionidList":[{"violationCode":"6-301.12","violationDescription":"Each HANDWASHING SINK or group of adjacent HANDWASHING SINKS shall be provided with:\r\n(A) Individual, disposable towels; (Pf)\r\n(B) A continuous towel system that supplies the user with a clean towel;(Pf) or \r\n(C) A heated-air hand drying device.(Pf)\r\n(D) A hand drying device that employs an air-knife system that delivers high velocity pressurized air at ambient temperatures.(Pf)\r\n","violationType":"Foundation","itemDescription":"Sanitary hand drying provisions","subItem":"","problemDescription":"Not provided","subProblem":"","location":"HANDSINK(S)","subLocation":"","corrected":"Yes","daysToCorrect":"10","correctedDate":"2020-01-06T00:00:00","correctionDescription":null}]}]}],"maxInspectionDate":[{"inspectionDate":"2020-10-30T00:00:00"}]}},"pageContext":{"eid":"51623055"}}