{"componentChunkName":"component---src-templates-establishment-page-js","path":"/establishment/51623456","result":{"data":{"site":{"pathPrefix":"/restaurant-inspections"},"postgres":{"establishment":[{"establishmentid":"51623456","name":"The Coffee Spot","address":"14838 Kercheval Ave.","zipcode":"48215","owner":null,"licenseNumber":"329-8814","licenseType":"Fixed Establishment","establishmentType":"Food Service Establishment","establishmentStatus":null,"riskCategory":null,"reviewFrequencyDays":null,"coords":"-82.94337,42.38016","geojson":{"id":"51623456","type":"Feature","geometry":{"type":"Point","coordinates":[-82.943368486,42.380163496]},"properties":{"name":"The Coffee Spot","owner":null,"address":"14838 Kercheval Ave.","zipcode":"48215","license_type":"Fixed Establishment","risk_category":null,"license_number":"329-8814","establishmentid":"51623456","establishment_type":"Food Service Establishment","establishment_status":null,"review_frequency_days":null,"most_recent_license_date":null}},"nearbyList":[{"establishmentid":"4126","name":"My Dad's Bar","address":"14911 Kercheval","zipcode":"48215"},{"establishmentid":"51622812","name":"Turn Around Sports Bar & Grille","address":"14619 Kercheval","zipcode":"48215"},{"establishmentid":"2676","name":"Texas Bar and Grill","address":"14619 Kercheval","zipcode":"48215"},{"establishmentid":"2317","name":"Detroit Merit Academy","address":"1091 Alter Rd.","zipcode":"48215"},{"establishmentid":"1684","name":"Ye Olde Tap Room","address":"14915 Charlevoix","zipcode":"48215"},{"establishmentid":"3260","name":"St. John's Congregational Church","address":"14320 Kercheval","zipcode":"48215"},{"establishmentid":"1408","name":"St. John's Congregational Church","address":"14320 Kercheval","zipcode":"48215"},{"establishmentid":"282","name":"Marshalls Bar","address":"14716 Jefferson Ave. E.","zipcode":"48215"},{"establishmentid":"4852","name":"LL Krispy Krunchy Chicken","address":"14447  Jefferson","zipcode":null},{"establishmentid":"51623141","name":"Yellow Light Coffee & Donuts","address":"14447 Jefferson E. ","zipcode":"48215"}],"inspectionsByEstablishmentidList":[]}],"maxInspectionDate":[{"inspectionDate":"2022-08-31T00:00:00"}]}},"pageContext":{"eid":"51623456"}},"staticQueryHashes":["3649515864","63159454"]}