{"data":{"site":{"pathPrefix":"/restaurant-inspections"},"postgres":{"establishment":[{"establishmentid":"4660","name":"El Parian #2","address":"1064 London","zipcode":"48149","owner":"Nancy Lopez","licenseNumber":"208158","licenseType":"Mobile Food Establishment","establishmentType":"LHD - Mobile Food Establishmen","establishmentStatus":"Seasonal","riskCategory":null,"reviewFrequencyDays":"395.0","coords":"-83.17814,42.23924","geojson":{"id":"4660","type":"Feature","geometry":{"type":"Point","coordinates":[-83.178140634,42.239235738]},"properties":{"name":"El Parian #2","owner":"Nancy Lopez","address":"1064 London","zipcode":"48149","license_type":"Mobile Food Establishment","risk_category":null,"license_number":"208158","establishmentid":"4660","establishment_type":"LHD - Mobile Food Establishmen","establishment_status":"Seasonal","review_frequency_days":"395.0","most_recent_license_date":"4/21/2017"}},"nearbyList":[{"establishmentid":"4876","name":"El Parian #3","address":"1064 London","zipcode":"48146"},{"establishmentid":"4246","name":"El Parian #1","address":"1064 London","zipcode":"48149"},{"establishmentid":"3590","name":"Happy's Pizza #22","address":"3517 S Fort St","zipcode":"48217"},{"establishmentid":"51622686","name":"Detroit Police Athletic League","address":"1680 Michigan Ave","zipcode":"48216"},{"establishmentid":"5378","name":"Bobcat Bonnies","address":"1800 Michigan Ave","zipcode":"48216"},{"establishmentid":"1371","name":"The Works Bar & Grill","address":"1846 Michigan Ave","zipcode":"48216"},{"establishmentid":"2154","name":"White Castle #19","address":"1930-50  Michigan Ave","zipcode":"48216"},{"establishmentid":"539","name":"Motor City Wine Bar","address":"1949 Michigan Ave","zipcode":"48216"},{"establishmentid":"51622746","name":"Tacos El Rodeo","address":"1949 Michigan Ave","zipcode":"48216"},{"establishmentid":"592","name":"Gaelic League Irish American Club","address":"2066-68 Michigan Ave","zipcode":"48216"}],"inspectionsByEstablishmentidList":[{"inspectionid":"42557","inspectionDate":"2018-06-13T00:00:00","inspectionType":"Routine Inspection","inCompliance":"Yes","violationsByInspectionidList":[]},{"inspectionid":"39114","inspectionDate":"2017-05-16T00:00:00","inspectionType":"Routine Inspection","inCompliance":"Yes","violationsByInspectionidList":[]}]}],"maxInspectionDate":[{"inspectionDate":"2019-04-30T00:00:00"}]}},"pageContext":{"eid":"4660"}}