{"data":{"site":{"pathPrefix":"/restaurant-inspections"},"postgres":{"establishment":[{"establishmentid":"51623159","name":"National Coney Island (Wayne)","address":"27947 Grossbeck","zipcode":"48066","owner":"Art Londo","licenseNumber":"039246","licenseType":"Special Transitory Food Unit","establishmentType":"LHD - Special Transitory Food","establishmentStatus":null,"riskCategory":null,"reviewFrequencyDays":"90.0","coords":"-83.00409,42.44719","geojson":{"id":"51623159","type":"Feature","geometry":{"type":"Point","coordinates":[-83.00408685,42.447189807]},"properties":{"name":"National Coney Island (Wayne)","owner":"Art Londo","address":"27947 Grossbeck","zipcode":"48066","license_type":"Special Transitory Food Unit","risk_category":null,"license_number":"039246","establishmentid":"51623159","establishment_type":"LHD - Special Transitory Food","establishment_status":null,"review_frequency_days":"90.0","most_recent_license_date":null}},"nearbyList":[{"establishmentid":"1431","name":"BT'S (Tycoons DBA Celebrity Reservation)","address":"12210 E Eight Mile Rd","zipcode":"48205"},{"establishmentid":"3654","name":"State Fair Lounge, Inc.","address":"19910 Hoover Ave","zipcode":"48205"},{"establishmentid":"2947","name":"Coliseum","address":"11300 E Eight Mile Rd","zipcode":"48205"},{"establishmentid":"1171","name":"Pulaski Elementary / Middle School","address":"19725 Strasburg St","zipcode":"48205"},{"establishmentid":"763","name":"Bel Air 10 Theater","address":"10100 E Eight Mile Rd","zipcode":"48234"},{"establishmentid":"51622450","name":"Detroit's Finest Coney Island","address":"12930 E Eight Mile Rd","zipcode":"48205"},{"establishmentid":"5338","name":"R & D One Stop Meals","address":"11811 E Seven Mile Rd","zipcode":"48205"},{"establishmentid":"4772","name":"Me & My Girls Soul Food","address":"11831 E Seven Mile Rd. ","zipcode":"48205"},{"establishmentid":"5411","name":"Royal Fish & Chicken Inc.","address":"11429 E Seven Mile Rd","zipcode":"48234"},{"establishmentid":"51622880","name":"Trix Academy","address":"20045 Joann St","zipcode":"48205"}],"inspectionsByEstablishmentidList":[]}],"maxInspectionDate":[{"inspectionDate":"2020-10-30T00:00:00"}]}},"pageContext":{"eid":"51623159"}}