{"componentChunkName":"component---src-templates-establishment-page-js","path":"/establishment/51623264","result":{"data":{"site":{"pathPrefix":"/restaurant-inspections"},"postgres":{"establishment":[{"establishmentid":"51623264","name":"Chene Street Grocers","address":"5200 Chene","zipcode":"48211","owner":"Vanessa Cronan","licenseNumber":"PR20045A","licenseType":"Fixed Establishment","establishmentType":"Food Service Establishment","establishmentStatus":"Plan Review","riskCategory":null,"reviewFrequencyDays":null,"coords":"-83.04158,42.36733","geojson":{"id":"51623264","type":"Feature","geometry":{"type":"Point","coordinates":[-83.041580016,42.367325943]},"properties":{"name":"Chene Street Grocers","owner":"Vanessa Cronan","address":"5200 Chene","zipcode":"48211","license_type":"Fixed Establishment","risk_category":null,"license_number":"PR20045A","establishmentid":"51623264","establishment_type":"Food Service Establishment","establishment_status":"Plan Review","review_frequency_days":null,"most_recent_license_date":null}},"nearbyList":[{"establishmentid":"330","name":"Raven Lounge & Restaurant","address":"5145 Chene","zipcode":"48211"},{"establishmentid":"952","name":"Douglass Academy For Young Men","address":"2001 Warren Ave. W.","zipcode":"48208"},{"establishmentid":"51622943","name":"Office of School Nutrition","address":"2001  Warren W.","zipcode":"48208"},{"establishmentid":"2819","name":"Transfer Point","address":"5747  Chene","zipcode":"48211"},{"establishmentid":"1105","name":"Lucky O Bar","address":"5816 Chene","zipcode":"48211"},{"establishmentid":"51623160","name":"DPSCD Food Truck #1","address":"1601 Farnsworth","zipcode":"48211"},{"establishmentid":"51623161","name":"DPSCD Food Truck #2","address":"1601 Farnsworth","zipcode":"48211"},{"establishmentid":"369","name":"Cadillac Coney Island","address":"5900 Chene","zipcode":"48211"},{"establishmentid":"311","name":"Odell's Lounge","address":"4200 Chene","zipcode":"48207"},{"establishmentid":"4193","name":"Sodexo Mgmt. Inc.","address":"1600 Warren Ave. E.","zipcode":"48207"}],"inspectionsByEstablishmentidList":[]}],"maxInspectionDate":[{"inspectionDate":"2022-08-31T00:00:00"}]}},"pageContext":{"eid":"51623264"}},"staticQueryHashes":["3649515864","63159454"]}