{"componentChunkName":"component---src-templates-establishment-page-js","path":"/establishment/607","result":{"data":{"site":{"pathPrefix":"/restaurant-inspections"},"postgres":{"establishment":[{"establishmentid":"607","name":"California Taco","address":"200 Renaissance Center A-1024","zipcode":"48243","owner":"Carl Cammarata","licenseNumber":"034500","licenseType":"Fixed Establishment","establishmentType":"Food Service Establishment","establishmentStatus":"Permanently Closed","riskCategory":null,"reviewFrequencyDays":"335","coords":"-83.04072,42.32982","geojson":{"id":"607","type":"Feature","geometry":{"type":"Point","coordinates":[-83.04071807,42.32982254]},"properties":{"name":"California Taco","owner":"Carl Cammarata","address":"200 Renaissance Center A-1024","zipcode":"48243","license_type":"Fixed Establishment","risk_category":null,"license_number":"034500","establishmentid":"607","establishment_type":"Food Service Establishment","establishment_status":"Permanently Closed","review_frequency_days":"335","most_recent_license_date":"2007-05-22"}},"nearbyList":[{"establishmentid":"3240","name":"Potbelly Sandwich Shop","address":"400 Renaissance Ctr. Ste. 1304","zipcode":"48226"},{"establishmentid":"1420","name":"McDonald's Ren-Joi, Inc.","address":"200 Renaissance Center","zipcode":"48243"},{"establishmentid":"2114","name":"Sodexho Management","address":"200 Rennaissance Center","zipcode":"48243"},{"establishmentid":"2008","name":"Ren Cen Subway Foods LLC","address":"200 Renaissnace Center","zipcode":"48243"},{"establishmentid":"1151","name":"Gyroland, L.L.C.","address":"200 Renaissnace Center","zipcode":"48243"},{"establishmentid":"1359","name":"Burger King Corp #13332","address":"200 Renaissance Center A-1042","zipcode":"48243"},{"establishmentid":"1860","name":"That Sandwich Place","address":"200 Rennaissanc Center A-8320","zipcode":"48243"},{"establishmentid":"1135","name":"Detroit Marriott Main Kitchen Hotel","address":"400 Rennaissance Center","zipcode":"48243"},{"establishmentid":"1156","name":"Renaissance Club","address":"200 Renaissance Center A-3600","zipcode":"48243"},{"establishmentid":"3241","name":"Maui Wowi","address":"400 Renaissance","zipcode":"48226"}],"inspectionsByEstablishmentidList":[]}],"maxInspectionDate":[{"inspectionDate":"2023-04-25T00:00:00"}]}},"pageContext":{"eid":"607"}},"staticQueryHashes":["3649515864","63159454"]}