{"data":{"postgres":{"establishment":[{"establishmentid":"51622462","name":"Better Woodman","address":"3700 Gilbert Street","zipcode":"4821","owner":"Geoffrey Woodman","licenseNumber":"229205","licenseType":"Fixed Establishment","establishmentType":"Food Service Establishment","establishmentStatus":null,"riskCategory":"Medium","reviewFrequencyDays":"365.0","coords":"-83.11965,42.32839","geojson":{"id":"51622462","type":"Feature","geometry":{"type":"Point","coordinates":[-83.119654902,42.3283916710001]},"properties":{"name":"Better Woodman","owner":"Geoffrey Woodman","address":"3700 Gilbert Street","zipcode":"4821","license_type":"Fixed Establishment","risk_category":"Medium","license_number":"229205","establishmentid":"51622462","establishment_type":"Food Service Establishment","establishment_status":null,"review_frequency_days":"365.0","most_recent_license_date":null}},"nearbyList":[{"establishmentid":"815","name":"Abicks Bar","address":"3500 Gilbert St","zipcode":"4821"},{"establishmentid":"968","name":"Escuela Avancemos/Logan Elementary","address":"3811 Cicotte St","zipcode":"48217"},{"establishmentid":"3553","name":"Adi's Coney Island ","address":"6171 Michigan Ave","zipcode":"4821"},{"establishmentid":"51622797","name":"Avdolli Adis Coney Island","address":"6171 Michigan Avenue","zipcode":"4821"},{"establishmentid":"51622499","name":"Happys Southwest Detroit","address":"4220 Livernois Ave","zipcode":"4821"},{"establishmentid":"51622875","name":"Happy's Pizza #9","address":"4220 Livernois Ave","zipcode":"4821"},{"establishmentid":"802","name":"Tommy T's Pub","address":"3511 Clippert St","zipcode":"4821"},{"establishmentid":"2308","name":"George's Famous Coney Island","address":"6362 Michigan Ave","zipcode":"4821"},{"establishmentid":"4069","name":"Pupuseria Y Restaurant Sal","address":"3149 Livernois","zipcode":"4821"},{"establishmentid":"2654","name":"Voyager Academy","address":"4321 N Military","zipcode":"4821"},{"establishmentid":"4443","name":"Voyager Consortium","address":"4366 Military","zipcode":"4821"},{"establishmentid":"2070","name":"Cesar Chavez Academy","address":"4100 Martin St","zipcode":"4821"},{"establishmentid":"4966","name":"Rincon Tropical","address":"6538 Michigan Ave","zipcode":"4821"},{"establishmentid":"950","name":"Kwong Village Chinese American","address":"6600 Michigan Ave","zipcode":"4821"},{"establishmentid":"2953","name":"The Sting","address":"6609 Michigan Ave","zipcode":"4821"},{"establishmentid":"434","name":"Dairy Queen #10216","address":"6677 Michigan Ave","zipcode":"4821"},{"establishmentid":"546","name":"Hope of Detroit Academy","address":"4443 N Campbell St","zipcode":"4821"},{"establishmentid":"1062","name":"Midnights Inn #422718","address":"3250 Wesson St","zipcode":"4821"},{"establishmentid":"5285","name":"Hope of Detroit Academy Mid/High School","address":"4444 35th Street","zipcode":"4821"},{"establishmentid":"1375","name":"McDonald's #7453","address":"6876 Michigan Ave","zipcode":"4821"}],"inspectionsByEstablishmentidList":[{"inspectionid":"40139","inspectionDate":"2017-09-22T00:00:00","inspectionType":"Preopening/New","inCompliance":"Yes","violationsByInspectionidList":[{"violationCode":"MFL289.2129","violationDescription":"Sec. 2129. (1) All of the following food establishments shall employ a minimum of 1 managerial employee who is currently certified under a personnel certification program accredited by the American national standards institute, utilizing the conference for food protection standards:  (a) A food service establishment that is not any of the following:    (i) Operating under a temporary food service establishment license.  (ii) A vending machine location.     (b) An extended retail food establishment.  (c) Operated within a retail grocery.  (2) An individual certified under subsection (1) shall be recognized with full faith and credit by the state and all local units of government throughout the state.  (3) The department may promulgate rules to do all of the following:  (a) Develop requirements for retail food establishments to follow when employing certified food safety managers or personnel.  (b) Set a reasonable date for compliance with the requirements under subdivision (a) taking into consideration existing local personnel certification requirements.  (c) Establish certification fees necessary to implement, maintain, and track certified individuals directly or by contract. The department may annually adjust the schedule of fees to provide that the fee charged is sufficient to cover the cost of the certification tracking program.  (d) Implement and enforce the requirements described in subdivision (a).    (4) The certification program developed by the American national standards institute, as it exists on April 1, 2008 , is incorporated by reference. The department may adopt updates to the certification program accreditation standards in subsection (1) by rule.     (5) This section does not prohibit any local legislative body from implementing a food handler program, an employee health certification program, or a manager certification program, if it is not in conflict with this section.","violationType":"Core","itemDescription":"Person-in-charge","subItem":"","problemDescription":"Missing","subProblem":"","location":"KITCHEN","subLocation":"","corrected":"Not required","daysToCorrect":"30.0","correctedDate":null,"correctionDescription":"Provide."}]}]}]}},"pageContext":{"eid":"51622462"}}