{"componentChunkName":"component---src-templates-establishment-page-js","path":"/establishment/4592","result":{"data":{"site":{"pathPrefix":"/restaurant-inspections"},"postgres":{"establishment":[{"establishmentid":"4592","name":"AVI Food Systems","address":"79 West Alexandrine","zipcode":"48201","owner":"Michael Sofranko","licenseNumber":"045351","licenseType":"Other","establishmentType":null,"establishmentStatus":null,"riskCategory":null,"reviewFrequencyDays":"500","coords":"-83.06120,42.34982","geojson":{"id":"4592","type":"Feature","geometry":{"type":"Point","coordinates":[-83.061196571,42.349822166]},"properties":{"name":"AVI Food Systems","owner":"Michael Sofranko","address":"79 West Alexandrine","zipcode":"48201","license_type":"Other","risk_category":null,"license_number":"045351","establishmentid":"4592","establishment_type":null,"establishment_status":null,"review_frequency_days":"500","most_recent_license_date":null}},"nearbyList":[{"establishmentid":"51622629","name":"Le Petit Zinc ","address":"70 Alexanderine St. W.","zipcode":"48201"},{"establishmentid":"5326","name":"Dangerously Delicious Pies","address":"70 Alexandrine W.","zipcode":"48201"},{"establishmentid":"51623125","name":"Poke Burri","address":"70 Alexandrine St. W.","zipcode":"48201"},{"establishmentid":"51623407","name":"Warda Patisserie","address":"70 Alexandrine W.","zipcode":"48201"},{"establishmentid":"4408","name":"The Great Lakes Coffee Roasting Co.","address":"3965 Woodward Ave.","zipcode":"48201"},{"establishmentid":"1351","name":"Bush's Garden of Eating","address":"3955 Woodward","zipcode":"48201"},{"establishmentid":"3354","name":"DSA Detroit School of Arts (9-12)","address":"123 Selden St.","zipcode":"48201"},{"establishmentid":"4862","name":"Woodward Garden Venue/Theater Bar","address":"3919 Woodward Ave.","zipcode":"48201"},{"establishmentid":"4842","name":"Woodward Garden Venue/The Block","address":"3919 Woodward Ave.","zipcode":"48201"},{"establishmentid":"1098","name":"Union Street Detroit","address":"4145 Woodward Ave.","zipcode":"48201"}],"inspectionsByEstablishmentidList":[]}],"maxInspectionDate":[{"inspectionDate":"2022-08-31T00:00:00"}]}},"pageContext":{"eid":"4592"}},"staticQueryHashes":["3649515864","63159454"]}