{"data":{"site":{"pathPrefix":"/restaurant-inspections"},"postgres":{"establishment":[{"establishmentid":"51622971","name":"The Congregation Detroit, LLC.","address":"9321 Rosa Parks Blvd","zipcode":"48206","owner":"Elizabeth J Murdoch","licenseNumber":"PR19063A","licenseType":"Fixed Establishment","establishmentType":"Food Service Establishment","establishmentStatus":"Open","riskCategory":"High","reviewFrequencyDays":"180","coords":"-83.10052,42.37752","geojson":{"id":"51622971","type":"Feature","geometry":{"type":"Point","coordinates":[-83.100521021,42.377517715]},"properties":{"name":"The Congregation Detroit, LLC.","owner":"Elizabeth J Murdoch","address":"9321 Rosa Parks Blvd","zipcode":"48206","license_type":"Fixed Establishment","risk_category":"High","license_number":"PR19063A","establishmentid":"51622971","establishment_type":"Food Service Establishment","establishment_status":"Open","review_frequency_days":"180","most_recent_license_date":"1/27/2020"}},"nearbyList":[{"establishmentid":"51622947","name":"Krispy Krunchy Chicken","address":"10200 Rosa Parks Blvd","zipcode":"48206"},{"establishmentid":"5187","name":"Fulin","address":"8677 Rosa Parks Blvd","zipcode":"48206"},{"establishmentid":"5017","name":"Howard Dreams","address":"1260 W Boston Blvd","zipcode":"48202"},{"establishmentid":"1344","name":"Williams Recreation Center","address":"8431 Rosa Parks Blvd","zipcode":"48206"},{"establishmentid":"1738","name":"Genesis House III (WEST)","address":"2015 Webb St","zipcode":"48206"},{"establishmentid":"946","name":"Durfee  K-8","address":"2470 Collingwood","zipcode":"48206"},{"establishmentid":"51622840","name":"Toarminas Pizza","address":"2470 Collingwood St","zipcode":"48219"},{"establishmentid":"865","name":"Thirkell Elementary","address":"7724 Fourteenth St","zipcode":"48206"},{"establishmentid":"3898","name":"Detroit Job Corps Center","address":"11801 Woodrow Wilson","zipcode":"48206"},{"establishmentid":"3134","name":"Cass Community Social Services","address":"11850 Woodrow Wilson St","zipcode":"48206"}],"inspectionsByEstablishmentidList":[]}],"maxInspectionDate":[{"inspectionDate":"2020-05-29T00:00:00"}]}},"pageContext":{"eid":"51622971"}}