{"data":{"site":{"pathPrefix":"/restaurant-inspections"},"postgres":{"establishment":[{"establishmentid":"1199","name":"Taco Bell #24449","address":"15624 W McNichols Rd","zipcode":"48235","owner":"Sundance, Inc./Pete Lyders","licenseNumber":"060509","licenseType":"Fixed Establishment","establishmentType":"Food Service Establishment","establishmentStatus":"Open","riskCategory":null,"reviewFrequencyDays":"365.0","coords":"-83.20124,42.41623","geojson":{"id":"1199","type":"Feature","geometry":{"type":"Point","coordinates":[-83.20123735,42.416233667]},"properties":{"name":"Taco Bell #24449","owner":"Sundance, Inc./Pete Lyders","address":"15624 W McNichols Rd","zipcode":"48235","license_type":"Fixed Establishment","risk_category":null,"license_number":"060509","establishmentid":"1199","establishment_type":"Food Service Establishment","establishment_status":"Open","review_frequency_days":"365.0","most_recent_license_date":"4/28/2017"}},"nearbyList":[{"establishmentid":"4271","name":"Sweetwater Express","address":"15640 W McNichols Rd","zipcode":"48235"},{"establishmentid":"1330","name":"McDonald's #6799","address":"15550 W McNichols Rd","zipcode":"48235"},{"establishmentid":"1413","name":"Lady Louisa's Place","address":"15535 W McNichols Rd","zipcode":"48235"},{"establishmentid":"51622870","name":"Wild Wild West Wings","address":"15535 W McNichols","zipcode":"48066"},{"establishmentid":"2026","name":"Palushaj's Olympia Coney Island","address":"15425 W McNichols Rd","zipcode":"48235"},{"establishmentid":"3971","name":"Hood Kafe","address":"15349 W McNichols Rd","zipcode":"48235"},{"establishmentid":"4044","name":"Oriental Meat Market","address":"15349 W McNichols Rd","zipcode":"48235"},{"establishmentid":"51622632","name":"Detroit Achievement Academy","address":"7000 W Outer Drive","zipcode":"48235"},{"establishmentid":"1419","name":"Domino's Pizza #1027","address":"16005 W McNichols Rd","zipcode":"48235"},{"establishmentid":"4553","name":"Royal Grill and Deli","address":"16031 W McNichols Rd","zipcode":"48235"},{"establishmentid":"748","name":"Renaissance High School","address":"6565 W Outer Dr","zipcode":"48235"},{"establishmentid":"4435","name":"Spud Headz","address":"16400 W McNichols Rd","zipcode":"48235"},{"establishmentid":"1131","name":"Clara Rutherford/Winans Academy","address":"16411 Curtis Ave","zipcode":"48235"},{"establishmentid":"1543","name":"Foreign Language Immersion","address":"6501 W Outer Dr","zipcode":"48235"},{"establishmentid":"51622633","name":"Fellowship Chapel","address":"7707 W Outer Drive","zipcode":"48235"},{"establishmentid":"4125","name":"University Yes Academy","address":"14669 Curtis","zipcode":"48235"},{"establishmentid":"1703","name":"Westminster Church of Detroit","address":"17567 Hubbell St","zipcode":"48235"},{"establishmentid":"5077","name":"Pasta Bowl","address":"17301 W McNichols Rd","zipcode":"48235"},{"establishmentid":"3520","name":"Nu Wave Fish & Chicken","address":"14541 W McNichols Rd","zipcode":"48235"},{"establishmentid":"4998","name":"Encore Lounge and Grill","address":"15407 W Seven Mile Rd","zipcode":"48235"}],"inspectionsByEstablishmentidList":[{"inspectionid":"42308","inspectionDate":"2018-05-23T00:00:00","inspectionType":"Routine Inspection","inCompliance":"Yes","violationsByInspectionidList":[]},{"inspectionid":"39037","inspectionDate":"2017-06-13T00:00:00","inspectionType":"Routine Inspection","inCompliance":"Yes","violationsByInspectionidList":[]}]}]}},"pageContext":{"eid":"1199"}}