{"data":{"site":{"pathPrefix":"/restaurant-inspections"},"postgres":{"establishment":[{"establishmentid":"51622890","name":"Brewery Park Cafe","address":"1155 Brewery Park","zipcode":"48207","owner":"Crain Communictions","licenseNumber":null,"licenseType":"Fixed Establishment","establishmentType":"Food Service Establishment","establishmentStatus":"Open","riskCategory":"High","reviewFrequencyDays":"180.0","coords":"-83.04152,42.34259","geojson":{"id":"51622890","type":"Feature","geometry":{"type":"Point","coordinates":[-83.041515413,42.3425891900001]},"properties":{"name":"Brewery Park Cafe","owner":"Crain Communictions","address":"1155 Brewery Park","zipcode":"48207","license_type":"Fixed Establishment","risk_category":"High","license_number":null,"establishmentid":"51622890","establishment_type":"Food Service Establishment","establishment_status":"Open","review_frequency_days":"180.0","most_recent_license_date":null}},"nearbyList":[{"establishmentid":"1565","name":"Brewery Park Deli","address":"1155 Brewery Park","zipcode":"48207"},{"establishmentid":"5159","name":"La Rondinella","address":"2453 Russell St","zipcode":"48207"},{"establishmentid":"1662","name":"Supino Pizzeria","address":"2457 Russell St","zipcode":"48207"},{"establishmentid":"4180","name":"Mootown Ice Cream Shoppe","address":"2461 Russell St","zipcode":"48207"},{"establishmentid":"1384","name":"Russell Street Deli","address":"2465 Russell St","zipcode":"48207"},{"establishmentid":"647","name":"Zeff's Coney Island","address":"2469 Russell St","zipcode":"48207"},{"establishmentid":"5212","name":"Beyond Juicery & Eatery","address":"2501 Russell St","zipcode":"48207"},{"establishmentid":"4461","name":"Antietam","address":"1428 Gratiot Ave","zipcode":"48207"},{"establishmentid":"51622859","name":"LeCulture Cafe","address":"1428 Gratiot Rd","zipcode":"48207"},{"establishmentid":"4796","name":"Horatio Williams Foundation","address":"1010 Antietam Ave","zipcode":"48207"}],"inspectionsByEstablishmentidList":[]}],"maxInspectionDate":[{"inspectionDate":"2019-04-30T00:00:00"}]}},"pageContext":{"eid":"51622890"}}