{"componentChunkName":"component---src-templates-establishment-page-js","path":"/establishment/5145","result":{"data":{"site":{"pathPrefix":"/restaurant-inspections"},"postgres":{"establishment":[{"establishmentid":"5145","name":"Ford Rd. Bistro Toy Chest","address":"18728 Ford Rd.","zipcode":"48228","owner":"Naim Saad","licenseNumber":"kp18728","licenseType":"Fixed Establishment","establishmentType":"Food Service Establishment","establishmentStatus":"Open","riskCategory":null,"reviewFrequencyDays":"150","coords":"-83.22348,42.32928","geojson":{"id":"5145","type":"Feature","geometry":{"type":"Point","coordinates":[-83.223477624,42.329280605]},"properties":{"name":"Ford Rd. Bistro Toy Chest","owner":"Naim Saad","address":"18728 Ford Rd.","zipcode":"48228","license_type":"Fixed Establishment","risk_category":null,"license_number":"kp18728","establishmentid":"5145","establishment_type":"Food Service Establishment","establishment_status":"Open","review_frequency_days":"150","most_recent_license_date":"4/11/2015"}},"nearbyList":[{"establishmentid":"51623478","name":"Wild Mustang","address":"18728 Ford","zipcode":"48228"},{"establishmentid":"1121","name":"Club 228","address":"18728 Ford Rd.","zipcode":"48228"},{"establishmentid":"1515","name":"Pizzaplace Dearborn, Inc","address":"18706 Ford Rd.","zipcode":"48228"},{"establishmentid":"1050","name":"Detroit Robin Inc./Red Robin ","address":"18650 Ford Rd.","zipcode":"48228"},{"establishmentid":"3673","name":"Tijuana's Authenic Mexican Kitchen","address":"18940  Ford Rd.","zipcode":"48228"},{"establishmentid":"51623783","name":"Pizza Place","address":"18950 Ford Rd.","zipcode":"48228"},{"establishmentid":"1444","name":"Ford Patio Bar & Grill ","address":"18490 Ford Rd.","zipcode":"48228"},{"establishmentid":"1801","name":"Wendy's ","address":"18430 Ford Rd.","zipcode":"48228"},{"establishmentid":"1401","name":"Chili's Grill & Bar","address":"5707 Southfield Rd.","zipcode":"48228"},{"establishmentid":"51623436","name":"Catrina Mia","address":"6212 Artesian","zipcode":"48228"}],"inspectionsByEstablishmentidList":[]}],"maxInspectionDate":[{"inspectionDate":"2023-04-13T00:00:00"}]}},"pageContext":{"eid":"5145"}},"staticQueryHashes":["3649515864","63159454"]}