{"componentChunkName":"component---src-templates-establishment-page-js","path":"/establishment/3562","result":{"data":{"site":{"pathPrefix":"/restaurant-inspections"},"postgres":{"establishment":[{"establishmentid":"3562","name":"Rhythm Universe","address":"14104 Greenfield Rd.","zipcode":"48227","owner":"Fat Group, LLC/Mike Ukomado","licenseNumber":"060738","licenseType":"Fixed Establishment","establishmentType":"Food Service Establishment","establishmentStatus":"Open","riskCategory":null,"reviewFrequencyDays":"335","coords":"-83.19711,42.38957","geojson":{"id":"3562","type":"Feature","geometry":{"type":"Point","coordinates":[-83.197114539,42.389566148]},"properties":{"name":"Rhythm Universe","owner":"Fat Group, LLC/Mike Ukomado","address":"14104 Greenfield Rd.","zipcode":"48227","license_type":"Fixed Establishment","risk_category":null,"license_number":"060738","establishmentid":"3562","establishment_type":"Food Service Establishment","establishment_status":"Open","review_frequency_days":"335","most_recent_license_date":"9/17/2010"}},"nearbyList":[{"establishmentid":"51623282","name":"Main Event Food Truck ","address":"14104 Greenfield","zipcode":"48227"},{"establishmentid":"1463","name":"Rikshaw House","address":"14135 Greenfield Rd.","zipcode":"48227"},{"establishmentid":"3527","name":"Academy of Oak Park - Whitcomb","address":"14213  Whitcomb St.","zipcode":"48227"},{"establishmentid":"51622910","name":"Lola Mae's Bistro Bar","address":"15418 Schoolcraft","zipcode":"48227"},{"establishmentid":"687","name":"313 Bar & Lounge","address":"15418 Schoolcraft Rd.","zipcode":"48227"},{"establishmentid":"1663","name":"Johnson Southern Kitchen","address":"14249 Greenfield Rd.","zipcode":"48227"},{"establishmentid":"641","name":"Korner Coney Island ","address":"14253 Greenfield Rd.","zipcode":"48227"},{"establishmentid":"51622716","name":"Brown's Southern Kitchen","address":"14253 Greenfield Rd.","zipcode":"48227"},{"establishmentid":"51623149","name":"Detroit Let's Eat","address":"14253 Greenfield Rd.","zipcode":"48227"},{"establishmentid":"4113","name":"427 Eatery","address":"15427 Schoolcraft Rd.","zipcode":"48227"}],"inspectionsByEstablishmentidList":[]}],"maxInspectionDate":[{"inspectionDate":"2022-07-25T00:00:00"}]}},"pageContext":{"eid":"3562"}},"staticQueryHashes":["3649515864","63159454"]}