{"data":{"site":{"pathPrefix":"/restaurant-inspections"},"postgres":{"establishment":[{"establishmentid":"51622875","name":"Happy's Pizza #9","address":"4220 Livernois Ave","zipcode":"4821","owner":"Rony Tinpan","licenseNumber":"232681","licenseType":"Fixed Establishment","establishmentType":"Food Service Establishment","establishmentStatus":"Open","riskCategory":null,"reviewFrequencyDays":"365.0","coords":"-83.12040,42.33131","geojson":{"id":"51622875","type":"Feature","geometry":{"type":"Point","coordinates":[-83.120397096,42.3313097130001]},"properties":{"name":"Happy's Pizza #9","owner":"Rony Tinpan","address":"4220 Livernois Ave","zipcode":"4821","license_type":"Fixed Establishment","risk_category":null,"license_number":"232681","establishmentid":"51622875","establishment_type":"Food Service Establishment","establishment_status":"Open","review_frequency_days":"365.0","most_recent_license_date":"4/22/2019"}},"nearbyList":[{"establishmentid":"51622499","name":"Happys Southwest Detroit","address":"4220 Livernois Ave","zipcode":"4821"},{"establishmentid":"2308","name":"George's Famous Coney Island","address":"6362 Michigan Ave","zipcode":"4821"},{"establishmentid":"2654","name":"Voyager Academy","address":"4321 N Military","zipcode":"4821"},{"establishmentid":"4443","name":"Voyager Consortium","address":"4366 Military","zipcode":"4821"},{"establishmentid":"51622797","name":"Avdolli Adis Coney Island","address":"6171 Michigan Avenue","zipcode":"4821"},{"establishmentid":"3553","name":"Adi's Coney Island ","address":"6171 Michigan Ave","zipcode":"4821"},{"establishmentid":"51622462","name":"Better Woodman","address":"3700 Gilbert Street","zipcode":"4821"},{"establishmentid":"5354","name":"Kaleidoscope Catering","address":"3700 Gilbert","zipcode":"4821"},{"establishmentid":"3526","name":"St. Peter & Paul Orthodox Cathedral","address":"3700 Gilbert Street","zipcode":"4821"},{"establishmentid":"51622860","name":"Pietrzyk Pierogi","address":"3700 Gilbert Street","zipcode":"4821"}],"inspectionsByEstablishmentidList":[{"inspectionid":"44834","inspectionDate":"2019-01-10T00:00:00","inspectionType":"Routine Inspection","inCompliance":"Yes","violationsByInspectionidList":[]}]}],"maxInspectionDate":[{"inspectionDate":"2019-10-31T00:00:00"}]}},"pageContext":{"eid":"51622875"}}