{"data":{"postgres":{"establishment":[{"establishmentid":"3856","name":"Salvation Army #4","address":"3737 Lawton","zipcode":"48208","owner":"Salvation Army","licenseNumber":"037735","licenseType":"Mobile Food Establishment","establishmentType":"LHD - Mobile Food Establishmen","establishmentStatus":"Open","riskCategory":null,"reviewFrequencyDays":"395.0","coords":"-83.09026,42.33823","geojson":{"id":"3856","type":"Feature","geometry":{"type":"Point","coordinates":[-83.090262927,42.3382282430001]},"properties":{"name":"Salvation Army #4","owner":"Salvation Army","address":"3737 Lawton","zipcode":"48208","license_type":"Mobile Food Establishment","risk_category":null,"license_number":"037735","establishmentid":"3856","establishment_type":"LHD - Mobile Food Establishmen","establishment_status":"Open","review_frequency_days":"395.0","most_recent_license_date":"7/10/2018"}},"nearbyList":[{"establishmentid":"1527","name":"Ferguson Building","address":"2750 Selden St","zipcode":"48208"},{"establishmentid":"4673","name":"Covenant Central-Covenent House Michigan","address":"2959 Martin Luther King ","zipcode":"48208"},{"establishmentid":"1640","name":"University of Detroit Dental School","address":"2700 Martin L King Jr. Blvd","zipcode":"48208"},{"establishmentid":"595","name":"Hy-Grade Delicatessen Restaurant, Inc.","address":"3640 Michigan Ave","zipcode":"48216"},{"establishmentid":"604","name":"Mike's Famous Ham Place","address":"3700 Michigan Ave","zipcode":"48216"},{"establishmentid":"1411","name":"St. Leo's","address":"4860 Fifteenth St","zipcode":"48208"},{"establishmentid":"3865","name":"Monte Bello Pizzeria","address":"5181 Grand River Ave","zipcode":"48208"},{"establishmentid":"2442","name":"George Crockett Academy","address":"4851 Fourteenth St","zipcode":"48208"},{"establishmentid":"5113","name":"Takoi","address":"2520 Michigan Ave","zipcode":"48216"},{"establishmentid":"2653","name":"Burton International","address":"2001 Martin Luther King Blvd","zipcode":"48208"},{"establishmentid":"4459","name":"Legend's Coney Island","address":"5210 W Grand River","zipcode":"48208"},{"establishmentid":"4572","name":"Legends Grill","address":"5210 Grand River","zipcode":"48208"},{"establishmentid":"51622672","name":"Cork & Gabel","address":"2415 Michigan Ave","zipcode":"48216"},{"establishmentid":"952","name":"Douglass Academy For Young Men","address":"2001 W Warren Ave","zipcode":"48208"},{"establishmentid":"2060","name":"Westside Academy Alternative Education","address":"4701 McKinley St","zipcode":"48208"},{"establishmentid":"1386","name":"Los Galanes","address":"3354 Bagley Ave","zipcode":"48216"},{"establishmentid":"1297","name":"Evie's Tamales","address":"3454 Bagley St","zipcode":"48216"},{"establishmentid":"2950","name":"Slows BBQ","address":"2138 Michigan Ave","zipcode":"48216"},{"establishmentid":"3745","name":"Mercury Burger Bar","address":"2163 Michigan Ave","zipcode":"48216"},{"establishmentid":"1454","name":"Mexican Town Restaurant","address":"3457 Bagley Street","zipcode":"48216"}],"inspectionsByEstablishmentidList":[{"inspectionid":"42853","inspectionDate":"2018-07-10T00:00:00","inspectionType":"Mobile Inspection","inCompliance":"Yes","violationsByInspectionidList":[]},{"inspectionid":"38670","inspectionDate":"2017-05-11T00:00:00","inspectionType":"Mobile Inspection","inCompliance":"Yes","violationsByInspectionidList":[]}]}]}},"pageContext":{"eid":"3856"}}