{"componentChunkName":"component---src-templates-establishment-page-js","path":"/establishment/4728","result":{"data":{"site":{"pathPrefix":"/restaurant-inspections"},"postgres":{"establishment":[{"establishmentid":"4728","name":"Chowtime","address":"3647 Clippert","zipcode":"48210","owner":"Devonna Barry","licenseNumber":"948-8106","licenseType":"Special Transitory Food Unit","establishmentType":"LHD - Special Transitory Food","establishmentStatus":null,"riskCategory":null,"reviewFrequencyDays":"335","coords":"-83.12218,42.32651","geojson":{"id":"4728","type":"Feature","geometry":{"type":"Point","coordinates":[-83.122176255,42.326508168]},"properties":{"name":"Chowtime","owner":"Devonna Barry","address":"3647 Clippert","zipcode":"48210","license_type":"Special Transitory Food Unit","risk_category":null,"license_number":"948-8106","establishmentid":"4728","establishment_type":"LHD - Special Transitory Food","establishment_status":null,"review_frequency_days":"335","most_recent_license_date":null}},"nearbyList":[{"establishmentid":"51623854","name":"The Rock's Bar and Grill","address":"3511  Clippert St","zipcode":null},{"establishmentid":"802","name":"Tommy T's Pub","address":"3511 Clippert","zipcode":"48210"},{"establishmentid":"496","name":"Euro Cafe","address":"3620 Martin","zipcode":"48210"},{"establishmentid":"51623120","name":"Academy of the Americas Elementary","address":"3811 Cicotte St.","zipcode":"48217"},{"establishmentid":"968","name":"Escuela Avancemos/Logan Elementary","address":"3811 Cicotte","zipcode":"48217"},{"establishmentid":"2548","name":"METRO VENDING","address":"3401 MARTIN","zipcode":"48212"},{"establishmentid":"51622462","name":"Better Woodman","address":"3700 Gilbert","zipcode":"48210"},{"establishmentid":"51623231","name":"Community Center at 3700 Gilbert","address":"3700 Gilbert","zipcode":"48210"},{"establishmentid":"4993","name":"Carribeansoul Cafe & Catering Company","address":"3700 Gilbert","zipcode":"48210"},{"establishmentid":"5096","name":"Mia D's Soul Food Cafe & Catering","address":"3700 Gilbert","zipcode":"48210"}],"inspectionsByEstablishmentidList":[]}],"maxInspectionDate":[{"inspectionDate":"2023-04-13T00:00:00"}]}},"pageContext":{"eid":"4728"}},"staticQueryHashes":["3649515864","63159454"]}