{"componentChunkName":"component---src-templates-establishment-page-js","path":"/establishment/4745","result":{"data":{"site":{"pathPrefix":"/restaurant-inspections"},"postgres":{"establishment":[{"establishmentid":"4745","name":"S & G Vending LLC","address":"19480 Five Points St.","zipcode":"48342","owner":"Sharonda Davis","licenseNumber":"","licenseType":"Other","establishmentType":"LHD - Vending","establishmentStatus":null,"riskCategory":null,"reviewFrequencyDays":null,"coords":"-83.28716,42.43382","geojson":{"id":"4745","type":"Feature","geometry":{"type":"Point","coordinates":[-83.28715588,42.433815151]},"properties":{"name":"S & G Vending LLC","owner":"Sharonda Davis","address":"19480 Five Points St.","zipcode":"48342","license_type":"Other","risk_category":null,"license_number":"","establishmentid":"4745","establishment_type":"LHD - Vending","establishment_status":null,"review_frequency_days":null,"most_recent_license_date":null}},"nearbyList":[{"establishmentid":"5291","name":"Cosmic Burrito LLC","address":"24806 Frisbee ","zipcode":"48219"},{"establishmentid":"1220","name":"Detroit Open K-8","address":"24601 Frisbee","zipcode":"48219"},{"establishmentid":"3047","name":"Total Vending","address":"24760 Seven Mile Rd. W.","zipcode":"48219"},{"establishmentid":"2571","name":"CONTINENTAL VENDING","address":"24760 Seven Mile W.","zipcode":"48212"},{"establishmentid":"51623583","name":"Alaska Chicken and Seafood Grand River","address":"24761 7 Mile Rd. W.","zipcode":"48219"},{"establishmentid":"51623222","name":"A & N Chicken & Seafood","address":"24761 W 7 Mile Rd.","zipcode":"48219"},{"establishmentid":"751","name":"Dairy Queen ","address":"24671 Grand River Ave.","zipcode":"48219"},{"establishmentid":"51623334","name":"Dairy Queen","address":"24671 Grand River Ave","zipcode":"48219"},{"establishmentid":"243","name":"Brenda's Beans and Greens","address":"24623 Grand River Ave.","zipcode":"48219"},{"establishmentid":"2594","name":"Kenny's Ribs and Chicken","address":"24311 Seven Mile Rd. W.","zipcode":"48219"}],"inspectionsByEstablishmentidList":[]}],"maxInspectionDate":[{"inspectionDate":"2023-04-13T00:00:00"}]}},"pageContext":{"eid":"4745"}},"staticQueryHashes":["3649515864","63159454"]}