{"componentChunkName":"component---src-templates-establishment-page-js","path":"/establishment/2544","result":{"data":{"site":{"pathPrefix":"/restaurant-inspections"},"postgres":{"establishment":[{"establishmentid":"2544","name":"Robinson Dairy Vending","address":"4333 Fort W.","zipcode":"48209","owner":"Frank Caramagno","licenseNumber":"038943","licenseType":"Other","establishmentType":"LHD - Vending","establishmentStatus":"Open","riskCategory":null,"reviewFrequencyDays":"180","coords":"-83.08797,42.31191","geojson":{"id":"2544","type":"Feature","geometry":{"type":"Point","coordinates":[-83.087973878,42.311909577]},"properties":{"name":"Robinson Dairy Vending","owner":"Frank Caramagno","address":"4333 Fort W.","zipcode":"48209","license_type":"Other","risk_category":null,"license_number":"038943","establishmentid":"2544","establishment_type":"LHD - Vending","establishment_status":"Open","review_frequency_days":"180","most_recent_license_date":null}},"nearbyList":[{"establishmentid":"4557","name":"Koolies","address":"4333 West Fort","zipcode":"48212"},{"establishmentid":"4485","name":"Subway","address":"4276 Fort W.","zipcode":"48209"},{"establishmentid":"3042","name":"Sterling Services","address":"4005 Fort W.","zipcode":"48209"},{"establishmentid":"471","name":"Adela's Place","address":"4442 Fort St. W.","zipcode":"48209"},{"establishmentid":"1779","name":"Robinson Dairy Vending","address":"4617 Fort W.","zipcode":"48209"},{"establishmentid":"2883","name":"AVI Foodsystems","address":"4617 Fort St. W.","zipcode":"48209"},{"establishmentid":"2659","name":"Continental Services","address":"4617 Fort W.","zipcode":"48226"},{"establishmentid":"4595","name":"AVI Food Systems","address":"4617 West Fort St.","zipcode":"48209"},{"establishmentid":"1774","name":"Modern Vending Service","address":"4617 Fort W.","zipcode":"48209"},{"establishmentid":"4176","name":"Amelia Earhart Elementary/Middle School","address":"1000 Scotten","zipcode":"48209"}],"inspectionsByEstablishmentidList":[]}],"maxInspectionDate":[{"inspectionDate":"2023-04-25T00:00:00"}]}},"pageContext":{"eid":"2544"}},"staticQueryHashes":["3649515864","63159454"]}