{"data":{"site":{"pathPrefix":"/restaurant-inspections"},"postgres":{"establishment":[{"establishmentid":"4816","name":"WAY Academy West Campus","address":"19321 Chicago W","zipcode":"48228","owner":"WAY Academy","licenseNumber":"078731","licenseType":"Fixed Establishment","establishmentType":"Public School","establishmentStatus":"Open","riskCategory":null,"reviewFrequencyDays":"210.0","coords":"-83.23077,42.36428","geojson":{"id":"4816","type":"Feature","geometry":{"type":"Point","coordinates":[-83.230768832,42.3642753520001]},"properties":{"name":"WAY Academy West Campus","owner":"WAY Academy","address":"19321 Chicago W","zipcode":"48228","license_type":"Fixed Establishment","risk_category":null,"license_number":"078731","establishmentid":"4816","establishment_type":"Public School","establishment_status":"Open","review_frequency_days":"210.0","most_recent_license_date":null}},"nearbyList":[{"establishmentid":"1241","name":"Mann Elementary School","address":"19625 Elmira","zipcode":"48228"},{"establishmentid":"1130","name":"Mike's Coney Island","address":"19241 Joy Rd","zipcode":"48228"},{"establishmentid":"2471","name":"Ply Produce and Deli","address":"19615 Plymouth Rd","zipcode":"48228"},{"establishmentid":"5025","name":"New Bentley Lounge","address":"19631 Plymouth Rd","zipcode":"48228"},{"establishmentid":"51622775","name":"Joy & Green Mart LLC","address":"20000 Joy Rd","zipcode":"48228"},{"establishmentid":"719","name":"L. George Coney Island #7","address":"20003 Joy Rd","zipcode":"48228"},{"establishmentid":"893","name":"Cody Senior High School","address":"18445 Cathedral St","zipcode":"48228"},{"establishmentid":"977","name":"Olympia Coney Island","address":"20040 Plymouth Rd","zipcode":"48228"},{"establishmentid":"5299","name":"Plymouth Ocean Delight- Manhattan Fish","address":"20100 Plymouth Rd Suite B","zipcode":"48228"},{"establishmentid":"1786","name":"Burger King","address":"20240 Plymouth Rd","zipcode":"48228"},{"establishmentid":"2797","name":"Little Caesar's Pizza ","address":"18310 W Chicago Rd","zipcode":"48228"},{"establishmentid":"4981","name":"Market Fresh Deli","address":"18200 W Chicago","zipcode":"48228"},{"establishmentid":"455","name":"Starters Lounge","address":"18426 Plymouth Rd","zipcode":"48228"},{"establishmentid":"51622735","name":"The Custard Hut","address":"18435 Plymouth Rd","zipcode":"48228"},{"establishmentid":"2579","name":"Subway #29018","address":"18334 Joy Rd","zipcode":"48228"},{"establishmentid":"4416","name":"Detroit Innovation Academy","address":"18211 Plymouth Road","zipcode":"48228"},{"establishmentid":"4986","name":"Sterling's Old Style BBQ","address":"18241 Plymouth Rd","zipcode":"48228"},{"establishmentid":"1729","name":"McDonald's #17266","address":"18137 Joy Rd","zipcode":"48228"},{"establishmentid":"262","name":"B. M. G. Bar & Grill","address":"20809 Joy Rd","zipcode":"48228"},{"establishmentid":"5176","name":"Mary's Grill #2","address":"20804 Plymouth","zipcode":"48228"}],"inspectionsByEstablishmentidList":[{"inspectionid":"43876","inspectionDate":"2018-10-23T00:00:00","inspectionType":"Routine Inspection","inCompliance":"Yes","violationsByInspectionidList":[]},{"inspectionid":"42421","inspectionDate":"2018-06-04T00:00:00","inspectionType":"Routine Inspection","inCompliance":"Yes","violationsByInspectionidList":[]},{"inspectionid":"40303","inspectionDate":"2017-10-05T00:00:00","inspectionType":"Routine Inspection","inCompliance":"Yes","violationsByInspectionidList":[]},{"inspectionid":"38830","inspectionDate":"2017-05-22T00:00:00","inspectionType":"Routine Inspection","inCompliance":"Yes","violationsByInspectionidList":[{"violationCode":"MFL289.2129","violationDescription":"Sec. 2129. (1) All of the following food establishments shall employ a minimum of 1 managerial employee who is currently certified under a personnel certification program accredited by the American national standards institute, utilizing the conference for food protection standards:  (a) A food service establishment that is not any of the following:    (i) Operating under a temporary food service establishment license.  (ii) A vending machine location.     (b) An extended retail food establishment.  (c) Operated within a retail grocery.  (2) An individual certified under subsection (1) shall be recognized with full faith and credit by the state and all local units of government throughout the state.  (3) The department may promulgate rules to do all of the following:  (a) Develop requirements for retail food establishments to follow when employing certified food safety managers or personnel.  (b) Set a reasonable date for compliance with the requirements under subdivision (a) taking into consideration existing local personnel certification requirements.  (c) Establish certification fees necessary to implement, maintain, and track certified individuals directly or by contract. The department may annually adjust the schedule of fees to provide that the fee charged is sufficient to cover the cost of the certification tracking program.  (d) Implement and enforce the requirements described in subdivision (a).    (4) The certification program developed by the American national standards institute, as it exists on April 1, 2008 , is incorporated by reference. The department may adopt updates to the certification program accreditation standards in subsection (1) by rule.     (5) This section does not prohibit any local legislative body from implementing a food handler program, an employee health certification program, or a manager certification program, if it is not in conflict with this section.","violationType":"Core","itemDescription":"Person-in-charge","subItem":"","problemDescription":null,"subProblem":"","location":"ESTABLISHMENT","subLocation":"","corrected":"Not required","daysToCorrect":"30.0","correctedDate":null,"correctionDescription":null}]},{"inspectionid":"36883","inspectionDate":"2016-10-20T00:00:00","inspectionType":"Routine Inspection","inCompliance":"Yes","violationsByInspectionidList":[]}]}]}},"pageContext":{"eid":"4816"}}