{"componentChunkName":"component---src-templates-establishment-page-js","path":"/establishment/51623999","result":{"data":{"site":{"pathPrefix":"/restaurant-inspections"},"postgres":{"establishment":[{"establishmentid":"51623999","name":"Glass House Bar & Grill East","address":"19910 Hoover","zipcode":"48205","owner":"Ivan Vaugh","licenseNumber":"sj19910","licenseType":"Fixed Establishment","establishmentType":"Food Service Establishment","establishmentStatus":"Open","riskCategory":"High","reviewFrequencyDays":"135","coords":"-83.00459,42.44206","geojson":{"id":"51623999","type":"Feature","geometry":{"type":"Point","coordinates":[-83.004585223,42.44206227]},"properties":{"name":"Glass House Bar & Grill East","owner":"Ivan Vaugh","address":"19910 Hoover","zipcode":"48205","license_type":"Fixed Establishment","risk_category":"High","license_number":"sj19910","establishmentid":"51623999","establishment_type":"Food Service Establishment","establishment_status":"Open","review_frequency_days":"135","most_recent_license_date":"2023-03-20"}},"nearbyList":[{"establishmentid":"3654","name":"State Fair Lounge, Inc.","address":"19910 Hoover Ave.","zipcode":"48205"},{"establishmentid":"333","name":"State Fair Lounge","address":"19910 Hoover Ave.","zipcode":"48205"},{"establishmentid":"4479","name":"Hoover Pizza","address":"19934 Hoover Rd.","zipcode":"48205"},{"establishmentid":"1844","name":"Sterling Services","address":"19951 Hoover","zipcode":"48205"},{"establishmentid":"4535","name":"Continental Canteen","address":"19951 Hoover Rd","zipcode":"48205"},{"establishmentid":"4584","name":"Total Vending","address":"20101 Hoover","zipcode":"48205"},{"establishmentid":"2523","name":"Koolies","address":"11900 8 Mile Rd. E.","zipcode":"48205"},{"establishmentid":"2569","name":"Consolidated Vendors Corp.","address":"11900 Eight Mile Rd. E.","zipcode":"48205"},{"establishmentid":"1431","name":"BT'S (Tycoons DBA Celebrity Reservation)","address":"12210 Eight Mile Rd. E.","zipcode":"48205"},{"establishmentid":"3797","name":"R & D One Stop Meals","address":"11811 Seven Mile Rd. E.","zipcode":"48205"}],"inspectionsByEstablishmentidList":[]}],"maxInspectionDate":[{"inspectionDate":"2023-04-25T00:00:00"}]}},"pageContext":{"eid":"51623999"}},"staticQueryHashes":["3649515864","63159454"]}