{"componentChunkName":"component---src-templates-establishment-page-js","path":"/establishment/403","result":{"data":{"site":{"pathPrefix":"/restaurant-inspections"},"postgres":{"establishment":[{"establishmentid":"403","name":"Universal Academy","address":"4612 Lonyo","zipcode":"48210","owner":"Hamadeh Ed","licenseNumber":"034154","licenseType":"Fixed Establishment","establishmentType":"Non-Public School","establishmentStatus":"Open","riskCategory":null,"reviewFrequencyDays":"180","coords":"-83.14215,42.32815","geojson":{"id":"403","type":"Feature","geometry":{"type":"Point","coordinates":[-83.142153444,42.328153892]},"properties":{"name":"Universal Academy","owner":"Hamadeh Ed","address":"4612 Lonyo","zipcode":"48210","license_type":"Fixed Establishment","risk_category":null,"license_number":"034154","establishmentid":"403","establishment_type":"Non-Public School","establishment_status":"Open","review_frequency_days":"180","most_recent_license_date":"7/25/2014"}},"nearbyList":[{"establishmentid":"881","name":"Mannecrop Inc./The Horse (Crazy Horse)","address":"8140 Michigan Ave.","zipcode":"48210"},{"establishmentid":"1728","name":"Alpacino","address":"8226 Michigan","zipcode":"48210"},{"establishmentid":"2139","name":"Celebrity Bar & Grill","address":"8228 Michigan","zipcode":"48210"},{"establishmentid":"51622970","name":"MAA Gas and More","address":"7931 Michigan","zipcode":"48210"},{"establishmentid":"51623428","name":"Greek Grill","address":"7931 Michigan","zipcode":"48210"},{"establishmentid":"51623813","name":"Alaska Express","address":"7931 Michigan Ave.","zipcode":"48210"},{"establishmentid":"4784","name":"Universal Academy","address":"4833 Ogden","zipcode":"48210"},{"establishmentid":"969","name":"Universal Academy","address":"4833 Ogden St.","zipcode":"48210"},{"establishmentid":"3198","name":"Angel's Place","address":"7824 Michigan Ave.","zipcode":"48210"},{"establishmentid":"1283","name":"Papa's Pizza & Subs","address":"7801 Michigan Ave.","zipcode":"48210"}],"inspectionsByEstablishmentidList":[]}],"maxInspectionDate":[{"inspectionDate":"2022-07-25T00:00:00"}]}},"pageContext":{"eid":"403"}},"staticQueryHashes":["3649515864","63159454"]}