{"data":{"site":{"pathPrefix":"/restaurant-inspections"},"postgres":{"establishment":[{"establishmentid":"51622867","name":"Allenby/Fort Street Galley","address":"160 W Fort St","zipcode":"48226","owner":"Michael Goldberg","licenseNumber":"238180","licenseType":"Fixed Establishment","establishmentType":"Food Service Establishment","establishmentStatus":"Permanently Closed","riskCategory":"High","reviewFrequencyDays":"180","coords":"-83.04859,42.33058","geojson":{"id":"51622867","type":"Feature","geometry":{"type":"Point","coordinates":[-83.048586349,42.330578971]},"properties":{"name":"Allenby/Fort Street Galley","owner":"Michael Goldberg","address":"160 W Fort St","zipcode":"48226","license_type":"Fixed Establishment","risk_category":"High","license_number":"238180","establishmentid":"51622867","establishment_type":"Food Service Establishment","establishment_status":"Permanently Closed","review_frequency_days":"180","most_recent_license_date":"4/29/2019"}},"nearbyList":[{"establishmentid":"51622865","name":"Lucky's Noble BBQ/Fort Street Galley","address":"160 W Fort St","zipcode":"48226"},{"establishmentid":"51622866","name":"Isla/Fort Street Galley","address":"160 W Fort St","zipcode":"48226"},{"establishmentid":"5320","name":"Maru Detroit","address":"160 W Fort St","zipcode":"48226"},{"establishmentid":"51622868","name":"Pursue/Fort Street Galley","address":"160 W Fort St","zipcode":"48226"},{"establishmentid":"51622819","name":"Fort Street Galley- Bar & Table","address":"160 W Fort St","zipcode":"48226"},{"establishmentid":"51623044","name":"Michigan & Trumbull/Fort Street Galley","address":"160 W Fort St","zipcode":"48226"},{"establishmentid":"51623307","name":"Kwench Juice ","address":"719 Griswold Ste 10","zipcode":"48226"},{"establishmentid":"4866","name":"Dime Store","address":"719 Griswold St Ste 180","zipcode":"48226"},{"establishmentid":"51622853","name":"Kwench Juice Cafe'","address":"719 Griswold","zipcode":"48226"},{"establishmentid":"5039","name":"Mikes Kabob Grille","address":"719 Griswold Ste 140","zipcode":"48226"}],"inspectionsByEstablishmentidList":[{"inspectionid":"45199","inspectionDate":"2019-02-15T00:00:00","inspectionType":"Routine Inspection","inCompliance":"Yes","violationsByInspectionidList":[{"violationCode":"4-903.11","violationDescription":"Cleaned EQUIPMENT and UTENSILS, laundered LINENS, and SINGLE-SERVICE and SINGLE-USE ARTICLES shall be stored in an approved manner and location.\r\n","violationType":"Core","itemDescription":"Clean equipment/utensil(s)","subItem":"","problemDescription":"Exposed to dust, splash, or other contaminates","subProblem":"","location":"HANDSINK(S)","subLocation":"","corrected":"Not required","daysToCorrect":"30","correctedDate":null,"correctionDescription":"Store in manner that does not contaminate items"}]}]}],"maxInspectionDate":[{"inspectionDate":"2020-10-30T00:00:00"}]}},"pageContext":{"eid":"51622867"}}