{"data":{"postgres":{"establishment":[{"establishmentid":"548","name":"Israel of God Church","address":"3533 E Forest Ave","zipcode":"48207","owner":"Israel of God Church","licenseNumber":"034401","licenseType":"Fixed Establishment","establishmentType":"Food Service Establishment","establishmentStatus":"Open","riskCategory":"Medium","reviewFrequencyDays":"365.0","coords":"-83.02987,42.36713","geojson":{"id":"548","type":"Feature","geometry":{"type":"Point","coordinates":[-83.02987319,42.367131516]},"properties":{"name":"Israel of God Church","owner":"Israel of God Church","address":"3533 E Forest Ave","zipcode":"48207","license_type":"Fixed Establishment","risk_category":"Medium","license_number":"034401","establishmentid":"548","establishment_type":"Food Service Establishment","establishment_status":"Open","review_frequency_days":"365.0","most_recent_license_date":"4/23/2018"}},"nearbyList":[{"establishmentid":"1350","name":"Kentucky Fried Chicken","address":"3785 Gratiot","zipcode":"48207"},{"establishmentid":"541","name":"D Motown Deli","address":"3750 Gratiot Ave","zipcode":"48207"},{"establishmentid":"4926","name":"Boggs, James & Grace Lee Boggs School","address":"4141 Mitchell","zipcode":"48207"},{"establishmentid":"1872","name":"Terry's Casablanca","address":"6366 Gratiot Ave              ","zipcode":"48207"},{"establishmentid":"51622851","name":"Dilla's Delights LLC","address":"4731 Bellevue St","zipcode":"48207"},{"establishmentid":"51622484","name":"Avalon Commissary","address":"4731 Bellevue St","zipcode":"48207"},{"establishmentid":"648","name":"Ivanhoe Cafe ","address":"5249 Joseph Campau Ave","zipcode":"48211"},{"establishmentid":"654","name":"Gratiot Grill Coney Island","address":"3121 Gratiot Ave","zipcode":"48207"},{"establishmentid":"313","name":"R.A.R.D. El Capri Bar","address":"1673 E Grand Blvd","zipcode":"48211"},{"establishmentid":"4254","name":"Legends Grill","address":"5805 Mt Elliott Ave","zipcode":"48211"},{"establishmentid":"600","name":"Metropolitan Prince Hall","address":"3500 McDougall Rd","zipcode":"48207"},{"establishmentid":"1578","name":"Grandy's Coney Island","address":"3570 Mt Elliott Rd","zipcode":"48207"},{"establishmentid":"3814","name":"Royal Barbecue and Grill","address":"5844 Mt Elliott Ave","zipcode":"48211"},{"establishmentid":"51622486","name":"Lumen Detroit","address":"1903 Grand River ","zipcode":"48226"},{"establishmentid":"2824","name":"Ross-Hill Academy","address":"3111 Elmwood","zipcode":"48207"},{"establishmentid":"51622855","name":"Detroit Collegiate High School","address":"3111 Elmwood","zipcode":"48207"},{"establishmentid":"330","name":"Raven Lounge & Restaurant","address":"5145 Chene St","zipcode":"48211"},{"establishmentid":"1302","name":"Krystal's Korner","address":"5700 Canton St","zipcode":"48211"},{"establishmentid":"4294","name":"King Fish Market","address":"1167 E Grand Blvd","zipcode":"48211"},{"establishmentid":"1076","name":"Franklin Wright Settlement","address":"3360 Charlevoix","zipcode":"48207"}],"inspectionsByEstablishmentidList":[{"inspectionid":"42979","inspectionDate":"2018-07-26T00:00:00","inspectionType":"Routine Inspection","inCompliance":"Yes","violationsByInspectionidList":[]},{"inspectionid":"39067","inspectionDate":"2017-06-20T00:00:00","inspectionType":"Routine Inspection","inCompliance":"Yes","violationsByInspectionidList":[]}]}]}},"pageContext":{"eid":"548"}}