{"componentChunkName":"component---src-templates-establishment-page-js","path":"/establishment/3648","result":{"data":{"site":{"pathPrefix":"/restaurant-inspections"},"postgres":{"establishment":[{"establishmentid":"3648","name":"Sheraton Detroit Riverside","address":"2 Washington Blvd","zipcode":"48226","owner":"Sanjay Patel","licenseNumber":"033971","licenseType":"Fixed Establishment","establishmentType":"Food Service Establishment","establishmentStatus":"Open","riskCategory":null,"reviewFrequencyDays":"150","coords":"-83.04766,42.32800","geojson":{"id":"3648","type":"Feature","geometry":{"type":"Point","coordinates":[-83.047662319,42.32800273]},"properties":{"name":"Sheraton Detroit Riverside","owner":"Sanjay Patel","address":"2 Washington Blvd","zipcode":"48226","license_type":"Fixed Establishment","risk_category":null,"license_number":"033971","establishmentid":"3648","establishment_type":"Food Service Establishment","establishment_status":"Open","review_frequency_days":"150","most_recent_license_date":"19/5/2009"}},"nearbyList":[{"establishmentid":"51622736","name":"Pontchartrain Hotel-Jefferson House/Main","address":"2 Washington blvd","zipcode":"48226"},{"establishmentid":"4628","name":"La Dulce","address":"2 Washington Blvd.","zipcode":"48226"},{"establishmentid":"4768","name":"Pontchartrain Hotel - Tabbacci","address":"2 Washington Blvd.","zipcode":"48226"},{"establishmentid":"4918","name":"Pontchartrain Hotel- Top of the Pontch","address":"2 Washington","zipcode":"48226"},{"establishmentid":"294","name":"Pontchartrain Hotel - Main Kitchen","address":"2 Washington Blvd.","zipcode":"48226"},{"establishmentid":"3616","name":"SheratonDetroit  Riverside","address":"2 Washington Blvd","zipcode":"48226"},{"establishmentid":"1921","name":"Envy","address":"234 Larned W.","zipcode":"48226"},{"establishmentid":"1477","name":"The Board Room","address":"536 Shelby","zipcode":"48226"},{"establishmentid":"3868","name":"Wah Hoo Chinese","address":"536 Shelby","zipcode":"48226"},{"establishmentid":"51622489","name":"Foundation Hotel- Employee Dining","address":"250 Larned W.","zipcode":"48226"}],"inspectionsByEstablishmentidList":[]}],"maxInspectionDate":[{"inspectionDate":"2023-04-13T00:00:00"}]}},"pageContext":{"eid":"3648"}},"staticQueryHashes":["3649515864","63159454"]}