{"componentChunkName":"component---src-templates-establishment-page-js","path":"/establishment/51623655","result":{"data":{"site":{"pathPrefix":"/restaurant-inspections"},"postgres":{"establishment":[{"establishmentid":"51623655","name":"Comerica Park-Chevy Atwater Bar","address":"2100 Woodward","zipcode":"48201","owner":"Detroit Sportservice ","licenseNumber":"PR22024E","licenseType":"Fixed Establishment","establishmentType":"Food Service Establishment","establishmentStatus":"New License ","riskCategory":null,"reviewFrequencyDays":null,"coords":"-83.04890,42.33918","geojson":{"id":"51623655","type":"Feature","geometry":{"type":"Point","coordinates":[-83.048898226,42.339179962]},"properties":{"name":"Comerica Park-Chevy Atwater Bar","owner":"Detroit Sportservice ","address":"2100 Woodward","zipcode":"48201","license_type":"Fixed Establishment","risk_category":null,"license_number":"PR22024E","establishmentid":"51623655","establishment_type":"Food Service Establishment","establishment_status":"New License ","review_frequency_days":null,"most_recent_license_date":null}},"nearbyList":[{"establishmentid":"4222","name":"Comerica Park- Michigan Craft Beer","address":"2100 Woodward Ave.","zipcode":"48201"},{"establishmentid":"4221","name":"Comerica Park- Press Box Lounge","address":"2100 Woodward Ave.","zipcode":"48201"},{"establishmentid":"4218","name":"Comerica Park- Kitchens Upper/Lower","address":"2100 Woodward Ave.","zipcode":"48201"},{"establishmentid":"2437","name":"Comerica Park","address":"2100 Woodward Ave.","zipcode":"48201"},{"establishmentid":"4219","name":"Comerica Park- Tiger Club #300","address":"2100 Woodward Ave.","zipcode":"48201"},{"establishmentid":"4220","name":"Comerica Park- Champions Club","address":"2100 Woodward Ave.","zipcode":"48201"},{"establishmentid":"4217","name":"Comerica Park- Tiger Den/Beer Hall","address":"2100 Woodward Ave.","zipcode":"48201"},{"establishmentid":"409","name":"Leo's Coney Island","address":"2100 Woodward Ave.","zipcode":"48201"},{"establishmentid":"2063","name":"Fifth Avenue Downtown","address":"2100 Woodward","zipcode":"48201"},{"establishmentid":"4223","name":"Comerica Park- 300 Level Lounge","address":"2100 Woodward Ave.","zipcode":"48201"}],"inspectionsByEstablishmentidList":[{"inspectionid":"58302","inspectionDate":"2022-04-12T00:00:00","inspectionType":"Routine Inspection","inCompliance":"Yes","violationsByInspectionidList":[]},{"inspectionid":"58303","inspectionDate":"2022-04-07T00:00:00","inspectionType":"Plan Review/Pre-Open","inCompliance":"Yes","violationsByInspectionidList":[]}]}],"maxInspectionDate":[{"inspectionDate":"2022-07-25T00:00:00"}]}},"pageContext":{"eid":"51623655"}},"staticQueryHashes":["3649515864","63159454"]}