{"componentChunkName":"component---src-templates-establishment-page-js","path":"/establishment/4872","result":{"data":{"site":{"pathPrefix":"/restaurant-inspections"},"postgres":{"establishment":[{"establishmentid":"4872","name":"313 BBQ Inc.","address":"20100 Plymouth","zipcode":"48228","owner":"Mariam Shohrouri","licenseNumber":"ps112414","licenseType":"Fixed Establishment","establishmentType":"Food Service Establishment","establishmentStatus":"Plan Review","riskCategory":null,"reviewFrequencyDays":null,"coords":"-83.23778,42.37214","geojson":{"id":"4872","type":"Feature","geometry":{"type":"Point","coordinates":[-83.237781581,42.372138878]},"properties":{"name":"313 BBQ Inc.","owner":"Mariam Shohrouri","address":"20100 Plymouth","zipcode":"48228","license_type":"Fixed Establishment","risk_category":null,"license_number":"ps112414","establishmentid":"4872","establishment_type":"Food Service Establishment","establishment_status":"Plan Review","review_frequency_days":null,"most_recent_license_date":"4/20/2015"}},"nearbyList":[{"establishmentid":"5299","name":"Plymouth Ocean Delight- Manhattan Fish","address":"20100 Plymouth Rd. Suite B","zipcode":"48228"},{"establishmentid":"51623034","name":"Manhattan Fish & Chicken","address":"20100 Plymouth Rd","zipcode":"48228"},{"establishmentid":"977","name":"Olympia Coney Island","address":"20040 Plymouth Rd.","zipcode":"48228"},{"establishmentid":"51623377","name":"Olympia Coney Island ","address":"20040 Plymouth Rd","zipcode":"48228"},{"establishmentid":"622","name":"Metro Fish and Chicken","address":"20152 Plymouth Rd.","zipcode":"48228"},{"establishmentid":"1786","name":"Burger King","address":"20240 Plymouth Rd.","zipcode":"48228"},{"establishmentid":"5025","name":"New Bentley Lounge","address":"19631 Plymouth","zipcode":"48228"},{"establishmentid":"621","name":"Bentley Lounge","address":"19631 Plymouth Rd.","zipcode":"48228"},{"establishmentid":"2471","name":"Ply Produce and Deli","address":"19615 Plymouth Rd.","zipcode":"48228"},{"establishmentid":"5097","name":"Ply Produce and Deli","address":"19615 Plymouth Rd.","zipcode":"48228"}],"inspectionsByEstablishmentidList":[]}],"maxInspectionDate":[{"inspectionDate":"2022-08-31T00:00:00"}]}},"pageContext":{"eid":"4872"}},"staticQueryHashes":["3649515864","63159454"]}