{"componentChunkName":"component---src-templates-establishment-page-js","path":"/establishment/51623106","result":{"data":{"site":{"pathPrefix":"/restaurant-inspections"},"postgres":{"establishment":[{"establishmentid":"51623106","name":"Flow Inc. (Proper Edge)","address":"2315 Orleans","zipcode":"48207","owner":"Teresa Norman","licenseNumber":"PR19118A","licenseType":"Fixed Establishment","establishmentType":"Food Service Establishment","establishmentStatus":"Plan Review","riskCategory":null,"reviewFrequencyDays":null,"coords":"-83.03649,42.34574","geojson":{"id":"51623106","type":"Feature","geometry":{"type":"Point","coordinates":[-83.036489923,42.345739418]},"properties":{"name":"Flow Inc. (Proper Edge)","owner":"Teresa Norman","address":"2315 Orleans","zipcode":"48207","license_type":"Fixed Establishment","risk_category":null,"license_number":"PR19118A","establishmentid":"51623106","establishment_type":"Food Service Establishment","establishment_status":"Plan Review","review_frequency_days":null,"most_recent_license_date":null}},"nearbyList":[{"establishmentid":"51622862","name":"Gratiot Ave. Provisions","address":"1528 Gratiot","zipcode":"48207"},{"establishmentid":"228","name":"Times Square Deli","address":"2431 Orleans Ave.","zipcode":"48146"},{"establishmentid":"51623839","name":"La Ventana Cafe","address":"1492 Gratiot","zipcode":"48207"},{"establishmentid":"51623772","name":"Marrow Eastern Market LLC","address":"2442 Riopelle","zipcode":"48207"},{"establishmentid":"5024","name":"Trinosophes LLC","address":"1464  Gratiot Ave.","zipcode":"48207"},{"establishmentid":"4909","name":"Trinosophes","address":"1464 Gratiot Ave.","zipcode":"48207"},{"establishmentid":"4964","name":"Detroit City Distillery","address":"2462 Riopelle St.","zipcode":"48207"},{"establishmentid":"51623422","name":"Detroit City Distillery Food Truck","address":"2462 Riopelle","zipcode":"48207"},{"establishmentid":"51623416","name":"Soo Fraiche Grill","address":"2478 Riopelle St.","zipcode":"48207"},{"establishmentid":"51623152","name":"Bea's Detroit","address":"1533 Winder St.","zipcode":"48207"}],"inspectionsByEstablishmentidList":[]}],"maxInspectionDate":[{"inspectionDate":"2022-08-31T00:00:00"}]}},"pageContext":{"eid":"51623106"}},"staticQueryHashes":["3649515864","63159454"]}