{"componentChunkName":"component---src-templates-establishment-page-js","path":"/establishment/51623624","result":{"data":{"site":{"pathPrefix":"/restaurant-inspections"},"postgres":{"establishment":[{"establishmentid":"51623624","name":"Tacos Del Barrio","address":"1201 Livernois","zipcode":"48209","owner":"Christian Munoz-Tacos Del Barr","licenseNumber":"261978","licenseType":"Special Transitory Food Unit","establishmentType":"LHD - Special Transitory Food","establishmentStatus":"Seasonal","riskCategory":null,"reviewFrequencyDays":"335","coords":"-83.10646,42.31039","geojson":{"id":"51623624","type":"Feature","geometry":{"type":"Point","coordinates":[-83.106456979,42.310390554]},"properties":{"name":"Tacos Del Barrio","owner":"Christian Munoz-Tacos Del Barr","address":"1201 Livernois","zipcode":"48209","license_type":"Special Transitory Food Unit","risk_category":null,"license_number":"261978","establishmentid":"51623624","establishment_type":"LHD - Special Transitory Food","establishment_status":"Seasonal","review_frequency_days":"335","most_recent_license_date":null}},"nearbyList":[{"establishmentid":"51623707","name":"The Real Boss","address":"1201 Livernois","zipcode":"48209"},{"establishmentid":"51623765","name":"Taco's Del Barrio LLC #2","address":"1201 Livernois","zipcode":"48209"},{"establishmentid":"51623785","name":"The Real Boss #2","address":"1201 Livernois","zipcode":"48209"},{"establishmentid":"4275","name":"Monica Montiel/Patton Park Soccer","address":"1251 Dragoon","zipcode":"48209"},{"establishmentid":"5254","name":"Mariscos Monica","address":"1251 Dragoon St.","zipcode":"48209"},{"establishmentid":"3674","name":"La Poblanita","address":"6355 Regular","zipcode":"48209"},{"establishmentid":"3610","name":"Taco El Primo #1","address":"1509 Casgrain","zipcode":"48209"},{"establishmentid":"4024","name":"Tacos El Primo #2","address":"1509 Casgrain","zipcode":"48209"},{"establishmentid":"4080","name":"Tacos El Pariente","address":"1509  Casgrain","zipcode":"48209"},{"establishmentid":"2179","name":"Silly Chilly's","address":"1253 Cavalry","zipcode":"48209"}],"inspectionsByEstablishmentidList":[{"inspectionid":"58263","inspectionDate":"2022-04-12T00:00:00","inspectionType":"Mobile Inspection","inCompliance":"Yes","violationsByInspectionidList":[]},{"inspectionid":"58175","inspectionDate":"2022-02-15T00:00:00","inspectionType":"Preopening/New","inCompliance":"Yes","violationsByInspectionidList":[]}]}],"maxInspectionDate":[{"inspectionDate":"2022-08-31T00:00:00"}]}},"pageContext":{"eid":"51623624"}},"staticQueryHashes":["3649515864","63159454"]}