{"componentChunkName":"component---src-templates-establishment-page-js","path":"/establishment/338","result":{"data":{"site":{"pathPrefix":"/restaurant-inspections"},"postgres":{"establishment":[{"establishmentid":"338","name":"EL PAPA DE LOS POLLITOS","address":"4049 Vernor Ave. W.","zipcode":"48209","owner":"Herlinda Garcia","licenseNumber":"067306","licenseType":"Fixed Establishment","establishmentType":"Food Service Establishment","establishmentStatus":"Plan Review","riskCategory":null,"reviewFrequencyDays":"150","coords":"-83.09269,42.32130","geojson":{"id":"338","type":"Feature","geometry":{"type":"Point","coordinates":[-83.092690023,42.321302978]},"properties":{"name":"EL PAPA DE LOS POLLITOS","owner":"Herlinda Garcia","address":"4049 Vernor Ave. W.","zipcode":"48209","license_type":"Fixed Establishment","risk_category":null,"license_number":"067306","establishmentid":"338","establishment_type":"Food Service Establishment","establishment_status":"Plan Review","review_frequency_days":"150","most_recent_license_date":"2012-05-01"}},"nearbyList":[{"establishmentid":"5308","name":"Mangonadas Del Barrio #1, LLC","address":"4029 Vernor W.","zipcode":"48209"},{"establishmentid":"4178","name":"Mexican Fiesta Center","address":"4114 W.Vernor","zipcode":"48209"},{"establishmentid":"5209","name":"El Club","address":"4114 Vernor W.","zipcode":"48209"},{"establishmentid":"4671","name":"El Comal Grill","address":"3970 Vernor W.","zipcode":"48216"},{"establishmentid":"2443","name":"Tortas Gigantes & Taqueria La Raza","address":"3960 VERNOR W.","zipcode":"48216"},{"establishmentid":"3572","name":"Cafe Con Leche","address":"4200 Vernor St. W.","zipcode":"48209"},{"establishmentid":"51623057","name":"Pete's Down-N-Out Taco's","address":"3923 W. Vernor Hwy.","zipcode":"48216"},{"establishmentid":"794","name":"Armando's Mexican Restaurant","address":"4242 Vernor St. W.","zipcode":"48209"},{"establishmentid":"822","name":"Western Senior High School","address":"1500 Scotten Ave.","zipcode":"48209"},{"establishmentid":"1307","name":"Amicci's Pizza","address":"3849 Vernor St. W.","zipcode":"48216"}],"inspectionsByEstablishmentidList":[]}],"maxInspectionDate":[{"inspectionDate":"2023-04-25T00:00:00"}]}},"pageContext":{"eid":"338"}},"staticQueryHashes":["3649515864","63159454"]}