{"componentChunkName":"component---src-templates-establishment-page-js","path":"/establishment/3987","result":{"data":{"site":{"pathPrefix":"/restaurant-inspections"},"postgres":{"establishment":[{"establishmentid":"3987","name":"Yemen Nights Cafe of Detroit","address":"9310 Michigan","zipcode":"48210","owner":"Fozz Al-Shohatee","licenseNumber":"065941","licenseType":"Fixed Establishment","establishmentType":"Food Service Establishment","establishmentStatus":"Open","riskCategory":null,"reviewFrequencyDays":"150","coords":"-83.15449,42.32861","geojson":{"id":"3987","type":"Feature","geometry":{"type":"Point","coordinates":[-83.154489757,42.32860955]},"properties":{"name":"Yemen Nights Cafe of Detroit","owner":"Fozz Al-Shohatee","address":"9310 Michigan","zipcode":"48210","license_type":"Fixed Establishment","risk_category":null,"license_number":"065941","establishmentid":"3987","establishment_type":"Food Service Establishment","establishment_status":"Open","review_frequency_days":"150","most_recent_license_date":"3/1/2010"}},"nearbyList":[{"establishmentid":"395","name":"La Hungry Boyer","address":"9310 Michigan","zipcode":"48210"},{"establishmentid":"4236","name":"Game Time Coney Bar & Grill","address":"9310 Michigan Ave.","zipcode":"48210"},{"establishmentid":"4482","name":"Checkers","address":"9515 Michigan","zipcode":"48210"},{"establishmentid":"51623718","name":"Nicky D's","address":"9515 Michigan Ave.","zipcode":"48210"},{"establishmentid":"1358","name":"Al Rayaan Coney Island","address":"9515 Michigan Ave.","zipcode":"48210"},{"establishmentid":"431","name":"Club Venus","address":"9506-9510 Michigan Ave.","zipcode":"48210"},{"establishmentid":"231","name":"Cafe Expresso Bongo","address":"8900 McGraw","zipcode":"48210"},{"establishmentid":"2753","name":"McGraw Coney Express","address":"8900 McGraw","zipcode":"48210"},{"establishmentid":"3902","name":"Al Amin Fish & Chicken","address":"8900 McGraw","zipcode":"48210"},{"establishmentid":"5188","name":"Avenue Grill Plus","address":"8900 McGraw","zipcode":"48228"}],"inspectionsByEstablishmentidList":[]}],"maxInspectionDate":[{"inspectionDate":"2022-08-31T00:00:00"}]}},"pageContext":{"eid":"3987"}},"staticQueryHashes":["3649515864","63159454"]}