{"data":{"postgres":{"establishment":[{"establishmentid":"2752","name":"Studio 51","address":"1995 Woodbridge St","zipcode":"48207","owner":"Tyrone Vass","licenseNumber":"056745","licenseType":"Fixed Establishment","establishmentType":"Food Service Establishment","establishmentStatus":"Open","riskCategory":null,"reviewFrequencyDays":"365.0","coords":"-83.02680,42.33561","geojson":{"id":"2752","type":"Feature","geometry":{"type":"Point","coordinates":[-83.026796409,42.3356124100001]},"properties":{"name":"Studio 51","owner":"Tyrone Vass","address":"1995 Woodbridge St","zipcode":"48207","license_type":"Fixed Establishment","risk_category":null,"license_number":"056745","establishmentid":"2752","establishment_type":"Food Service Establishment","establishment_status":"Open","review_frequency_days":"365.0","most_recent_license_date":"4/26/2018"}},"nearbyList":[{"establishmentid":"5313","name":"Chill","address":"2000 Woodbridge","zipcode":"48207"},{"establishmentid":"1953","name":"Main Street Grill and Coney Island","address":"1985 E Jefferson Ave","zipcode":"48207"},{"establishmentid":"5079","name":"Diversified Members Credit Union","address":"1480 E Jefferson Ave","zipcode":"48207"},{"establishmentid":"775","name":"Yondotega Club","address":"1450 E Jefferson Ave","zipcode":"48207"},{"establishmentid":"2357","name":"Steve's Soul Food Det/The Key Club","address":"1440 Franklin #200","zipcode":"48207"},{"establishmentid":"2620","name":"Chene Park","address":"2600 Atwater St","zipcode":"48207"},{"establishmentid":"5297","name":"Papa's Pizza","address":"1405 E Jefferson Ave","zipcode":"48207"},{"establishmentid":"4100","name":"University Prep Science & Math High ","address":"2664 Franklin St","zipcode":"48226"},{"establishmentid":"657","name":"IHOP #01284","address":"2701 E Jefferson Ave","zipcode":"48207"},{"establishmentid":"456","name":"Lucky Dragon","address":"2664 E Jefferson Ave","zipcode":"48207"},{"establishmentid":"5206","name":"Bucharest Grill","address":"2684 E Jefferson Ave","zipcode":"48207"},{"establishmentid":"1618","name":"Bai Mai Thai Lafayette","address":"1541 E Lafayette Ave","zipcode":"48207"},{"establishmentid":"4756","name":"Urban Soul Restaurant","address":"1535 E Lafayette Ave","zipcode":"48207"},{"establishmentid":"449","name":"Clique Restaurant","address":"1326 E Jefferson Ave","zipcode":"48207"},{"establishmentid":"5199","name":"Riverwalk Cafe Carousel","address":"1340 E Atwater St","zipcode":"48207"},{"establishmentid":"1039","name":"Chrysler Elementary","address":"1445 E Lafayette Ave","zipcode":"48238"},{"establishmentid":"3425","name":"They Say/Dunco Holding LLC","address":"267 Joseph Campau","zipcode":"48207"},{"establishmentid":"1474","name":"Bunche Elementary","address":"2715 Macomb","zipcode":"48207"},{"establishmentid":"1251","name":"Parkview Place","address":"1401 Chene St","zipcode":"48207"},{"establishmentid":"5143","name":"Atwater Brewery","address":"237 Joseph Campau St","zipcode":"48207"}],"inspectionsByEstablishmentidList":[{"inspectionid":"43752","inspectionDate":"2018-10-10T00:00:00","inspectionType":"Routine Inspection","inCompliance":"Yes","violationsByInspectionidList":[]},{"inspectionid":"38560","inspectionDate":"2017-04-25T00:00:00","inspectionType":"Routine Inspection","inCompliance":"Yes","violationsByInspectionidList":[{"violationCode":"4-302.14","violationDescription":"A test kit or other device that accurately measures the concentration in mg/L of SANITIZING solutions shall be provided. (Pf)\r\n","violationType":"Foundation","itemDescription":"Sanitizer test kit","subItem":"quaternary ammonia","problemDescription":"Not provided","subProblem":"","location":"SANITIZER","subLocation":"At the Test strips","corrected":"Yes","daysToCorrect":"10.0","correctedDate":"2017-04-26T00:00:00","correctionDescription":"Provide as required"}]}]}]}},"pageContext":{"eid":"2752"}}