{"componentChunkName":"component---src-templates-establishment-page-js","path":"/establishment/4174","result":{"data":{"site":{"pathPrefix":"/restaurant-inspections"},"postgres":{"establishment":[{"establishmentid":"4174","name":"AC's Hot Dog Express #2","address":"13501  Greenfield St.","zipcode":"48227","owner":"David Carter","licenseNumber":"038365","licenseType":"Special Transitory Food Unit","establishmentType":"LHD - Special Transitory Food","establishmentStatus":null,"riskCategory":null,"reviewFrequencyDays":null,"coords":"-83.19833,42.38492","geojson":{"id":"4174","type":"Feature","geometry":{"type":"Point","coordinates":[-83.198331967,42.384922612]},"properties":{"name":"AC's Hot Dog Express #2","owner":"David Carter","address":"13501  Greenfield St.","zipcode":"48227","license_type":"Special Transitory Food Unit","risk_category":null,"license_number":"038365","establishmentid":"4174","establishment_type":"LHD - Special Transitory Food","establishment_status":null,"review_frequency_days":null,"most_recent_license_date":null}},"nearbyList":[{"establishmentid":"1988","name":"Greenfield Deli","address":"13573 Greenfield","zipcode":"48227"},{"establishmentid":"5228","name":"All Star Fish & Seafood Inc.","address":"13585 Greenfield","zipcode":"48227"},{"establishmentid":"3326","name":"Jazeera","address":"12900 Greenfield Rd.","zipcode":"48212"},{"establishmentid":"2490","name":"C B R","address":"12900 Greenfield Rd.","zipcode":"48227"},{"establishmentid":"2484","name":"MISTER SOFTY TREAT #3","address":"12900 Greenfield Rd.","zipcode":"48227"},{"establishmentid":"2177","name":"My Man Ice Cream","address":"12900 Greenfield Rd.","zipcode":"48227"},{"establishmentid":"2229","name":"Eats & Treats","address":"12900 Greenfield Rd.","zipcode":"48227"},{"establishmentid":"2182","name":"KAHEE PLUS...","address":"12900 Greenfield Ave.","zipcode":"48227"},{"establishmentid":"2168","name":"THREE SCOOPS ICE CREAM","address":"12900 Greenfield Rd.","zipcode":"48209"},{"establishmentid":"3113","name":"Uhuru Softee","address":"12900 Greenfield Rd.","zipcode":"48227"}],"inspectionsByEstablishmentidList":[]}],"maxInspectionDate":[{"inspectionDate":"2022-08-31T00:00:00"}]}},"pageContext":{"eid":"4174"}},"staticQueryHashes":["3649515864","63159454"]}