{"componentChunkName":"component---src-templates-establishment-page-js","path":"/establishment/3343","result":{"data":{"site":{"pathPrefix":"/restaurant-inspections"},"postgres":{"establishment":[{"establishmentid":"3343","name":"U S. Scream Machine","address":"17853 Conant","zipcode":"48212","owner":"CJHS & Co., LLC","licenseNumber":"037595","licenseType":"Mobile Food Establishment","establishmentType":"LHD - Mobile Food Establishmen","establishmentStatus":"Open","riskCategory":null,"reviewFrequencyDays":"335","coords":"-83.06822,42.42435","geojson":{"id":"3343","type":"Feature","geometry":{"type":"Point","coordinates":[-83.06822032,42.424345303]},"properties":{"name":"U S. Scream Machine","owner":"CJHS & Co., LLC","address":"17853 Conant","zipcode":"48212","license_type":"Mobile Food Establishment","risk_category":null,"license_number":"037595","establishmentid":"3343","establishment_type":"LHD - Mobile Food Establishmen","establishment_status":"Open","review_frequency_days":"335","most_recent_license_date":"2007-06-07"}},"nearbyList":[{"establishmentid":"2167","name":"Mister Softy","address":"17853 Conant Ave.","zipcode":"48212"},{"establishmentid":"2180","name":"ICE CREAM LAND","address":"17853 Conant Ave.","zipcode":"48212"},{"establishmentid":"2157","name":"MR SOFTEE - SALEH ICE CREAM","address":"17853 Conant Ave.","zipcode":"48212"},{"establishmentid":"2106","name":"MR FRESH ICE CREAM","address":"17853 Conant Ave.","zipcode":"48212"},{"establishmentid":"2174","name":"SOFT SERVE","address":"17853 Conant Ave.","zipcode":"48212"},{"establishmentid":"2173","name":"ICE CREAM CITY","address":"17853 Conant Ave.","zipcode":"48212"},{"establishmentid":"2105","name":"Mr. Soft Serve","address":"17853 Conant Ave.","zipcode":"48212"},{"establishmentid":"2090","name":"Family Soft Ice Cream","address":"17853 Conant","zipcode":"48212"},{"establishmentid":"2104","name":"MR SOFT SERVE","address":"17853 Conant Ave.","zipcode":"48212"},{"establishmentid":"2181","name":"SOFT SERVE","address":"17853 Conant Ave.","zipcode":"48212"}],"inspectionsByEstablishmentidList":[]}],"maxInspectionDate":[{"inspectionDate":"2023-04-25T00:00:00"}]}},"pageContext":{"eid":"3343"}},"staticQueryHashes":["3649515864","63159454"]}