{"componentChunkName":"component---src-templates-establishment-page-js","path":"/establishment/4090","result":{"data":{"site":{"pathPrefix":"/restaurant-inspections"},"postgres":{"establishment":[{"establishmentid":"4090","name":"Hank Dogs","address":"19177 JoAnn Apt.102","zipcode":"48205","owner":"Kimberly Hankerson","licenseNumber":"sj19177","licenseType":"Mobile Food Establishment","establishmentType":"Food Service Establishment","establishmentStatus":"Open","riskCategory":null,"reviewFrequencyDays":null,"coords":"-82.99033,42.43600","geojson":{"id":"4090","type":"Feature","geometry":{"type":"Point","coordinates":[-82.990328639,42.435998744]},"properties":{"name":"Hank Dogs","owner":"Kimberly Hankerson","address":"19177 JoAnn Apt.102","zipcode":"48205","license_type":"Mobile Food Establishment","risk_category":null,"license_number":"sj19177","establishmentid":"4090","establishment_type":"Food Service Establishment","establishment_status":"Open","review_frequency_days":null,"most_recent_license_date":"6/28/2010"}},"nearbyList":[{"establishmentid":"4057","name":"Hank Dogs","address":"19177 Joann","zipcode":"48205"},{"establishmentid":"3619","name":"Odessa Blues","address":"13016 Seven Mile Rd. E.","zipcode":"48205"},{"establishmentid":"404","name":"Mississippi Connection","address":"13016 Seven Mile Rd. E.","zipcode":"48205"},{"establishmentid":"2375","name":"New Robert's Coney Island Inc.","address":"12701 Seven Mile Rd. E.","zipcode":"48205"},{"establishmentid":"2334","name":"Marvella's Bar & Grill","address":"13629 Seven Mile Rd. E.","zipcode":"48205"},{"establishmentid":"51622854","name":"Cornucopia","address":"18900 Schoenherr","zipcode":"48205"},{"establishmentid":"1397","name":"Nates Ice Cream LLC","address":"12500 Seven Mile Rd. E.","zipcode":"48205"},{"establishmentid":"1167","name":"Fleming Elementary","address":"18501 Waltham","zipcode":"48205"},{"establishmentid":"51623429","name":"Turning Point @ Fleming","address":"18501 Waltham","zipcode":"48205"},{"establishmentid":"51623697","name":"Fry Life, Inc.","address":"12400 E. 7 Mile Road","zipcode":"48205"}],"inspectionsByEstablishmentidList":[]}],"maxInspectionDate":[{"inspectionDate":"2022-07-25T00:00:00"}]}},"pageContext":{"eid":"4090"}},"staticQueryHashes":["3649515864","63159454"]}