{"data":{"site":{"pathPrefix":"/restaurant-inspections"},"postgres":{"establishment":[{"establishmentid":"5354","name":"Kaleidoscope Catering","address":"3700 Gilbert Street","zipcode":"4821","owner":"Brandon Hutcherson","licenseNumber":"229300","licenseType":"Fixed Establishment","establishmentType":"Food Service Establishment","establishmentStatus":"Open","riskCategory":"Medium","reviewFrequencyDays":"180.0","coords":"-83.11965,42.32839","geojson":{"id":"5354","type":"Feature","geometry":{"type":"Point","coordinates":[-83.119654902,42.3283916710001]},"properties":{"name":"Kaleidoscope Catering","owner":"Brandon Hutcherson","address":"3700 Gilbert Street","zipcode":"4821","license_type":"Fixed Establishment","risk_category":"Medium","license_number":"229300","establishmentid":"5354","establishment_type":"Food Service Establishment","establishment_status":"Open","review_frequency_days":"180.0","most_recent_license_date":null}},"nearbyList":[{"establishmentid":"51622860","name":"Pietrzyk Pierogi","address":"3700 Gilbert Street","zipcode":"4821"},{"establishmentid":"3526","name":"St. Peter & Paul Orthodox Cathedral","address":"3700 Gilbert Street","zipcode":"4821"},{"establishmentid":"51622462","name":"Better Woodman","address":"3700 Gilbert Street","zipcode":"4821"},{"establishmentid":"815","name":"Abicks Bar","address":"3500 Gilbert St","zipcode":"4821"},{"establishmentid":"968","name":"Escuela Avancemos/Logan Elementary","address":"3811 Cicotte St","zipcode":"48217"},{"establishmentid":"51622797","name":"Avdolli Adis Coney Island","address":"6171 Michigan Avenue","zipcode":"4821"},{"establishmentid":"3553","name":"Adi's Coney Island ","address":"6171 Michigan Ave","zipcode":"4821"},{"establishmentid":"51622499","name":"Happys Southwest Detroit","address":"4220 Livernois Ave","zipcode":"4821"},{"establishmentid":"51622875","name":"Happy's Pizza #9","address":"4220 Livernois Ave","zipcode":"4821"},{"establishmentid":"802","name":"Tommy T's Pub","address":"3511 Clippert St","zipcode":"4821"}],"inspectionsByEstablishmentidList":[{"inspectionid":"42417","inspectionDate":"2018-05-31T00:00:00","inspectionType":"Routine Inspection","inCompliance":"Yes","violationsByInspectionidList":[]}]}],"maxInspectionDate":[{"inspectionDate":"2019-04-30T00:00:00"}]}},"pageContext":{"eid":"5354"}}