{"componentChunkName":"component---src-templates-establishment-page-js","path":"/establishment/51622755","result":{"data":{"site":{"pathPrefix":"/restaurant-inspections"},"postgres":{"establishment":[{"establishmentid":"51622755","name":"Three Bears in the Vent, LLC","address":"6402 Woodward","zipcode":"48202","owner":"Larry Kahn","licenseNumber":"PR18052A","licenseType":"Fixed Establishment","establishmentType":"Food Service Establishment","establishmentStatus":"Permanently Closed","riskCategory":null,"reviewFrequencyDays":null,"coords":"-83.07177,42.36869","geojson":{"id":"51622755","type":"Feature","geometry":{"type":"Point","coordinates":[-83.071771409,42.368689863]},"properties":{"name":"Three Bears in the Vent, LLC","owner":"Larry Kahn","address":"6402 Woodward","zipcode":"48202","license_type":"Fixed Establishment","risk_category":null,"license_number":"PR18052A","establishmentid":"51622755","establishment_type":"Food Service Establishment","establishment_status":"Permanently Closed","review_frequency_days":null,"most_recent_license_date":null}},"nearbyList":[{"establishmentid":"51623654","name":"Time Will Tell","address":"6408  Woodward Ave. ","zipcode":"48202"},{"establishmentid":"2153","name":"White Castle #44","address":"6364 Woodward Ave.","zipcode":"48202"},{"establishmentid":"529","name":"Woodward Cocktail Bar","address":"6426 Woodward Ave.","zipcode":"48202"},{"establishmentid":"1207","name":"Popeye's Chicken & Biscuits","address":"6500 Woodward Ave.","zipcode":"48202"},{"establishmentid":"51622897","name":"Yum Village LLC","address":"6500 Woodward Ave.","zipcode":"48202"},{"establishmentid":"5183","name":"Atomic Chicken","address":"6500 Woodward Ave.","zipcode":"48202"},{"establishmentid":"3634","name":"Motown Kabob","address":"6505 Woodward Ave.","zipcode":"48202"},{"establishmentid":"4119","name":"Motown Coney Island","address":"6501 Woodward Ave.","zipcode":"48202"},{"establishmentid":"51622650","name":"Smokey G's Smokehouse","address":"99 Baltimore E.","zipcode":"48202"},{"establishmentid":"51622927","name":"Baobab Fare LLC","address":"6568 Woodward","zipcode":"48221"}],"inspectionsByEstablishmentidList":[]}],"maxInspectionDate":[{"inspectionDate":"2022-08-31T00:00:00"}]}},"pageContext":{"eid":"51622755"}},"staticQueryHashes":["3649515864","63159454"]}