{"componentChunkName":"component---src-templates-establishment-page-js","path":"/establishment/1186","result":{"data":{"site":{"pathPrefix":"/restaurant-inspections"},"postgres":{"establishment":[{"establishmentid":"1186","name":"Taco Bell #1432","address":"20540 Grand River Ave.","zipcode":"48219","owner":"Sundance Inc./Pete Lyders","licenseNumber":"035279","licenseType":"Fixed Establishment","establishmentType":"Food Service Establishment","establishmentStatus":"Permanently Closed","riskCategory":null,"reviewFrequencyDays":"335","coords":"-83.24389,42.41120","geojson":{"id":"1186","type":"Feature","geometry":{"type":"Point","coordinates":[-83.243888596,42.41119959]},"properties":{"name":"Taco Bell #1432","owner":"Sundance Inc./Pete Lyders","address":"20540 Grand River Ave.","zipcode":"48219","license_type":"Fixed Establishment","risk_category":null,"license_number":"035279","establishmentid":"1186","establishment_type":"Food Service Establishment","establishment_status":"Permanently Closed","review_frequency_days":"335","most_recent_license_date":"2009-05-01"}},"nearbyList":[{"establishmentid":"51624009","name":"Manhattan Fish &  Chicken ","address":"20540  Grand  River Ave ","zipcode":"48219"},{"establishmentid":"3144","name":"Blackberry Bar & Grill","address":"20551 Grand River Ave.","zipcode":"48219"},{"establishmentid":"51622583","name":"Lovelee Vibes Bar & Grill","address":"20551 Grand River","zipcode":"48219"},{"establishmentid":"2217","name":"Ippissee","address":"20655 Grand River Ave.","zipcode":"48219"},{"establishmentid":"5423","name":"Honey's","address":"20342 Grand River","zipcode":"48219"},{"establishmentid":"678","name":"Golden Wok","address":"20342 Grand River Ave.","zipcode":"48219"},{"establishmentid":"3092","name":"The Original Waves Inn","address":"20351  Grand River Ave.","zipcode":"48219"},{"establishmentid":"727","name":"Seafood Supreme","address":"20351 Grand River Ave.","zipcode":"48219"},{"establishmentid":"4733","name":"D's Deli","address":"20340 Grand River","zipcode":"48219"},{"establishmentid":"51623128","name":"Belinda Brown Bar & Grill","address":"20270 Grand River Ave.","zipcode":"48219"}],"inspectionsByEstablishmentidList":[]}],"maxInspectionDate":[{"inspectionDate":"2023-04-25T00:00:00"}]}},"pageContext":{"eid":"1186"}},"staticQueryHashes":["3649515864","63159454"]}