{"data":{"site":{"pathPrefix":"/restaurant-inspections"},"postgres":{"establishment":[{"establishmentid":"51622747","name":"S.L Ice Cream","address":"2455 Andrus St","zipcode":"48212","owner":"Saleh Almasmari","licenseNumber":"229335","licenseType":"Mobile Food Establishment","establishmentType":"LHD - Mobile Food Establishmen","establishmentStatus":"Plan Review","riskCategory":null,"reviewFrequencyDays":"395.0","coords":"-83.05583,42.38781","geojson":{"id":"51622747","type":"Feature","geometry":{"type":"Point","coordinates":[-83.055829359,42.387811377]},"properties":{"name":"S.L Ice Cream","owner":"Saleh Almasmari","address":"2455 Andrus St","zipcode":"48212","license_type":"Mobile Food Establishment","risk_category":null,"license_number":"229335","establishmentid":"51622747","establishment_type":"LHD - Mobile Food Establishmen","establishment_status":"Plan Review","review_frequency_days":"395.0","most_recent_license_date":null}},"nearbyList":[{"establishmentid":"5216","name":"OW Soft Serve","address":"2456 Faber","zipcode":"48212"},{"establishmentid":"5214","name":"NYC Yogurt","address":"2261 Faber St","zipcode":"48212"},{"establishmentid":"5217","name":"Fresh Creamer","address":"2236 Wyandotte St","zipcode":"48212"},{"establishmentid":"4199","name":"Simpson Softy","address":"3005 Jacob St","zipcode":"48212"},{"establishmentid":"4453","name":"Beignet's, LLC","address":"2424 Florian St","zipcode":"48212"},{"establishmentid":"51622689","name":"American Axle Plant #6","address":"2020 Holbrook Ave","zipcode":"48212"},{"establishmentid":"5346","name":"Clay Street Entertainment","address":"1680 Clay St","zipcode":"48211"},{"establishmentid":"5390","name":"Premier Ice Cream","address":"2217 Evaline St","zipcode":"48212"},{"establishmentid":"3650","name":"American Axle","address":"1 Dauch Dr","zipcode":"48211"},{"establishmentid":"51622492","name":"GM Cadillac Detroit","address":"2500 E Grand Blvd","zipcode":"48211"},{"establishmentid":"1799","name":"AVI Food Systems, Inc.","address":"2500 E Grand Blvd","zipcode":"48211"},{"establishmentid":"1871","name":"Clay Super Coney Island","address":"1141 Clay St","zipcode":"48211"},{"establishmentid":"4047","name":"Omar's Soft Serve","address":"3833 Evaline","zipcode":"48212"},{"establishmentid":"4809","name":"Moe's Ice Cream","address":"3833 Evaline","zipcode":"48212"},{"establishmentid":"696","name":"Grandy's Coney Island","address":"1200 Holbrook Rd","zipcode":"48211"},{"establishmentid":"5344","name":"Oakland International Academy","address":"8228 Conant St","zipcode":"48211"},{"establishmentid":"4411","name":"Triumph Church","address":"2760 E Grand Blvd","zipcode":"48211"},{"establishmentid":"5029","name":"Chene Grill Inc. ","address":"640-644 Chene St","zipcode":"48207"},{"establishmentid":"5218","name":"S & A Ice Cream","address":"8189 Winkelman St","zipcode":"48211"},{"establishmentid":"4777","name":"Mr. Primo Softy","address":"8215 Winkelman Street","zipcode":"48211"}],"inspectionsByEstablishmentidList":[{"inspectionid":"42318","inspectionDate":"2018-05-09T00:00:00","inspectionType":"Routine Inspection","inCompliance":"Yes","violationsByInspectionidList":[]}]}]}},"pageContext":{"eid":"51622747"}}