{"data":{"postgres":{"establishment":[{"establishmentid":"5222","name":"El Paisano ","address":"4370 6th Street","zipcode":"48229","owner":"Jenifer Aguirre","licenseNumber":"038504","licenseType":"Mobile Food Establishment","establishmentType":null,"establishmentStatus":null,"riskCategory":"Medium","reviewFrequencyDays":"365.0","coords":"-83.15323,42.24530","geojson":{"id":"5222","type":"Feature","geometry":{"type":"Point","coordinates":[-83.153233171,42.2452988650001]},"properties":{"name":"El Paisano ","owner":"Jenifer Aguirre","address":"4370 6th Street","zipcode":"48229","license_type":"Mobile Food Establishment","risk_category":"Medium","license_number":"038504","establishmentid":"5222","establishment_type":null,"establishment_status":null,"review_frequency_days":"365.0","most_recent_license_date":"4/12/2016"}},"nearbyList":[{"establishmentid":"4979","name":"Pathway Academy","address":"11340-43 E Jefferson Ave","zipcode":"48214"},{"establishmentid":"617","name":"New Paradigm College Prep School","address":"2450  S Beatrice St ","zipcode":"48217"},{"establishmentid":"1879","name":"First Congregational Church","address":"33 E Forest Ave","zipcode":"48201"},{"establishmentid":"51622624","name":"Operation ABLE of Michigan Site #2","address":"33 E Forest Ave","zipcode":"48201"},{"establishmentid":"4165","name":"SEVA DETROIT","address":"66 E Forest Ave., Suite D","zipcode":"48201"},{"establishmentid":"5370","name":"The Griot Music Lounge","address":"66 E Forest Ave","zipcode":"48201"},{"establishmentid":"4246","name":"El Parian #1","address":"1064 London","zipcode":"48149"},{"establishmentid":"4876","name":"El Parian #3","address":"1064 London","zipcode":"48146"},{"establishmentid":"4660","name":"El Parian #2","address":"1064 London","zipcode":"48149"},{"establishmentid":"885","name":"Mark Twain K-8","address":"12800 Visger St","zipcode":"48217"},{"establishmentid":"3590","name":"Happy's Pizza","address":"3517 S Fort St","zipcode":"48217"},{"establishmentid":"2245","name":"Perfect Beat","address":"1941 Fort St S","zipcode":"48217"},{"establishmentid":"51622762","name":"D's Coney Island","address":"2626 S Schaefer Hwy","zipcode":"48217"},{"establishmentid":"5062","name":"Bag Of Bonez","address":"1250 S Beatrice St","zipcode":"48221"},{"establishmentid":"51622674","name":"Google Detroit Cafe","address":"52 E Henry St","zipcode":"48218"},{"establishmentid":"51622742","name":"Lorent Coney Island","address":"601 S Schaefer Rd","zipcode":"48217"},{"establishmentid":"2312","name":"Taqueria La Salsa Mexican Cuisine","address":"1310 Oakwood Blvd S","zipcode":"48217"},{"establishmentid":"5378","name":"Bobcat Bonnies","address":"1800 Michigan Ave","zipcode":"48216"},{"establishmentid":"1371","name":"The Works Bar & Grill","address":"1846 Michigan Ave","zipcode":"48216"},{"establishmentid":"1021","name":"Giovanni's Ristorante","address":"330 Oakwood Blvd S","zipcode":"48217"}],"inspectionsByEstablishmentidList":[{"inspectionid":"41155","inspectionDate":"2017-05-09T00:00:00","inspectionType":"Routine Inspection","inCompliance":"Yes","violationsByInspectionidList":[{"violationCode":"6-202.11","violationDescription":"Except as otherwise approved, light bulbs shall be shielded, coated, or otherwise shatter-resistant in areas where there is exposed FOOD; clean EQUIPMENT, UTENSILS, and LINENS; or unwrapped SINGLE-SERVICE and SINGLE-USE ARTICLES.\r\n","violationType":"Core","itemDescription":"Light shielding","subItem":"","problemDescription":"Missing","subProblem":"","location":"MOBILE UNIT","subLocation":"","corrected":"Not required","daysToCorrect":"30.0","correctedDate":null,"correctionDescription":"Provide."}]}]}]}},"pageContext":{"eid":"5222"}}