{"componentChunkName":"component---src-templates-establishment-page-js","path":"/establishment/3570","result":{"data":{"site":{"pathPrefix":"/restaurant-inspections"},"postgres":{"establishment":[{"establishmentid":"3570","name":"Blondies","address":"2281 W. Fort St. ","zipcode":"48216","owner":"Ruzvelt Stevanovski","licenseNumber":"063839","licenseType":"Fixed Establishment","establishmentType":"Food Service Establishment","establishmentStatus":"Open","riskCategory":null,"reviewFrequencyDays":"500","coords":"-83.07175,42.31987","geojson":{"id":"3570","type":"Feature","geometry":{"type":"Point","coordinates":[-83.071747677,42.319866315]},"properties":{"name":"Blondies","owner":"Ruzvelt Stevanovski","address":"2281 W. Fort St. ","zipcode":"48216","license_type":"Fixed Establishment","risk_category":null,"license_number":"063839","establishmentid":"3570","establishment_type":"Food Service Establishment","establishment_status":"Open","review_frequency_days":"500","most_recent_license_date":null}},"nearbyList":[{"establishmentid":"1090","name":"Green Dot Stables","address":"2200 Lafayette W.","zipcode":"48216"},{"establishmentid":"51622952","name":"Escuela Avencemos/Acad ofAmerica's High ","address":"2635 Howard","zipcode":"48216"},{"establishmentid":"51623097","name":"Escuela Avencemos","address":"2635 Howard St.","zipcode":"48216"},{"establishmentid":"2061","name":"Casa Richard Charter School","address":"2635 Howard","zipcode":"48216"},{"establishmentid":"51623528","name":"Escuela Avencemos Satellite Location","address":"1000 St. Anne St.","zipcode":"48216"},{"establishmentid":"51623357","name":"Reef Kitchens #01 (Fixed Trailer)","address":"1401 Vermont","zipcode":"48216"},{"establishmentid":"51623611","name":"Reef Kitchens Food Truck #3","address":"1401 Vermont","zipcode":"48216"},{"establishmentid":"4911","name":"The Bureau of Services for Blind Persons","address":"2810 W. Fort","zipcode":"48216"},{"establishmentid":"2053","name":"Sweet Treats Vending-BSBP","address":"2810 Fort W.","zipcode":"48216"},{"establishmentid":"3163","name":"Detroit Public Safety Academy","address":"1250 Rosa Parks Blvd.","zipcode":"48216"}],"inspectionsByEstablishmentidList":[]}],"maxInspectionDate":[{"inspectionDate":"2022-08-31T00:00:00"}]}},"pageContext":{"eid":"3570"}},"staticQueryHashes":["3649515864","63159454"]}