{"data":{"postgres":{"establishment":[{"establishmentid":"4453","name":"Beignet's, LLC","address":"2424 Florian St","zipcode":"48212","owner":"Beignet's, LLC","licenseNumber":"039316","licenseType":"Special Transitory Food Unit","establishmentType":"LHD - Mobile Food Establishmen","establishmentStatus":"Seasonal","riskCategory":null,"reviewFrequencyDays":"395.0","coords":"-83.06033,42.39284","geojson":{"id":"4453","type":"Feature","geometry":{"type":"Point","coordinates":[-83.0603255569999,42.3928383750001]},"properties":{"name":"Beignet's, LLC","owner":"Beignet's, LLC","address":"2424 Florian St","zipcode":"48212","license_type":"Special Transitory Food Unit","risk_category":null,"license_number":"039316","establishmentid":"4453","establishment_type":"LHD - Mobile Food Establishmen","establishment_status":"Seasonal","review_frequency_days":"395.0","most_recent_license_date":"4/21/2016"}},"nearbyList":[{"establishmentid":"5217","name":"Fresh Creamer","address":"2236 Wyandotte St","zipcode":"48212"},{"establishmentid":"51622689","name":"American Axle Plant #6","address":"2020 Holbrook Ave","zipcode":"48212"},{"establishmentid":"5214","name":"NYC Yogurt","address":"2261 Faber St","zipcode":"48212"},{"establishmentid":"5390","name":"Premier Ice Cream","address":"2217 Evaline St","zipcode":"48212"},{"establishmentid":"5216","name":"OW Soft Serve","address":"2456 Faber","zipcode":"48212"},{"establishmentid":"51622748","name":"S.E Ice Cream","address":"2455 Andrus St","zipcode":"48212"},{"establishmentid":"51622747","name":"S.L Ice Cream","address":"2455 Andrus St","zipcode":"48212"},{"establishmentid":"4199","name":"Simpson Softy","address":"3005 Jacob St","zipcode":"48212"},{"establishmentid":"3650","name":"American Axle","address":"1 Dauch Dr","zipcode":"48211"},{"establishmentid":"51622757","name":"Supa Flavor ","address":"11514 St Aubin St","zipcode":"48212"},{"establishmentid":"5314","name":"Radda Soft","address":"11516 Saint Aubin St","zipcode":"48212"},{"establishmentid":"5312","name":"Wonka Soft Serve","address":"11609 Lumpkin St","zipcode":"48212"},{"establishmentid":"4016","name":"Mr. Soft Serve","address":"11613 Lumpkin Street","zipcode":"48212"},{"establishmentid":"696","name":"Grandy's Coney Island","address":"1200 Holbrook Rd","zipcode":"48211"},{"establishmentid":"4047","name":"Omar's Soft Serve","address":"3833 Evaline","zipcode":"48212"},{"establishmentid":"4809","name":"Moe's Ice Cream","address":"3833 Evaline","zipcode":"48212"},{"establishmentid":"5421","name":"Ali's Pizza","address":"11608 Conant St","zipcode":"48212"},{"establishmentid":"5346","name":"Clay Street Entertainment","address":"1680 Clay St","zipcode":"48211"},{"establishmentid":"5204","name":"Miss Virginia's Ice Cream Parlor","address":"8801 Oakland Ave","zipcode":"48211"},{"establishmentid":"4402","name":"Bridge Academy West","address":"3105 Carpenter St","zipcode":"48212"}],"inspectionsByEstablishmentidList":[]}]}},"pageContext":{"eid":"4453"}}