{"data":{"postgres":{"establishment":[{"establishmentid":"1313","name":"St. Christopher Church","address":"7800 Woodmont St","zipcode":"48228","owner":"Rev. Jaime Hinojos","licenseNumber":"078735","licenseType":"Fixed Establishment","establishmentType":"Food Service Establishment","establishmentStatus":"Open","riskCategory":null,"reviewFrequencyDays":"365.0","coords":"-83.20706,42.34913","geojson":{"id":"1313","type":"Feature","geometry":{"type":"Point","coordinates":[-83.207057799,42.3491283980001]},"properties":{"name":"St. Christopher Church","owner":"Rev. Jaime Hinojos","address":"7800 Woodmont St","zipcode":"48228","license_type":"Fixed Establishment","risk_category":null,"license_number":"078735","establishmentid":"1313","establishment_type":"Food Service Establishment","establishment_status":"Open","review_frequency_days":"365.0","most_recent_license_date":"7/25/2018"}},"nearbyList":[{"establishmentid":"3402","name":"Detroit Premier Academy Charter School","address":"7781 Asbury Park","zipcode":"48228"},{"establishmentid":"5315","name":"Mr. Softy","address":"7262 Memorial St","zipcode":"48228"},{"establishmentid":"4403","name":"Dairy King DBA Beirut Grill","address":"16251 W Warren","zipcode":"48228"},{"establishmentid":"5330","name":"Halal Pizza Box","address":"16645 W Warren","zipcode":"48228"},{"establishmentid":"212","name":"Nick's Detroit","address":"16807 W Warren Ave","zipcode":"48228"},{"establishmentid":"1014","name":"L. George's Restaurant Coney Island","address":"16835 W Warren Ave","zipcode":"48228"},{"establishmentid":"803","name":"Gigi's","address":"16920 W Warren Ave","zipcode":"48228"},{"establishmentid":"1459","name":"Rob's Deli","address":"16956-58 E Warren Ave","zipcode":"48224"},{"establishmentid":"3197","name":"Rafidian Shish Kabob","address":"16032 W Warren Ave","zipcode":"48228"},{"establishmentid":"4983","name":"Iraqi Bakery and Carry Out","address":"17022 W Warren Ave","zipcode":"48228"},{"establishmentid":"5123","name":"Superior Coney Island & Grill","address":"17032 Warren W","zipcode":"48228"},{"establishmentid":"51622496","name":"Amazing Grill LLC","address":"17044 W Warren Ave","zipcode":"48228"},{"establishmentid":"5030","name":"Good Night Lounge","address":"17621 W Warren","zipcode":"48228"},{"establishmentid":"4134","name":"Subway #47233","address":"17720 W Warren Ave","zipcode":"48228"},{"establishmentid":"1361","name":"Caesars Cafe, Inc","address":"15621 W Warren Ave","zipcode":"48228"},{"establishmentid":"51622704","name":"Tim Hortons","address":"7285 Greenfield Rd","zipcode":"48228"},{"establishmentid":"1233","name":"Gardner Elementary School","address":"6528 Mansfield St","zipcode":"48228"},{"establishmentid":"51622783","name":"Fire Pizza Inc","address":"8004 Greenfield Rd","zipcode":"48228"},{"establishmentid":"1097","name":"Hayloft Saloon","address":"8070 Greenfield Ave","zipcode":"48228"},{"establishmentid":"258","name":"Barachit Club","address":"7235 Greenfield Rd","zipcode":"48228"}],"inspectionsByEstablishmentidList":[{"inspectionid":"43981","inspectionDate":"2018-10-31T00:00:00","inspectionType":"Routine Inspection","inCompliance":"Yes","violationsByInspectionidList":[]},{"inspectionid":"40443","inspectionDate":"2017-10-11T00:00:00","inspectionType":"Routine Inspection","inCompliance":"No","violationsByInspectionidList":[{"violationCode":"3-501.18","violationDescription":"A FOOD specified in ¶ 3-501.17(A) or (B) shall be discarded if it:  \r\n    (1) Exceeds the temperature and time combination specified in ¶ 3-501.17(A),              except time that the product is frozen; (P)\r\n    (2) Is in a container or PACKAGE that does not bear a date or day; (P) or\r\n    (3) Is appropriately marked with a date or day that exceeds a temperature and              time combination as specified in ¶ 3-501.17(A). (P)  \r\n\r\n","violationType":"Priority","itemDescription":"Ready to eat, potentially hazardous food(s)","subItem":"","problemDescription":"Beyond consume by date","subProblem":"","location":"COOLER","subLocation":"","corrected":"No","daysToCorrect":"10.0","correctedDate":null,"correctionDescription":"Discard."}]},{"inspectionid":"37027","inspectionDate":"2016-11-02T00:00:00","inspectionType":"Routine Inspection","inCompliance":"Yes","violationsByInspectionidList":[]}]}]}},"pageContext":{"eid":"1313"}}