{"data":{"site":{"pathPrefix":"/restaurant-inspections"},"postgres":{"establishment":[{"establishmentid":"4309","name":"Pinky's Shuga Shack","address":"18929 Schoolcraft Rd","zipcode":"48223","owner":"Marilyn Walker","licenseNumber":"071069","licenseType":"Fixed Establishment","establishmentType":"Food Service Establishment","establishmentStatus":"Temporarily Closed","riskCategory":"High","reviewFrequencyDays":"180","coords":"-83.22662,42.38625","geojson":{"id":"4309","type":"Feature","geometry":{"type":"Point","coordinates":[-83.226624723,42.386246509]},"properties":{"name":"Pinky's Shuga Shack","owner":"Marilyn Walker","address":"18929 Schoolcraft Rd","zipcode":"48223","license_type":"Fixed Establishment","risk_category":"High","license_number":"071069","establishmentid":"4309","establishment_type":"Food Service Establishment","establishment_status":"Temporarily Closed","review_frequency_days":"180","most_recent_license_date":"4/29/2019"}},"nearbyList":[{"establishmentid":"3708","name":"Freeze Shop","address":"13590 Glastonbury","zipcode":"48223"},{"establishmentid":"2735","name":"Vickie's Bar & Grill","address":"19205 Schoolcraft Rd","zipcode":"48223"},{"establishmentid":"4288","name":"Yusef's Place 2","address":"18516 Schoolcraft","zipcode":"48223"},{"establishmentid":"51623033","name":"Detroit Familly Soul LLC","address":"18516 Schoolcraft Rd","zipcode":"48227"},{"establishmentid":"4086","name":"Westwood Lounge (Chevelles LLC)","address":"19339 Schoolcraft Rd","zipcode":"48223"},{"establishmentid":"351","name":"Haydays/Four Winds Bar","address":"19338 Schoolcraft Rd","zipcode":"48223"},{"establishmentid":"300","name":"Billy's Coney Island","address":"19441 Schoolcraft Rd","zipcode":"48223"},{"establishmentid":"51622684","name":"Fun on the Run Soul Food Catering","address":"19841 Schoolcraft Rd","zipcode":"48223"},{"establishmentid":"362","name":"Sonny's Hamburgers","address":"20001 Schoolcraft Rd","zipcode":"48223"},{"establishmentid":"4823","name":"City Covenant Church","address":"13624 Stout St","zipcode":"48223"}],"inspectionsByEstablishmentidList":[{"inspectionid":"38868","inspectionDate":"2017-06-01T00:00:00","inspectionType":"Routine Inspection","inCompliance":"Yes","violationsByInspectionidList":[{"violationCode":"MFL289.2129","violationDescription":"Sec. 2129. (1) All food establishments shall employ a minimum of 1 managerial employee as a food safety manager, who must be an individual who is currently certified under a personnel certification program accredited by the American National Standards Institute, utilizing the Conference for Food Protection standards:\r\n(2) Beginning January 14, 2017 and every 5 years thereafter, a certified  food safety manager who supervises the operations of a food service establishment shall have completed a food safety training program\r\ncontaining an allergen awareness  component that has been approved by  the department. A food service establishment shall retain records on the  site of the food service establishment documenting compliance of its  certified food safety managers with this subsection. ","violationType":"Core","itemDescription":"Person-in-charge","subItem":"","problemDescription":null,"subProblem":"","location":"ESTABLISHMENT","subLocation":"","corrected":"Not required","daysToCorrect":"30","correctedDate":null,"correctionDescription":null}]}]}],"maxInspectionDate":[{"inspectionDate":"2020-10-30T00:00:00"}]}},"pageContext":{"eid":"4309"}}