{"data":{"site":{"pathPrefix":"/restaurant-inspections"},"postgres":{"establishment":[{"establishmentid":"4612","name":"Town Hall Caffe","address":"19180 Grand River Ave","zipcode":"48223","owner":"Cody Williams","licenseNumber":"217891","licenseType":"Fixed Establishment","establishmentType":"Food Service Establishment","establishmentStatus":"Open","riskCategory":"Medium","reviewFrequencyDays":"365.0","coords":"-83.23013,42.40575","geojson":{"id":"4612","type":"Feature","geometry":{"type":"Point","coordinates":[-83.230126892,42.4057524830001]},"properties":{"name":"Town Hall Caffe","owner":"Cody Williams","address":"19180 Grand River Ave","zipcode":"48223","license_type":"Fixed Establishment","risk_category":"Medium","license_number":"217891","establishmentid":"4612","establishment_type":"Food Service Establishment","establishment_status":"Open","review_frequency_days":"365.0","most_recent_license_date":"5/7/2018"}},"nearbyList":[{"establishmentid":"1514","name":"Elias Donuts","address":"19231 Grand River Ave","zipcode":"48223"},{"establishmentid":"1995","name":"Little Caesar's Pizza #168","address":"19116 Grand River Ave","zipcode":"48223"},{"establishmentid":"904","name":"Cooke Elementary","address":"18800 Puritan ","zipcode":"48219"},{"establishmentid":"2344","name":"Auntie Betty's Cafe","address":"19601 Grand River Ave","zipcode":"48223"},{"establishmentid":"5412","name":"Detroit Vegan Soul","address":"19614 Grand River Ave","zipcode":"48223"},{"establishmentid":"601","name":"North Rosedale Community House","address":"18445 Scarsdale St","zipcode":"48223"},{"establishmentid":"1562","name":"Panda Chinese Restaurant","address":"18614 Fenkell Ave","zipcode":"48223"},{"establishmentid":"5420","name":"La Kabob Grill ","address":"18616 Fenkell","zipcode":"48223"},{"establishmentid":"2669","name":"Fish Express","address":"18509 Grand River Ave","zipcode":"48223"},{"establishmentid":"51622571","name":"River Bistro Detroit","address":"18456 Grand River Ave","zipcode":"48223"},{"establishmentid":"5237","name":"Metro Fish & Seafood LLC","address":"18440 Grand River","zipcode":"48223"},{"establishmentid":"2045","name":"McDonald's #567","address":"18403 Grand River Ave","zipcode":"48223"},{"establishmentid":"4455","name":"Just a Bit Eclectic","address":"19015 W McNichols Rd","zipcode":"48219"},{"establishmentid":"4929","name":"Urban Elixirs Juice Bar","address":"19335 W McNichols Rd","zipcode":"48219"},{"establishmentid":"2345","name":"Subway #11686/Mama Delucas","address":"18288 Grand River Ave","zipcode":"48223"},{"establishmentid":"1373","name":"Burger King ","address":"20200 Grand River Ave","zipcode":"48219"},{"establishmentid":"5417","name":"Brooklyn Fish and Chicken","address":"18354 Fenkell Ave","zipcode":"48223"},{"establishmentid":"1958","name":"Hollywood Coney Island","address":"20240 Grand River Ave","zipcode":"48219"},{"establishmentid":"1093","name":"Church's Fried Chicken #456","address":"19741 W McNichols Rd","zipcode":"48219"},{"establishmentid":"787","name":"Omega Grill","address":"18130 Fenkell Ave","zipcode":"48223"}],"inspectionsByEstablishmentidList":[{"inspectionid":"41902","inspectionDate":"2018-03-14T00:00:00","inspectionType":"Routine Inspection","inCompliance":"Yes","violationsByInspectionidList":[]},{"inspectionid":"38326","inspectionDate":"2017-03-22T00:00:00","inspectionType":"Routine Inspection","inCompliance":"Yes","violationsByInspectionidList":[{"violationCode":"MFL289.2129","violationDescription":"Sec. 2129. (1) All of the following food establishments shall employ a minimum of 1 managerial employee who is currently certified under a personnel certification program accredited by the American national standards institute, utilizing the conference for food protection standards:  (a) A food service establishment that is not any of the following:    (i) Operating under a temporary food service establishment license.  (ii) A vending machine location.     (b) An extended retail food establishment.  (c) Operated within a retail grocery.  (2) An individual certified under subsection (1) shall be recognized with full faith and credit by the state and all local units of government throughout the state.  (3) The department may promulgate rules to do all of the following:  (a) Develop requirements for retail food establishments to follow when employing certified food safety managers or personnel.  (b) Set a reasonable date for compliance with the requirements under subdivision (a) taking into consideration existing local personnel certification requirements.  (c) Establish certification fees necessary to implement, maintain, and track certified individuals directly or by contract. The department may annually adjust the schedule of fees to provide that the fee charged is sufficient to cover the cost of the certification tracking program.  (d) Implement and enforce the requirements described in subdivision (a).    (4) The certification program developed by the American national standards institute, as it exists on April 1, 2008 , is incorporated by reference. The department may adopt updates to the certification program accreditation standards in subsection (1) by rule.     (5) This section does not prohibit any local legislative body from implementing a food handler program, an employee health certification program, or a manager certification program, if it is not in conflict with this section.","violationType":"Core","itemDescription":"Person-in-charge","subItem":"","problemDescription":null,"subProblem":"","location":"PERSON IN CHARGE","subLocation":"","corrected":"Not required","daysToCorrect":"30.0","correctedDate":null,"correctionDescription":null}]}]}]}},"pageContext":{"eid":"4612"}}