{"componentChunkName":"component---src-templates-establishment-page-js","path":"/establishment/51623960","result":{"data":{"site":{"pathPrefix":"/restaurant-inspections"},"postgres":{"establishment":[{"establishmentid":"51623960","name":"Taco Madre","address":"1724 24th St.","zipcode":"48216","owner":"Rito Bueno-Gamboa","licenseNumber":"PR23014D","licenseType":"Special Transitory Food Unit","establishmentType":"LHD - Special Transitory Food","establishmentStatus":"Plan Review","riskCategory":null,"reviewFrequencyDays":null,"coords":"-83.08588,42.32346","geojson":{"id":"51623960","type":"Feature","geometry":{"type":"Point","coordinates":[-83.085884993,42.32346318]},"properties":{"name":"Taco Madre","owner":"Rito Bueno-Gamboa","address":"1724 24th St.","zipcode":"48216","license_type":"Special Transitory Food Unit","risk_category":null,"license_number":"PR23014D","establishmentid":"51623960","establishment_type":"LHD - Special Transitory Food","establishment_status":"Plan Review","review_frequency_days":null,"most_recent_license_date":null}},"nearbyList":[{"establishmentid":"3943","name":"Tacos El Rodeo","address":"1730 24th Street","zipcode":"48216"},{"establishmentid":"1297","name":"Evie's Tamales","address":"3454 Bagley","zipcode":"48216"},{"establishmentid":"1632","name":"Taqueria Lupitas","address":"3443 Bagley","zipcode":"48216"},{"establishmentid":"1454","name":"Mexican Town Restaurant","address":"3457 Bagley","zipcode":"48216"},{"establishmentid":"51622973","name":"El Zocalo","address":"3400 Bagley","zipcode":"48216"},{"establishmentid":"1341","name":"El Zocalo","address":"3400 Bagley","zipcode":"48216"},{"establishmentid":"816","name":"El Comal Restaurant","address":"3456 Vernor St. W.","zipcode":"48216"},{"establishmentid":"642","name":"Xochimilco, INC","address":"3409 Bagley","zipcode":"48216"},{"establishmentid":"1386","name":"Los Galanes","address":"3354 Bagley","zipcode":"48216"},{"establishmentid":"820","name":"Giovanna's Lounge ","address":"3537 Vernor St. W.","zipcode":"48216"}],"inspectionsByEstablishmentidList":[]}],"maxInspectionDate":[{"inspectionDate":"2023-04-13T00:00:00"}]}},"pageContext":{"eid":"51623960"}},"staticQueryHashes":["3649515864","63159454"]}