{"componentChunkName":"component---src-templates-establishment-page-js","path":"/establishment/51623175","result":{"data":{"site":{"pathPrefix":"/restaurant-inspections"},"postgres":{"establishment":[{"establishmentid":"51623175","name":"Sauce","address":"4128 Second Avenue","zipcode":"48201","owner":"Jeremy Sasson","licenseNumber":"PR19150A","licenseType":"Fixed Establishment","establishmentType":"Food Service Establishment","establishmentStatus":"Plan Review","riskCategory":null,"reviewFrequencyDays":null,"coords":"-83.06498,42.34915","geojson":{"id":"51623175","type":"Feature","geometry":{"type":"Point","coordinates":[-83.064978604,42.349145553]},"properties":{"name":"Sauce","owner":"Jeremy Sasson","address":"4128 Second Avenue","zipcode":"48201","license_type":"Fixed Establishment","risk_category":null,"license_number":"PR19150A","establishmentid":"51623175","establishment_type":"Food Service Establishment","establishment_status":"Plan Review","review_frequency_days":null,"most_recent_license_date":null}},"nearbyList":[{"establishmentid":"5126","name":"Will Leather Goods Coffee Shop","address":"4120 Second Ave.","zipcode":"48201"},{"establishmentid":"5372","name":"Foundation Rock Spirits LLC dba Castalia","address":"3980 Second Ave.","zipcode":"48201"},{"establishmentid":"51623656","name":"Foundation Rock Spirits-Stadt Garten","address":"3980 Second Ave","zipcode":"48201"},{"establishmentid":"4827","name":"Selden Standard","address":"3921-29  Second Ave.","zipcode":"48201"},{"establishmentid":"718","name":"Mario's","address":"4222 Second Ave.","zipcode":"48201"},{"establishmentid":"4152","name":"Slows To Go","address":"4107 Cass Ave.","zipcode":"48201"},{"establishmentid":"5042","name":"Slows On The Go Mobile Kitchen","address":"4107 Cass Ave.","zipcode":"48201"},{"establishmentid":"4658","name":"Traffic Jam-Snug/Brewery","address":"4268 Second Ave.","zipcode":"48201"},{"establishmentid":"235","name":"Traffic Jam-Snug","address":"4268 Second Ave. ","zipcode":"48201"},{"establishmentid":"2140","name":"Honest John's Bar & Grill","address":"488 Selden St.","zipcode":"48201"}],"inspectionsByEstablishmentidList":[]}],"maxInspectionDate":[{"inspectionDate":"2022-07-25T00:00:00"}]}},"pageContext":{"eid":"51623175"}},"staticQueryHashes":["3649515864","63159454"]}