{"componentChunkName":"component---src-templates-establishment-page-js","path":"/establishment/51622913","result":{"data":{"site":{"pathPrefix":"/restaurant-inspections"},"postgres":{"establishment":[{"establishmentid":"51622913","name":"Big Ken's BBQ","address":"15290 Fairmount","zipcode":"48213","owner":"Kenneth Williams","licenseNumber":"237159","licenseType":"Mobile Food Establishment","establishmentType":"LHD - Mobile Food Establishmen","establishmentStatus":"Open","riskCategory":"High","reviewFrequencyDays":"180","coords":"-82.96393,42.44434","geojson":{"id":"51622913","type":"Feature","geometry":{"type":"Point","coordinates":[-82.963927462,42.44433788]},"properties":{"name":"Big Ken's BBQ","owner":"Kenneth Williams","address":"15290 Fairmount","zipcode":"48213","license_type":"Mobile Food Establishment","risk_category":"High","license_number":"237159","establishmentid":"51622913","establishment_type":"LHD - Mobile Food Establishmen","establishment_status":"Open","review_frequency_days":"180","most_recent_license_date":"3/19/2019"}},"nearbyList":[{"establishmentid":"4377","name":"Diamond's Dogs","address":"15447 Rossini","zipcode":"48205"},{"establishmentid":"2093","name":"UNIC","address":"15268  State Fair E.","zipcode":"48205"},{"establishmentid":"51623719","name":"McDoggonit (Oakland Co.)","address":"14960 Rossini Dr.","zipcode":"48205"},{"establishmentid":"3824","name":"Olga Madar Senior Center","address":"19601 Crusade","zipcode":"48235"},{"establishmentid":"838","name":"Burbank Middle School","address":"15600 State Fair E.","zipcode":"48205"},{"establishmentid":"2161","name":"Wild Cherry Lounge","address":"15224 Eight Mile Rd. E.","zipcode":"48205"},{"establishmentid":"2022","name":"8 Mile Run","address":"15500 Eight Mile Rd. E.","zipcode":"48205"},{"establishmentid":"2776","name":"Nu Wave Fish & Chicken","address":"15030 Eight Mile Rd. E.","zipcode":"48205"},{"establishmentid":"51623490","name":"8 Mile Alaska Fish and Chicken","address":"15000 Eight Mile E.","zipcode":"48205"},{"establishmentid":"4758","name":"Subway","address":"15000 Eight Mile E.","zipcode":"48205"}],"inspectionsByEstablishmentidList":[{"inspectionid":"46069","inspectionDate":"2019-05-06T00:00:00","inspectionType":"Preopening/New","inCompliance":"Yes","violationsByInspectionidList":[]}]}],"maxInspectionDate":[{"inspectionDate":"2022-08-31T00:00:00"}]}},"pageContext":{"eid":"51622913"}},"staticQueryHashes":["3649515864","63159454"]}