{"componentChunkName":"component---src-templates-establishment-page-js","path":"/establishment/1986","result":{"data":{"site":{"pathPrefix":"/restaurant-inspections"},"postgres":{"establishment":[{"establishmentid":"1986","name":"Four Star Vending","address":"5700 Russell","zipcode":"48211","owner":"Jim Michels","licenseNumber":"037637","licenseType":"Other","establishmentType":"LHD - Vending","establishmentStatus":"Open","riskCategory":null,"reviewFrequencyDays":"180","coords":"-83.05212,42.36772","geojson":{"id":"1986","type":"Feature","geometry":{"type":"Point","coordinates":[-83.052118354,42.367722059]},"properties":{"name":"Four Star Vending","owner":"Jim Michels","address":"5700 Russell","zipcode":"48211","license_type":"Other","risk_category":null,"license_number":"037637","establishmentid":"1986","establishment_type":"LHD - Vending","establishment_status":"Open","review_frequency_days":"180","most_recent_license_date":null}},"nearbyList":[{"establishmentid":"51623892","name":"Birmingham Deli","address":"5301 Russell St.","zipcode":"48207"},{"establishmentid":"2084","name":"Roman Vending","address":"1550 Harper","zipcode":"48211"},{"establishmentid":"978","name":"Frank Beard Elementary","address":"1425  Warren E.","zipcode":"48209"},{"establishmentid":"51623160","name":"DPSCD Food Truck #1","address":"1601 Farnsworth","zipcode":"48211"},{"establishmentid":"51622943","name":"Office of School Nutrition","address":"1601 Farnsworth","zipcode":"48211"},{"establishmentid":"51623161","name":"DPSCD Food Truck #2","address":"1601 Farnsworth","zipcode":"48211"},{"establishmentid":"1617","name":"ROBINSON VENDING VENDING","address":"1301 WARREN E.","zipcode":"48212"},{"establishmentid":"1839","name":"Robinson Dairy Vending","address":"1530 Trombly","zipcode":"48211"},{"establishmentid":"4587","name":"Total Vending","address":"1530 Trombly","zipcode":"48211"},{"establishmentid":"2829","name":"Specialized Vending Services","address":"1910 Trombly","zipcode":"48211"}],"inspectionsByEstablishmentidList":[]}],"maxInspectionDate":[{"inspectionDate":"2023-04-25T00:00:00"}]}},"pageContext":{"eid":"1986"}},"staticQueryHashes":["3649515864","63159454"]}