{"componentChunkName":"component---src-templates-establishment-page-js","path":"/establishment/1530","result":{"data":{"site":{"pathPrefix":"/restaurant-inspections"},"postgres":{"establishment":[{"establishmentid":"1530","name":"Sodexho Management","address":"7733 Jefferson E.","zipcode":"48214","owner":"Sodexho Management","licenseNumber":"035757","licenseType":"Other","establishmentType":"LHD - Vending","establishmentStatus":"Open","riskCategory":null,"reviewFrequencyDays":"180","coords":"-82.99832,42.35082","geojson":{"id":"1530","type":"Feature","geometry":{"type":"Point","coordinates":[-82.99831679,42.35082221]},"properties":{"name":"Sodexho Management","owner":"Sodexho Management","address":"7733 Jefferson E.","zipcode":"48214","license_type":"Other","risk_category":null,"license_number":"035757","establishmentid":"1530","establishment_type":"LHD - Vending","establishment_status":"Open","review_frequency_days":"180","most_recent_license_date":null}},"nearbyList":[{"establishmentid":"2774","name":"St. John's Detroit Riverview Hospital","address":"7733 Jefferson E.","zipcode":"48214"},{"establishmentid":"4791","name":"Total Vending","address":"7733 Jefferson E.","zipcode":"48214"},{"establishmentid":"2257","name":"SNACK-A-LOT VENDING","address":"7601 JEFFERSON E.","zipcode":"48219"},{"establishmentid":"3422","name":"The Bean Cafe","address":"7633 Jefferson E.","zipcode":"48214"},{"establishmentid":"1870","name":"Belle Isle Pizza (fka) Garalino's Pizza","address":"7869 Jefferson Ave. E.","zipcode":"48214"},{"establishmentid":"51623142","name":"River Towers Apartments","address":"7800 Jefferson  Ave. E.","zipcode":"48214"},{"establishmentid":"1091","name":"River Towers Apartments","address":"7800 Jefferson Ave. E.","zipcode":"48214"},{"establishmentid":"51623103","name":"Detroit Grill & Chill","address":"8009 Jefferson E.","zipcode":"48214"},{"establishmentid":"2593","name":"Moses Field School","address":"1100 Sheridan","zipcode":"48214"},{"establishmentid":"4819","name":"Miami Fish & Chicken, LLC","address":"7255  Jefferson E.","zipcode":"48214"}],"inspectionsByEstablishmentidList":[]}],"maxInspectionDate":[{"inspectionDate":"2022-07-25T00:00:00"}]}},"pageContext":{"eid":"1530"}},"staticQueryHashes":["3649515864","63159454"]}