{"data":{"postgres":{"establishment":[{"establishmentid":"1495","name":"McDonald's #5456","address":"13676 Grand River Ave","zipcode":"48227","owner":"Wise Finley, Jr.","licenseNumber":"056891","licenseType":"Fixed Establishment","establishmentType":"Food Service Establishment","establishmentStatus":"Open","riskCategory":"High","reviewFrequencyDays":"180.0","coords":"-83.17887,42.38487","geojson":{"id":"1495","type":"Feature","geometry":{"type":"Point","coordinates":[-83.178867934,42.384872106]},"properties":{"name":"McDonald's #5456","owner":"Wise Finley, Jr.","address":"13676 Grand River Ave","zipcode":"48227","license_type":"Fixed Establishment","risk_category":"High","license_number":"056891","establishmentid":"1495","establishment_type":"Food Service Establishment","establishment_status":"Open","review_frequency_days":"180.0","most_recent_license_date":null}},"nearbyList":[{"establishmentid":"2277","name":"Galaxy Coney Island","address":"13611 Grand River Ave","zipcode":"48227"},{"establishmentid":"51622832","name":"Fred's Fish & Chicken-Schaefer","address":"13465 Schaefer","zipcode":"48227"},{"establishmentid":"5234","name":"Fish & Chicken Stop Inc.","address":"13465 Schaefer Hwy","zipcode":"48227"},{"establishmentid":"2280","name":"Mary's Grille","address":"13900 Schaefer Hwy","zipcode":"48227"},{"establishmentid":"4992","name":"Glasshouse Bar and Grill","address":"14301 Grand River Ave","zipcode":"48227"},{"establishmentid":"4483","name":"Grand River Fuel LLC","address":"14458 Grand River Ave","zipcode":"48227"},{"establishmentid":"51622776","name":"Taco Palace","address":"14458 Grand River Ave","zipcode":"48227"},{"establishmentid":"4907","name":"Javon's Kitchen","address":"14445 Schaefer Hwy","zipcode":"48227"},{"establishmentid":"4877","name":"AC's Hot Dog Express #1","address":"14153 Manor St","zipcode":"48238"},{"establishmentid":"2874","name":"Fish Express","address":"12555 Grand River Ste 400","zipcode":"48204"},{"establishmentid":"3153","name":"1st Wok","address":"12555 Grand River Ave #150","zipcode":"48204"},{"establishmentid":"782","name":"Toya's Bar & Grill","address":"14906 Schaefer Hwy","zipcode":"48227"},{"establishmentid":"722","name":"Club Celebrity","address":"14421 Plymouth Rd","zipcode":"48227"},{"establishmentid":"870","name":"Burns Elementary- Middle School","address":"14350 Terry St","zipcode":"48227"},{"establishmentid":"5065","name":"Johnson's Southern Bar And Grille","address":"14701 Plymouth Rd","zipcode":"48227"},{"establishmentid":"5393","name":"Five Hundred Degrees","address":"15090 Schaefer","zipcode":"48227"},{"establishmentid":"734","name":"Verdell's Lounge","address":"14826 Plymouth Rd","zipcode":"48227"},{"establishmentid":"1214","name":"Church's Fried Chicken #964","address":"13531 Fenkell Ave","zipcode":"48227"},{"establishmentid":"1866","name":"Lee's Texas Style Bar-B-Que","address":"14001 Fenkell","zipcode":"48227"},{"establishmentid":"3444","name":"Adams-Butzel Recreation Center","address":"10500 Lyndon Ave","zipcode":"48238"}],"inspectionsByEstablishmentidList":[]}]}},"pageContext":{"eid":"1495"}}