{"componentChunkName":"component---src-templates-establishment-page-js","path":"/establishment/1533","result":{"data":{"site":{"pathPrefix":"/restaurant-inspections"},"postgres":{"establishment":[{"establishmentid":"1533","name":"Lucky Garden","address":"21639 Eight Mile Rd. W.","zipcode":"48219","owner":"Kwok-Ki Yu","licenseNumber":"035763","licenseType":"Fixed Establishment","establishmentType":"Food Service Establishment","establishmentStatus":"Permanently Closed","riskCategory":null,"reviewFrequencyDays":"150","coords":"-83.25709,42.44288","geojson":{"id":"1533","type":"Feature","geometry":{"type":"Point","coordinates":[-83.257094408,42.44287563]},"properties":{"name":"Lucky Garden","owner":"Kwok-Ki Yu","address":"21639 Eight Mile Rd. W.","zipcode":"48219","license_type":"Fixed Establishment","risk_category":null,"license_number":"035763","establishmentid":"1533","establishment_type":"Food Service Establishment","establishment_status":"Permanently Closed","review_frequency_days":"150","most_recent_license_date":"26/4/2016"}},"nearbyList":[{"establishmentid":"518","name":"Friends Cocktail Lounge","address":"21633 Eight Mile Rd. W.","zipcode":"48219"},{"establishmentid":"51622605","name":"Asian Corned Beef","address":"21639 Eight Mile W.","zipcode":"48219"},{"establishmentid":"2722","name":"Nu Wave Fish & Chicken","address":"21729 Eight Mile Rd. W.","zipcode":"48219"},{"establishmentid":"4856","name":"Patti Melt dba Beer Wine Lotto","address":"20528 Lahser Rd","zipcode":"48219"},{"establishmentid":"688","name":"Trumpp's","address":"21413 Eight Mile Rd. W.","zipcode":"48219"},{"establishmentid":"724","name":"McDonald's #24733","address":"22021 Eight Mile Rd. W.","zipcode":"48219"},{"establishmentid":"754","name":"Northland Roller Rink","address":"22311 Eight Mile Rd. W.","zipcode":"48219"},{"establishmentid":"1823","name":"Don's Vending Service","address":"22355 8 Mile Rd. W.","zipcode":"48219"},{"establishmentid":"2097","name":"Robinson Dairy Vending","address":"22355 8 Mile Rd. W.","zipcode":"48219"},{"establishmentid":"415","name":"Popeye's #931","address":"20919 Eight Mile Rd. W.","zipcode":"48219"}],"inspectionsByEstablishmentidList":[]}],"maxInspectionDate":[{"inspectionDate":"2023-04-13T00:00:00"}]}},"pageContext":{"eid":"1533"}},"staticQueryHashes":["3649515864","63159454"]}