{"data":{"site":{"pathPrefix":"/restaurant-inspections"},"postgres":{"establishment":[{"establishmentid":"51622839","name":"Dunkin Donuts OM DMC Donuts","address":"3990 John R St","zipcode":"48201","owner":"OM Group Amit Patel","licenseNumber":"233739","licenseType":"Fixed Establishment","establishmentType":"Food Service Establishment","establishmentStatus":"Open","riskCategory":"Medium","reviewFrequencyDays":"365.0","coords":"-83.05697,42.35067","geojson":{"id":"51622839","type":"Feature","geometry":{"type":"Point","coordinates":[-83.0569670039999,42.350668985]},"properties":{"name":"Dunkin Donuts OM DMC Donuts","owner":"OM Group Amit Patel","address":"3990 John R St","zipcode":"48201","license_type":"Fixed Establishment","risk_category":"Medium","license_number":"233739","establishmentid":"51622839","establishment_type":"Food Service Establishment","establishment_status":"Open","review_frequency_days":"365.0","most_recent_license_date":null}},"nearbyList":[{"establishmentid":"4846","name":"Salemi Subway, Inc","address":"4 E Alexandrine St., Ste. 100","zipcode":"48221"},{"establishmentid":"1263","name":"Bicentennial Towers  ","address":"4 E Alexandrine St","zipcode":"48201"},{"establishmentid":"3470","name":"Starbucks Coffee","address":"3670 Woodward Ave","zipcode":"48202"},{"establishmentid":"4996","name":"Children's Hospital of Michigan","address":"3901 Beaubien St","zipcode":"48201"},{"establishmentid":"5279","name":"Childrens Cafe Stores LLC/Biggby","address":"3901 Beaubien St","zipcode":"48201"},{"establishmentid":"3870","name":"Subway #11819","address":"3901 Beaubien St","zipcode":"48201"},{"establishmentid":"4842","name":"Woodward Garden Venue/The Block","address":"3919 Woodward Ave","zipcode":"48201"},{"establishmentid":"4862","name":"Woodward Garden Venue/Theater Bar","address":"3919 Woodward Ave","zipcode":"48201"},{"establishmentid":"4930","name":"Great Lakes Coffee Beanery","address":"311 Mack Ave","zipcode":"48201"},{"establishmentid":"808","name":"Detroit Urban League","address":"208 Mack Ave","zipcode":"48201"},{"establishmentid":"3070","name":"Detroit Symphony Orchestra Hall","address":"3711 Woodward Ave","zipcode":"48201"},{"establishmentid":"589","name":"Majestic Cafe/The Majestic Theater","address":"4120 Woodward Ave","zipcode":"48201"},{"establishmentid":"5059","name":"Popolux","address":"4120 Woodward Ave","zipcode":"48201"},{"establishmentid":"4345","name":"The Magic Stick/Alley Deck","address":"4120 Woodward Ave","zipcode":"48201"},{"establishmentid":"4408","name":"The Great Lakes Coffee Roasting Co.","address":"3965 Woodward Ave","zipcode":"48201"},{"establishmentid":"4344","name":"Sgt. Pepperoni's Pizzaria & Deli/GB","address":"4140 Woodward Ave","zipcode":"48201"},{"establishmentid":"1098","name":"Union Street Detroit","address":"4145 Woodward Ave","zipcode":"48201"},{"establishmentid":"4818","name":"Midtown Zef's","address":"4160 Woodward Ave","zipcode":"48201"},{"establishmentid":"1092","name":"St. Patrick Senior Center, Inc.","address":"58 Parsons St","zipcode":"48201"},{"establishmentid":"5277","name":"Detroit Receiving Sub Shops LLC/Subway","address":"4201 St Antoine St","zipcode":"48202"}],"inspectionsByEstablishmentidList":[{"inspectionid":"44572","inspectionDate":"2018-12-17T00:00:00","inspectionType":"Preopening/New","inCompliance":"Yes","violationsByInspectionidList":[]}]}]}},"pageContext":{"eid":"51622839"}}