{"data":{"site":{"pathPrefix":"/restaurant-inspections"},"postgres":{"establishment":[{"establishmentid":"4483","name":"Grand River Fuel LLC","address":"14458 Grand River Ave","zipcode":"48227","owner":"Nabil Omar","licenseNumber":"075033","licenseType":"Fixed Establishment","establishmentType":"Food Service Establishment","establishmentStatus":null,"riskCategory":null,"reviewFrequencyDays":"180.0","coords":"-83.18682,42.38833","geojson":{"id":"4483","type":"Feature","geometry":{"type":"Point","coordinates":[-83.1868227909999,42.3883339560001]},"properties":{"name":"Grand River Fuel LLC","owner":"Nabil Omar","address":"14458 Grand River Ave","zipcode":"48227","license_type":"Fixed Establishment","risk_category":null,"license_number":"075033","establishmentid":"4483","establishment_type":"Food Service Establishment","establishment_status":null,"review_frequency_days":"180.0","most_recent_license_date":null}},"nearbyList":[{"establishmentid":"51622776","name":"Taco Palace","address":"14458 Grand River Ave","zipcode":"48227"},{"establishmentid":"4992","name":"Glasshouse Bar and Grill","address":"14301 Grand River Ave","zipcode":"48227"},{"establishmentid":"870","name":"Burns Elementary- Middle School","address":"14350 Terry St","zipcode":"48227"},{"establishmentid":"2280","name":"Mary's Grille","address":"13900 Schaefer Hwy","zipcode":"48227"},{"establishmentid":"5362","name":"McDonalds","address":"13676 Grand River","zipcode":"48227"},{"establishmentid":"1495","name":"McDonald's #5456","address":"13676 Grand River Ave","zipcode":"48227"},{"establishmentid":"51622832","name":"Fred's Fish & Chicken-Schaefer","address":"13465 Schaefer","zipcode":"48227"},{"establishmentid":"5234","name":"Fish & Chicken Stop Inc.","address":"13465 Schaefer Hwy","zipcode":"48227"},{"establishmentid":"2277","name":"Galaxy Coney Island","address":"13611 Grand River Ave","zipcode":"48227"},{"establishmentid":"4907","name":"Javon's Kitchen","address":"14445 Schaefer Hwy","zipcode":"48227"}],"inspectionsByEstablishmentidList":[{"inspectionid":"42227","inspectionDate":"2018-05-09T00:00:00","inspectionType":"Plan Review/Evaluat","inCompliance":"No","violationsByInspectionidList":[{"violationCode":"5-103.11","violationDescription":"(A) The water source and system shall be of sufficient capacity to meet the peak water demands of the FOOD ESTABLISHMENT. (Pf)\r\n(B) Hot water generation and distribution systems shall be sufficient to meet the peak hot water demands throughout the FOOD ESTABLISHMENT. (Pf)\r\n","violationType":"Foundation","itemDescription":"Water source and system","subItem":"","problemDescription":"Insufficient to meet demands","subProblem":"","location":"ENTIRE FACILITY","subLocation":"Above the","corrected":"No","daysToCorrect":"10.0","correctedDate":null,"correctionDescription":"Provide sufficient supply if hot water such as a larger or additional hot water heater."}]}]}],"maxInspectionDate":[{"inspectionDate":"2019-01-31T00:00:00"}]}},"pageContext":{"eid":"4483"}}