{"data":{"site":{"pathPrefix":"/restaurant-inspections"},"postgres":{"establishment":[{"establishmentid":"51622795","name":"Faye's Coffee Convenience","address":"3550 Cass Ave","zipcode":"48221","owner":"Victor Lloyd","licenseNumber":"PR18069A","licenseType":"Fixed Establishment","establishmentType":"Food Service Establishment","establishmentStatus":"Plan Review","riskCategory":"Medium","reviewFrequencyDays":"365.0","coords":"-83.06051,42.34596","geojson":{"id":"51622795","type":"Feature","geometry":{"type":"Point","coordinates":[-83.0605060029999,42.345958824]},"properties":{"name":"Faye's Coffee Convenience","owner":"Victor Lloyd","address":"3550 Cass Ave","zipcode":"48221","license_type":"Fixed Establishment","risk_category":"Medium","license_number":"PR18069A","establishmentid":"51622795","establishment_type":"Food Service Establishment","establishment_status":"Plan Review","review_frequency_days":"365.0","most_recent_license_date":null}},"nearbyList":[{"establishmentid":"51622553","name":"Rocco's Italian Deli LLC","address":"3627 Cass Ave","zipcode":"48201"},{"establishmentid":"5094","name":"Peterboro","address":"420 Peterboro St","zipcode":"48201"},{"establishmentid":"51622644","name":"Coop","address":"474 Peterboro St #104","zipcode":"48201"},{"establishmentid":"51622705","name":"Brujo","address":"474 Peterboro St #105","zipcode":"48201"},{"establishmentid":"51622643","name":"Bangkok 96","address":"474 Peterboro Street #103","zipcode":"48201"},{"establishmentid":"51622714","name":"-320 Coffee & Creamery","address":"474 Peterboro Street #201","zipcode":"48201"},{"establishmentid":"51622932","name":"Momo Cha","address":"474 Peterboro St Unit #102","zipcode":"48201"},{"establishmentid":"5359","name":"Detroit Shipping Company- Bars","address":"474 Peterboro St","zipcode":"48201"},{"establishmentid":"51622810","name":"Motor Burger","address":"474 Peterboro Unit #101","zipcode":"48201"},{"establishmentid":"1092","name":"St. Patrick Senior Center, Inc.","address":"58 Parsons St","zipcode":"48201"}],"inspectionsByEstablishmentidList":[]}],"maxInspectionDate":[{"inspectionDate":"2019-10-31T00:00:00"}]}},"pageContext":{"eid":"51622795"}}