{"componentChunkName":"component---src-templates-establishment-page-js","path":"/establishment/804","result":{"data":{"site":{"pathPrefix":"/restaurant-inspections"},"postgres":{"establishment":[{"establishmentid":"804","name":"Monroe's Coney Island","address":"12001 Livernois Ave.","zipcode":"48204","owner":"Craig Monroe, Jr.","licenseNumber":"070300","licenseType":"Fixed Establishment","establishmentType":"Food Service Establishment","establishmentStatus":"Permanently Closed","riskCategory":null,"reviewFrequencyDays":"335","coords":"-83.13947,42.37629","geojson":{"id":"804","type":"Feature","geometry":{"type":"Point","coordinates":[-83.139469464,42.37629234]},"properties":{"name":"Monroe's Coney Island","owner":"Craig Monroe, Jr.","address":"12001 Livernois Ave.","zipcode":"48204","license_type":"Fixed Establishment","risk_category":null,"license_number":"070300","establishmentid":"804","establishment_type":"Food Service Establishment","establishment_status":"Permanently Closed","review_frequency_days":"335","most_recent_license_date":null}},"nearbyList":[{"establishmentid":"2512","name":"Robinson Dairy Vending","address":"12000 Livernois","zipcode":"48204"},{"establishmentid":"286","name":"Jerry's Pizza & B-B-Q Inc.","address":"11749 Livernois Ave.","zipcode":"48204"},{"establishmentid":"271","name":"Bailey's Lounge","address":"11700 Livernois Ave.","zipcode":"48204"},{"establishmentid":"4046","name":"We Luv Lucy's","address":"11600  Livernois Ave.","zipcode":"48206"},{"establishmentid":"1154","name":"We Luv Lucy's ","address":"11600 Livernois","zipcode":"48204"},{"establishmentid":"1000","name":"St. Cecilia Elementary School","address":"6327 Burlingame Ave.","zipcode":"48204"},{"establishmentid":"3973","name":"TCV Tastee Treats","address":"12130 Prairie","zipcode":"48204"},{"establishmentid":"51623248","name":"Everything Turkey","address":"12548 Livernois","zipcode":"48204"},{"establishmentid":"603","name":"Subway #26843","address":"12626 Livernois Ave.","zipcode":"48238"},{"establishmentid":"4806","name":"Hope Academy","address":"12121 Broadstreet","zipcode":"48204"}],"inspectionsByEstablishmentidList":[]}],"maxInspectionDate":[{"inspectionDate":"2023-04-25T00:00:00"}]}},"pageContext":{"eid":"804"}},"staticQueryHashes":["3649515864","63159454"]}