{"componentChunkName":"component---src-templates-establishment-page-js","path":"/establishment/2631","result":{"data":{"site":{"pathPrefix":"/restaurant-inspections"},"postgres":{"establishment":[{"establishmentid":"2631","name":"Crank's Catering","address":"9440 Grinnell","zipcode":"48213","owner":"Jeff Crank","licenseNumber":"new","licenseType":"Other","establishmentType":"LHD - Vending","establishmentStatus":"Permanently Closed","riskCategory":null,"reviewFrequencyDays":null,"coords":"-83.01082,42.40074","geojson":{"id":"2631","type":"Feature","geometry":{"type":"Point","coordinates":[-83.010822583,42.400737396]},"properties":{"name":"Crank's Catering","owner":"Jeff Crank","address":"9440 Grinnell","zipcode":"48213","license_type":"Other","risk_category":null,"license_number":"new","establishmentid":"2631","establishment_type":"LHD - Vending","establishment_status":"Permanently Closed","review_frequency_days":null,"most_recent_license_date":null}},"nearbyList":[{"establishmentid":"3019","name":"Robinson Dairy Vending","address":"9440 Grinnell","zipcode":"48213"},{"establishmentid":"1803","name":"Continental Canteen","address":"8555 Lynch","zipcode":"48234"},{"establishmentid":"1129","name":"Davis Aerospace High School","address":"10200 Erwin","zipcode":"48234"},{"establishmentid":"3226","name":"Chi-Chi's Lounge","address":"9401 Harper Ave.","zipcode":"48213"},{"establishmentid":"3511","name":"Ross Catering","address":"9628  Harper","zipcode":"48213"},{"establishmentid":"3418","name":"Hollywood Coney Island","address":"9951  Gratiot","zipcode":"48213"},{"establishmentid":"3632","name":"Hollywood Coney Island","address":"9951  Gratiot Ave.","zipcode":"48213"},{"establishmentid":"1887","name":"Mega Coney Island","address":"9951 Gratiot","zipcode":"48213"},{"establishmentid":"4491","name":"#1 Chinese Food","address":"9743 Harper","zipcode":"48213"},{"establishmentid":"51623844","name":"AJ Authentic Jamaican Co.","address":"10351 Gratiot","zipcode":"48231"}],"inspectionsByEstablishmentidList":[]}],"maxInspectionDate":[{"inspectionDate":"2023-04-13T00:00:00"}]}},"pageContext":{"eid":"2631"}},"staticQueryHashes":["3649515864","63159454"]}