{"componentChunkName":"component---src-templates-establishment-page-js","path":"/establishment/3097","result":{"data":{"site":{"pathPrefix":"/restaurant-inspections"},"postgres":{"establishment":[{"establishmentid":"3097","name":"Church's Fried Chicken","address":"6931 Jefferson St. E.","zipcode":"48213","owner":"Ji Fei Xiao","licenseNumber":"042591","licenseType":"Fixed Establishment","establishmentType":"Food Service Establishment","establishmentStatus":"Open","riskCategory":null,"reviewFrequencyDays":"335","coords":"-83.00361,42.34685","geojson":{"id":"3097","type":"Feature","geometry":{"type":"Point","coordinates":[-83.003608299,42.346848612]},"properties":{"name":"Church's Fried Chicken","owner":"Ji Fei Xiao","address":"6931 Jefferson St. E.","zipcode":"48213","license_type":"Fixed Establishment","risk_category":null,"license_number":"042591","establishmentid":"3097","establishment_type":"Food Service Establishment","establishment_status":"Open","review_frequency_days":"335","most_recent_license_date":null}},"nearbyList":[{"establishmentid":"51623632","name":"Nicky D's","address":"6931 Jefferson E.","zipcode":"48207"},{"establishmentid":"1188","name":"Church's Fried Chicken #345","address":"6931 Jefferson Ave. E.","zipcode":"48207"},{"establishmentid":"2332","name":"City Pekins Chinese Food","address":"6905 Jefferson E.","zipcode":"48207"},{"establishmentid":"1882","name":"City Pekin Chinese Food","address":"6905 Jefferson Ave. E.","zipcode":"48207"},{"establishmentid":"2242","name":"Tim Hortons","address":"7201 Jefferson Ave. E.","zipcode":"48214"},{"establishmentid":"2094","name":"Salvation Army Evangeline Center","address":"130 Grand Blvd. W.","zipcode":"48216"},{"establishmentid":"4538","name":"Continental Canteen","address":"130 E. Grand Blvd","zipcode":"48207"},{"establishmentid":"1800","name":"Wendy's","address":"6601 Jefferson Ave. E.","zipcode":"48207"},{"establishmentid":"4819","name":"Miami Fish & Chicken, LLC","address":"7255  Jefferson E.","zipcode":"48214"},{"establishmentid":"5054","name":"Belle Isle Krispy Crunchy Chicken","address":"7255 Jefferson Ave. E.","zipcode":"48214"}],"inspectionsByEstablishmentidList":[]}],"maxInspectionDate":[{"inspectionDate":"2023-04-13T00:00:00"}]}},"pageContext":{"eid":"3097"}},"staticQueryHashes":["3649515864","63159454"]}