{"componentChunkName":"component---src-templates-establishment-page-js","path":"/establishment/237","result":{"data":{"site":{"pathPrefix":"/restaurant-inspections"},"postgres":{"establishment":[{"establishmentid":"237","name":"Cass Community UMC & Center","address":"3901 Cass Ave.","zipcode":"48201","owner":"CASS COMMUNITY UMC","licenseNumber":"033868","licenseType":"Fixed Establishment","establishmentType":"Food Service Establishment","establishmentStatus":"Permanently Closed","riskCategory":null,"reviewFrequencyDays":"150","coords":"-83.06267,42.34825","geojson":{"id":"237","type":"Feature","geometry":{"type":"Point","coordinates":[-83.062665405,42.348250578]},"properties":{"name":"Cass Community UMC & Center","owner":"CASS COMMUNITY UMC","address":"3901 Cass Ave.","zipcode":"48201","license_type":"Fixed Establishment","risk_category":null,"license_number":"033868","establishmentid":"237","establishment_type":"Food Service Establishment","establishment_status":"Permanently Closed","review_frequency_days":"150","most_recent_license_date":"12/4/2006"}},"nearbyList":[{"establishmentid":"51622663","name":"SheWolf Pastificio & Bar","address":"438 Selden St.","zipcode":"48201"},{"establishmentid":"1337","name":"Old Miami Bar","address":"3930 Cass Ave.","zipcode":"48201"},{"establishmentid":"2140","name":"Honest John's Bar & Grill","address":"488 Selden St.","zipcode":"48201"},{"establishmentid":"5042","name":"Slows On The Go Mobile Kitchen","address":"4107 Cass Ave.","zipcode":"48201"},{"establishmentid":"4152","name":"Slows To Go","address":"4107 Cass Ave.","zipcode":"48201"},{"establishmentid":"51623815","name":"Ice Cream Detroit","address":"3762 2nd St.","zipcode":"48207"},{"establishmentid":"3354","name":"DSA Detroit School of Arts (9-12)","address":"123 Selden St.","zipcode":"48201"},{"establishmentid":"5386","name":"Detroit Royale with Cheese","address":"4163 Cass Ave.","zipcode":"48201"},{"establishmentid":"4646","name":"La Feria Spanish Tapas","address":"4130 Cass Ave.","zipcode":"48201"},{"establishmentid":"51622553","name":"Rocco's Italian Deli LLC","address":"3627 Cass Ave","zipcode":"48201"}],"inspectionsByEstablishmentidList":[]}],"maxInspectionDate":[{"inspectionDate":"2022-08-31T00:00:00"}]}},"pageContext":{"eid":"237"}},"staticQueryHashes":["3649515864","63159454"]}