{"data":{"site":{"pathPrefix":"/restaurant-inspections"},"postgres":{"establishment":[{"establishmentid":"1873","name":"Suite 100","address":"15789 Schaefer Hwy","zipcode":"48227","owner":"C-Lark Corp.","licenseNumber":"036910","licenseType":"Fixed Establishment","establishmentType":"Food Service Establishment","establishmentStatus":"Open","riskCategory":null,"reviewFrequencyDays":"365.0","coords":"-83.17958,42.40736","geojson":{"id":"1873","type":"Feature","geometry":{"type":"Point","coordinates":[-83.179576616,42.4073583580001]},"properties":{"name":"Suite 100","owner":"C-Lark Corp.","address":"15789 Schaefer Hwy","zipcode":"48227","license_type":"Fixed Establishment","risk_category":null,"license_number":"036910","establishmentid":"1873","establishment_type":"Food Service Establishment","establishment_status":"Open","review_frequency_days":"365.0","most_recent_license_date":"4/19/2018"}},"nearbyList":[{"establishmentid":"5175","name":"Gunny Ray's Shrimp & Chicken","address":"15391 Schaefer Hwy","zipcode":"48227"},{"establishmentid":"4164","name":"Disabled Am. Vets K-R Metro Chp. No.1","address":"13221 Puritan Ave","zipcode":"48227"},{"establishmentid":"1214","name":"Church's Fried Chicken #964","address":"13531 Fenkell Ave","zipcode":"48227"},{"establishmentid":"5393","name":"Five Hundred Degrees","address":"15090 Schaefer","zipcode":"48227"},{"establishmentid":"1866","name":"Lee's Texas Style Bar-B-Que","address":"14001 Fenkell","zipcode":"48227"},{"establishmentid":"3582","name":"Lincoln-King Academy","address":"13436 Grove St","zipcode":"48235"},{"establishmentid":"852","name":"John R King Academic & Performing Arts ","address":"15850 Strathmoor","zipcode":"48227"},{"establishmentid":"5391","name":"Desmond's Elegant Affairs","address":"12924 Puritan Ave","zipcode":"48227"},{"establishmentid":"1913","name":"Happy's Pizza #4","address":"16850 Schaefer Hwy","zipcode":"48235"},{"establishmentid":"1406","name":"Christland Missionary Baptist Church","address":"12901 Puritan Ave","zipcode":"48227"},{"establishmentid":"782","name":"Toya's Bar & Grill","address":"14906 Schaefer Hwy","zipcode":"48227"},{"establishmentid":"766","name":"Akbar's Coffee Shop","address":"12943 Fenkell Ave","zipcode":"48227"},{"establishmentid":"1895","name":"L. George's Coney Island ","address":"13635 W McNichols Rd","zipcode":"48235"},{"establishmentid":"4396","name":"Sweet Soul Bistro","address":"13741 W McNichols Rd","zipcode":"48235"},{"establishmentid":"2361","name":"Kentucky Fried Chicken H730222","address":"13546 W McNichols Rd","zipcode":"48235"},{"establishmentid":"2131","name":"Twisted Dairy","address":"13801 W McNichols Rd","zipcode":"48235"},{"establishmentid":"3381","name":"Rono's Caribbean Paradise Restaurant","address":"14001 W McNichols Rd","zipcode":"48235"},{"establishmentid":"1426","name":"Burger King ","address":"13600 W McNichols Rd","zipcode":"48235"},{"establishmentid":"4253","name":"Golden Bowl Chop Suey","address":"13337 W McNichols Rd","zipcode":"48235"},{"establishmentid":"2405","name":"Mark's A. Eagles #4 Coney Island","address":"12701 Puritan Ave","zipcode":"48227"}],"inspectionsByEstablishmentidList":[{"inspectionid":"41489","inspectionDate":"2018-02-13T00:00:00","inspectionType":"Routine Inspection","inCompliance":"Yes","violationsByInspectionidList":[]},{"inspectionid":"37712","inspectionDate":"2017-01-17T00:00:00","inspectionType":"Routine Inspection","inCompliance":"Yes","violationsByInspectionidList":[]}]}]}},"pageContext":{"eid":"1873"}}