{"componentChunkName":"component---src-templates-establishment-page-js","path":"/establishment/750","result":{"data":{"site":{"pathPrefix":"/restaurant-inspections"},"postgres":{"establishment":[{"establishmentid":"750","name":"Starvin Marvin ","address":"12449 Conant","zipcode":"48212","owner":"Top Tier, LLC","licenseNumber":"073292","licenseType":"Fixed Establishment","establishmentType":"Food Service Establishment","establishmentStatus":"Temporarily Closed","riskCategory":null,"reviewFrequencyDays":"500","coords":"-83.05853,42.41065","geojson":{"id":"750","type":"Feature","geometry":{"type":"Point","coordinates":[-83.058528007,42.410645645]},"properties":{"name":"Starvin Marvin ","owner":"Top Tier, LLC","address":"12449 Conant","zipcode":"48212","license_type":"Fixed Establishment","risk_category":null,"license_number":"073292","establishmentid":"750","establishment_type":"Food Service Establishment","establishment_status":"Temporarily Closed","review_frequency_days":"500","most_recent_license_date":null}},"nearbyList":[{"establishmentid":"3589","name":"HRs Lounge","address":"12449 Conant","zipcode":"48212"},{"establishmentid":"51622666","name":"New Al Baraka Restaurant LLC","address":"3611  Carpenter St. Ste 1","zipcode":"48212"},{"establishmentid":"4115","name":"Al Baraka Restaurant","address":"3611  Carpenter St.","zipcode":"48212"},{"establishmentid":"51622972","name":"Modhubann Sweet & Cafe ","address":"3611 Carpenter","zipcode":"48212"},{"establishmentid":"4949","name":"Frontier International Academy","address":"13200 Conant","zipcode":"48212"},{"establishmentid":"51623761","name":"Best Ice Cream ","address":"3886 Gravin ","zipcode":"48212"},{"establishmentid":"717","name":"J & S Bar","address":"12208 Conant Ave.","zipcode":"48212"},{"establishmentid":"3373","name":"Reshmi Sweets & Cafe","address":"12170 Conant Ave.","zipcode":"48212"},{"establishmentid":"4402","name":"Bridge Academy West","address":"3105 Carpenter St.","zipcode":"48212"},{"establishmentid":"51623776","name":"Coney Star","address":"13347 Conant","zipcode":"48212"}],"inspectionsByEstablishmentidList":[]}],"maxInspectionDate":[{"inspectionDate":"2022-08-31T00:00:00"}]}},"pageContext":{"eid":"750"}},"staticQueryHashes":["3649515864","63159454"]}