{"componentChunkName":"component---src-templates-establishment-page-js","path":"/establishment/51623698","result":{"data":{"site":{"pathPrefix":"/restaurant-inspections"},"postgres":{"establishment":[{"establishmentid":"51623698","name":"Gorditas Cuernavaca","address":"8772 Mason Place","zipcode":"48209","owner":"Jose Adrian Alquicer-Diaz","licenseNumber":"262965","licenseType":"Special Transitory Food Unit","establishmentType":"LHD - Special Transitory Food","establishmentStatus":"Open","riskCategory":null,"reviewFrequencyDays":null,"coords":"-83.13181,42.30578","geojson":{"id":"51623698","type":"Feature","geometry":{"type":"Point","coordinates":[-83.131809957,42.305783143]},"properties":{"name":"Gorditas Cuernavaca","owner":"Jose Adrian Alquicer-Diaz","address":"8772 Mason Place","zipcode":"48209","license_type":"Special Transitory Food Unit","risk_category":null,"license_number":"262965","establishmentid":"51623698","establishment_type":"LHD - Special Transitory Food","establishment_status":"Open","review_frequency_days":null,"most_recent_license_date":"2022-04-12"}},"nearbyList":[{"establishmentid":"51623434","name":"El Mayab Cocina Yucateca LLC","address":"8845 Mason Place","zipcode":"48209"},{"establishmentid":"1356","name":"SW Det Lodge #1870 Loo Moose","address":"2034 Lawndale","zipcode":"48209"},{"establishmentid":"51622914","name":"La Palapa Del Parian","address":"1633 Lawndale","zipcode":"48209"},{"establishmentid":"5028","name":"Marisqueria El Emperio","address":"1633 Lawndale","zipcode":"48209"},{"establishmentid":"4803","name":"El Parian Commissary","address":"1633 Lawndale","zipcode":"48209"},{"establishmentid":"4960","name":"El Parian Commissary","address":"1633 Lawndale","zipcode":"48209"},{"establishmentid":"4990","name":"Marisqueria El Emperio","address":"1633 Lawndale","zipcode":"48209"},{"establishmentid":"3383","name":"La Terraza","address":"1633  Lawndale","zipcode":"48209"},{"establishmentid":"51622654","name":"La Reata","address":"1633 Lawndale","zipcode":"48209"},{"establishmentid":"51623625","name":"LA Palapa Del Parian ","address":"1631 Lawndale ","zipcode":"48209"}],"inspectionsByEstablishmentidList":[{"inspectionid":"62153","inspectionDate":"2023-04-17T00:00:00","inspectionType":"Routine Inspection","inCompliance":"No","violationsByInspectionidList":[]},{"inspectionid":"59381","inspectionDate":"2022-05-16T00:00:00","inspectionType":"Preopening/New","inCompliance":"Yes","violationsByInspectionidList":[]}]}],"maxInspectionDate":[{"inspectionDate":"2023-04-25T00:00:00"}]}},"pageContext":{"eid":"51623698"}},"staticQueryHashes":["3649515864","63159454"]}