{"data":{"postgres":{"establishment":[{"establishmentid":"5298","name":"White House Night Club","address":"625 Shelby","zipcode":"48226","owner":"Michael Davis","licenseNumber":"202858","licenseType":"Fixed Establishment","establishmentType":"Food Service Establishment","establishmentStatus":"Permanently Closed","riskCategory":"Medium","reviewFrequencyDays":"365.0","coords":"-83.04854,42.32944","geojson":{"id":"5298","type":"Feature","geometry":{"type":"Point","coordinates":[-83.048540803,42.3294403210001]},"properties":{"name":"White House Night Club","owner":"Michael Davis","address":"625 Shelby","zipcode":"48226","license_type":"Fixed Establishment","risk_category":"Medium","license_number":"202858","establishmentid":"5298","establishment_type":"Food Service Establishment","establishment_status":"Permanently Closed","review_frequency_days":"365.0","most_recent_license_date":"4/24/2017"}},"nearbyList":[{"establishmentid":"51622554","name":"Brome Modern Eatery","address":"607 Shelby St","zipcode":"48226"},{"establishmentid":"1538","name":"Subway","address":"220 W Congress","zipcode":"48226"},{"establishmentid":"3513","name":"Blue Star Cafe","address":"239 W Congress St","zipcode":"48226"},{"establishmentid":"3496","name":"The Bean Bar","address":"249 W Congress St","zipcode":"48226"},{"establishmentid":"51622749","name":"Trust Night Club","address":"205 W Congress","zipcode":"4821"},{"establishmentid":"5149","name":"Epitome Lounge","address":"205 W Congress","zipcode":"48226"},{"establishmentid":"4837","name":"Zoom Coney Restaurant","address":"211 W Fort","zipcode":"48226"},{"establishmentid":"5194","name":"The Caucus Club","address":"150 W Congress","zipcode":"48226"},{"establishmentid":"4032","name":"London Chop House","address":"155 W Congress Ste 10","zipcode":"48226"},{"establishmentid":"51622490","name":"Foundation Hotel- Chef's Table","address":"250 W Larned","zipcode":"48226"},{"establishmentid":"51622489","name":"Foundation Hotel- Employee Dining","address":"250 W Larned","zipcode":"48226"},{"establishmentid":"5396","name":"Foundation Hotel- Apparatus Room","address":"250 W Larned","zipcode":"48226"},{"establishmentid":"51622491","name":"Foundation Hotel- Banquet","address":"250 W Larned","zipcode":"48226"},{"establishmentid":"51622819","name":"Fort Street Galley (Bar)","address":"160 W Fort St","zipcode":"48226"},{"establishmentid":"51622866","name":"Isla/Fort Street Galley","address":"160 W Fort St","zipcode":"48226"},{"establishmentid":"51622865","name":"Lucky's Noble BBQ/Fort Street Galley","address":"160 W Fort St","zipcode":"48226"},{"establishmentid":"5320","name":"Maru Detroit","address":"160 W Fort St","zipcode":"48226"},{"establishmentid":"51622867","name":"Allenby/Fort Street Galley","address":"160 W Fort St","zipcode":"48226"},{"establishmentid":"51622868","name":"Pursue/Fort Street Galley","address":"160 W Fort St","zipcode":"48226"},{"establishmentid":"4371","name":"Flat 151","address":"151 W Congress St","zipcode":"48226"}],"inspectionsByEstablishmentidList":[]}]}},"pageContext":{"eid":"5298"}}