{"componentChunkName":"component---src-templates-establishment-page-js","path":"/establishment/3318","result":{"data":{"site":{"pathPrefix":"/restaurant-inspections"},"postgres":{"establishment":[{"establishmentid":"3318","name":"SOUTHEASTERN HIGH SCHOOL-SOUTH BLDG.","address":"2962  Fairview","zipcode":"48214","owner":"DETROIT PUBLIC SCHOOLS","licenseNumber":"035616S","licenseType":"Fixed Establishment","establishmentType":"Public School","establishmentStatus":"Open","riskCategory":null,"reviewFrequencyDays":null,"coords":"-82.97807,42.37394","geojson":{"id":"3318","type":"Feature","geometry":{"type":"Point","coordinates":[-82.978068396,42.373940915]},"properties":{"name":"SOUTHEASTERN HIGH SCHOOL-SOUTH BLDG.","owner":"DETROIT PUBLIC SCHOOLS","address":"2962  Fairview","zipcode":"48214","license_type":"Fixed Establishment","risk_category":null,"license_number":"035616S","establishmentid":"3318","establishment_type":"Public School","establishment_status":"Open","review_frequency_days":null,"most_recent_license_date":null}},"nearbyList":[{"establishmentid":"873","name":"Southeastern High School","address":"3030 Fairview","zipcode":"48214"},{"establishmentid":"2331","name":"C & M Diner","address":"11139 Mack Ave.","zipcode":"48214"},{"establishmentid":"3186","name":"Johnson McKinney School","address":"11131 Kercheval Ave.","zipcode":"48213"},{"establishmentid":"834","name":"Hutchinson Learning Academy","address":"2600 Garland","zipcode":"48214"},{"establishmentid":"1392","name":"Williams and Sons Ice Cream","address":"10700 Mack Ave.","zipcode":"48214"},{"establishmentid":"3317","name":"Detroit Enterprise Academy","address":"11224 Kercheval Ave","zipcode":"48214"},{"establishmentid":"3509","name":"Salvation Army","address":"3735 Harding","zipcode":"48214"},{"establishmentid":"3052","name":"Variety Vending","address":"2101 Conner","zipcode":"48215"},{"establishmentid":"3053","name":"Variety Vending","address":"2101 Conner","zipcode":"48215"},{"establishmentid":"1540","name":"Variety Foodservices Inc.","address":"2101 Conner Ave.","zipcode":"48215"}],"inspectionsByEstablishmentidList":[]}],"maxInspectionDate":[{"inspectionDate":"2022-08-31T00:00:00"}]}},"pageContext":{"eid":"3318"}},"staticQueryHashes":["3649515864","63159454"]}