{"componentChunkName":"component---src-templates-establishment-page-js","path":"/establishment/51623079","result":{"data":{"site":{"pathPrefix":"/restaurant-inspections"},"postgres":{"establishment":[{"establishmentid":"51623079","name":"Lumen Detroit","address":"1903 GrandRiver","zipcode":"48226","owner":"Norman LePage","licenseNumber":"19108-D","licenseType":"Mobile Food Establishment","establishmentType":"LHD - Mobile Food Establishmen","establishmentStatus":"Plan Review","riskCategory":null,"reviewFrequencyDays":"180","coords":"-83.05488,42.33442","geojson":{"id":"51623079","type":"Feature","geometry":{"type":"Point","coordinates":[-83.054883403,42.334421588]},"properties":{"name":"Lumen Detroit","owner":"Norman LePage","address":"1903 GrandRiver","zipcode":"48226","license_type":"Mobile Food Establishment","risk_category":null,"license_number":"19108-D","establishmentid":"51623079","establishment_type":"LHD - Mobile Food Establishmen","establishment_status":"Plan Review","review_frequency_days":"180","most_recent_license_date":null}},"nearbyList":[{"establishmentid":"51622486","name":"Lumen Detroit","address":"1903 Grand River","zipcode":"48226"},{"establishmentid":"4916","name":"Republic Tavern","address":"1942 Grand River","zipcode":"48226"},{"establishmentid":"4655","name":"Leland House","address":"400 Bagley","zipcode":"48226"},{"establishmentid":"720","name":"Lucy & Ethel's Diner","address":"400 Bagley Ave.","zipcode":"48226"},{"establishmentid":"51623353","name":"Dagwood's Sandwich Shop","address":"400 Bagley","zipcode":"48226"},{"establishmentid":"5401","name":"Express Dogs","address":"220 Bagley","zipcode":"48209"},{"establishmentid":"487","name":"Detroit Edison Cafeteria ","address":"2000 Second Ave.","zipcode":"48226"},{"establishmentid":"3617","name":"DTE Energy Town Square C-Store313","address":"2000 Second","zipcode":"48226"},{"establishmentid":"4583","name":"Total Vending","address":"2000 Second Ave.","zipcode":"48226"},{"establishmentid":"652","name":"Nick's Gaslight Inc.","address":"441 Grand River  W.","zipcode":"48226"}],"inspectionsByEstablishmentidList":[]}],"maxInspectionDate":[{"inspectionDate":"2022-08-31T00:00:00"}]}},"pageContext":{"eid":"51623079"}},"staticQueryHashes":["3649515864","63159454"]}