{"componentChunkName":"component---src-templates-establishment-page-js","path":"/establishment/1846","result":{"data":{"site":{"pathPrefix":"/restaurant-inspections"},"postgres":{"establishment":[{"establishmentid":"1846","name":"ROMAN VENDING CO","address":"1200 OAKMAN","zipcode":"48238","owner":"ROMAN VENDING CO","licenseNumber":"036033","licenseType":"Other","establishmentType":"LHD - Vending","establishmentStatus":"Permanently Closed","riskCategory":null,"reviewFrequencyDays":"180","coords":"-83.11961,42.40124","geojson":{"id":"1846","type":"Feature","geometry":{"type":"Point","coordinates":[-83.119605601,42.401237269]},"properties":{"name":"ROMAN VENDING CO","owner":"ROMAN VENDING CO","address":"1200 OAKMAN","zipcode":"48238","license_type":"Other","risk_category":null,"license_number":"036033","establishmentid":"1846","establishment_type":"LHD - Vending","establishment_status":"Permanently Closed","review_frequency_days":"180","most_recent_license_date":null}},"nearbyList":[{"establishmentid":"2662","name":"Robinson Dairy Vending","address":"1200 Oakman","zipcode":"48238"},{"establishmentid":"2942","name":"Corporate Dining Services","address":"1200  Oakman","zipcode":"48238"},{"establishmentid":"3502","name":"Joy Preparatory Academy - Oakman Campus","address":"1129 Oakman Blvd.","zipcode":"48238"},{"establishmentid":"4602","name":"Modern Vending","address":"1360 Oakman Blvd.","zipcode":"48238"},{"establishmentid":"1029","name":"New Paradigm/Glazer Elementary","address":"2001 LaBelle","zipcode":"48238"},{"establishmentid":"4591","name":"AVI Food Systems","address":"1400 Oakman","zipcode":"48238"},{"establishmentid":"1604","name":"Focus:Hope Center ADVA Technology","address":"1400 Oakman","zipcode":"48238"},{"establishmentid":"2520","name":"Robinson Vending","address":"1400 Oakman","zipcode":"48212"},{"establishmentid":"2943","name":"Corporate Dining Services","address":"1400 Oakman","zipcode":"48238"},{"establishmentid":"5014","name":"Touch Of Class Catering","address":"1400 Oakman Blvd.","zipcode":"48238"}],"inspectionsByEstablishmentidList":[]}],"maxInspectionDate":[{"inspectionDate":"2023-04-25T00:00:00"}]}},"pageContext":{"eid":"1846"}},"staticQueryHashes":["3649515864","63159454"]}