{"componentChunkName":"component---src-templates-establishment-page-js","path":"/establishment/1573","result":{"data":{"site":{"pathPrefix":"/restaurant-inspections"},"postgres":{"establishment":[{"establishmentid":"1573","name":"Mae E. Jemison School","address":"6230 Plainview","zipcode":"48228","owner":"Detroit Board of Education","licenseNumber":"035825","licenseType":"Fixed Establishment","establishmentType":"Public School","establishmentStatus":"Permanently Closed","riskCategory":null,"reviewFrequencyDays":"180","coords":"-83.23328,42.33514","geojson":{"id":"1573","type":"Feature","geometry":{"type":"Point","coordinates":[-83.233275928,42.335138823]},"properties":{"name":"Mae E. Jemison School","owner":"Detroit Board of Education","address":"6230 Plainview","zipcode":"48228","license_type":"Fixed Establishment","risk_category":null,"license_number":"035825","establishmentid":"1573","establishment_type":"Public School","establishment_status":"Permanently Closed","review_frequency_days":"180","most_recent_license_date":null}},"nearbyList":[{"establishmentid":"4284","name":"Detroit Leadership Academy","address":"5845 Auburn","zipcode":"48228"},{"establishmentid":"5233","name":"Evergreen Fish Express LLC","address":"6540 Evergreen","zipcode":"48228"},{"establishmentid":"4137","name":"Old Fashion Hamburger Company","address":"19533 Warren Ave. W","zipcode":"48228"},{"establishmentid":"368","name":"Juan's Corned Beef","address":"19533 Warren Ave. W.","zipcode":"48228"},{"establishmentid":"257","name":"Pete's Bar","address":"19421 Warren W.","zipcode":"48228"},{"establishmentid":"51623436","name":"Catrina Mia","address":"6212 Artesian","zipcode":"48228"},{"establishmentid":"690","name":"Diamond Jim's Saloon","address":"19650 Warren Ave. W.","zipcode":"48228"},{"establishmentid":"1443","name":"Pizza Way","address":"20039 Warren Ave. W.","zipcode":"48228"},{"establishmentid":"255","name":"Last Call Bar","address":"19432 Warren Ave. W.","zipcode":"48228"},{"establishmentid":"256","name":"Hurry Inn ","address":"19430-32 Warren Ave. W.","zipcode":"48228"}],"inspectionsByEstablishmentidList":[]}],"maxInspectionDate":[{"inspectionDate":"2022-07-25T00:00:00"}]}},"pageContext":{"eid":"1573"}},"staticQueryHashes":["3649515864","63159454"]}