{"componentChunkName":"component---src-templates-establishment-page-js","path":"/establishment/3883","result":{"data":{"site":{"pathPrefix":"/restaurant-inspections"},"postgres":{"establishment":[{"establishmentid":"3883","name":"TORTITAS EL ROJITO","address":"2257 WATERMAN","zipcode":null,"owner":"OSCAR LOPEZ","licenseNumber":"WV2257","licenseType":"Fixed Establishment","establishmentType":"Food Service Establishment","establishmentStatus":"Temporarily Closed","riskCategory":null,"reviewFrequencyDays":null,"coords":"-83.11681,42.31535","geojson":{"id":"3883","type":"Feature","geometry":{"type":"Point","coordinates":[-83.116813763,42.315348015]},"properties":{"name":"TORTITAS EL ROJITO","owner":"OSCAR LOPEZ","address":"2257 WATERMAN","zipcode":null,"license_type":"Fixed Establishment","risk_category":null,"license_number":"WV2257","establishmentid":"3883","establishment_type":"Food Service Establishment","establishment_status":"Temporarily Closed","review_frequency_days":null,"most_recent_license_date":null}},"nearbyList":[{"establishmentid":"51623886","name":"Tacos Del Barrio","address":"2257 Waterman","zipcode":"48209"},{"establishmentid":"51622712","name":"Tacos Regios Mexican Grill","address":"2257 Waterman","zipcode":"48209"},{"establishmentid":"51623131","name":"Ice Cream & Cafe La Ni√±a","address":"2257 Waterman","zipcode":"48209"},{"establishmentid":"365","name":"Metro Flea Market","address":"6665 Vernor W.","zipcode":null},{"establishmentid":"1458","name":"Vernor Street Station","address":"6831 Vernor St. W.","zipcode":"48209"},{"establishmentid":"51623945","name":"Helados Las Alegrias","address":"7003 Vernor W.","zipcode":"48209"},{"establishmentid":"454","name":"Taqueria Los Altos","address":"7056 Vernor St. W.","zipcode":"48209"},{"establishmentid":"51622995","name":"Taco Fiesta","address":"7040 Garther St.","zipcode":"48209"},{"establishmentid":"2783","name":"Variety Vending","address":"6910 Dix","zipcode":"48209"},{"establishmentid":"2517","name":"Robinson Dairy Vending","address":"6910 Dix","zipcode":"48209"}],"inspectionsByEstablishmentidList":[]}],"maxInspectionDate":[{"inspectionDate":"2023-04-13T00:00:00"}]}},"pageContext":{"eid":"3883"}},"staticQueryHashes":["3649515864","63159454"]}