{"componentChunkName":"component---src-templates-establishment-page-js","path":"/establishment/4132","result":{"data":{"site":{"pathPrefix":"/restaurant-inspections"},"postgres":{"establishment":[{"establishmentid":"4132","name":"TNT Turkeys Enterprises","address":"14300 Woodmont St.","zipcode":"48227","owner":"Thomas & Lisa Seaborn","licenseNumber":"Unlicens","licenseType":"Other","establishmentType":"Food Service Establishment","establishmentStatus":"Permanently Closed","riskCategory":null,"reviewFrequencyDays":null,"coords":"-83.20920,42.39180","geojson":{"id":"4132","type":"Feature","geometry":{"type":"Point","coordinates":[-83.209204357,42.391802936]},"properties":{"name":"TNT Turkeys Enterprises","owner":"Thomas & Lisa Seaborn","address":"14300 Woodmont St.","zipcode":"48227","license_type":"Other","risk_category":null,"license_number":"Unlicens","establishmentid":"4132","establishment_type":"Food Service Establishment","establishment_status":"Permanently Closed","review_frequency_days":null,"most_recent_license_date":null}},"nearbyList":[{"establishmentid":"3107","name":"Mr. Softeez","address":"14104 Rutland","zipcode":"48227"},{"establishmentid":"2352","name":"Papa's Pizza","address":"16501 Grand River Ave.","zipcode":"48227"},{"establishmentid":"5165","name":"Papa's Pizza","address":"16501 Grand River Ave.","zipcode":"48227"},{"establishmentid":"1501","name":"Tubby's Sub Shop #75","address":"16543 Grand River Ave.","zipcode":"48227"},{"establishmentid":"1308","name":"Detroit Roller Wheels","address":"16611 Schoolcraft Rd.","zipcode":"48227"},{"establishmentid":"51623682","name":"Bama Dogs LLC (Oakland Co.)","address":"13596 Asbury PK","zipcode":"48227"},{"establishmentid":"2078","name":"Universal Coney Island","address":"15951 Grand River Ave.","zipcode":"48227"},{"establishmentid":"51623051","name":"Mahogany Club","address":"16151 Schoolcraft","zipcode":"48227"},{"establishmentid":"435","name":"Chita's Nefertiti's Bar","address":"15942 Grand River Ave.","zipcode":"48227"},{"establishmentid":"1222","name":"Edison Elementary School","address":"17045 Grand River Ave.","zipcode":"48227"}],"inspectionsByEstablishmentidList":[]}],"maxInspectionDate":[{"inspectionDate":"2023-04-25T00:00:00"}]}},"pageContext":{"eid":"4132"}},"staticQueryHashes":["3649515864","63159454"]}