{"componentChunkName":"component---src-templates-establishment-page-js","path":"/establishment/51623005","result":{"data":{"site":{"pathPrefix":"/restaurant-inspections"},"postgres":{"establishment":[{"establishmentid":"51623005","name":"Bull Dogs","address":"10811 Puritan","zipcode":"48238","owner":"Steven Able","licenseNumber":"051419PS","licenseType":"Mobile Food Establishment","establishmentType":"LHD - Mobile Food Establishmen","establishmentStatus":"Open","riskCategory":null,"reviewFrequencyDays":"180","coords":"-83.16909,42.40930","geojson":{"id":"51623005","type":"Feature","geometry":{"type":"Point","coordinates":[-83.169088909,42.409300205]},"properties":{"name":"Bull Dogs","owner":"Steven Able","address":"10811 Puritan","zipcode":"48238","license_type":"Mobile Food Establishment","risk_category":null,"license_number":"051419PS","establishmentid":"51623005","establishment_type":"LHD - Mobile Food Establishmen","establishment_status":"Open","review_frequency_days":"180","most_recent_license_date":null}},"nearbyList":[{"establishmentid":"3278","name":"Times Square Deli","address":"16146 Meyers","zipcode":"48235"},{"establishmentid":"2815","name":"VIP Deli & Grill","address":"16146 Meyers","zipcode":"48235"},{"establishmentid":"3494","name":"Times Square Deli","address":"16146 Meyers","zipcode":"48235"},{"establishmentid":"2487","name":"Rite Time Delight","address":"16146 MEYERS","zipcode":"48238"},{"establishmentid":"2431","name":"Hot Dog King","address":"16146 Meyers","zipcode":"48235"},{"establishmentid":"2405","name":"Mark's A. Eagles #4 Coney Island","address":"12701 Puritan Ave.","zipcode":"48227"},{"establishmentid":"2099","name":"Club Rendezvous","address":"16139 Meyers","zipcode":"48235"},{"establishmentid":"1406","name":"Christland Missionary Baptist Church","address":"12901 Puritan Ave.","zipcode":"48227"},{"establishmentid":"273","name":"Gibson's Lounge","address":"12924 Puritan Ave.","zipcode":"48227"},{"establishmentid":"5391","name":"Desmond's Elegant Affairs","address":"12924 Puritan","zipcode":"48227"}],"inspectionsByEstablishmentidList":[{"inspectionid":"48044","inspectionDate":"2019-06-11T00:00:00","inspectionType":"Hot Dog Cart","inCompliance":"Yes","violationsByInspectionidList":[{"violationCode":"4-602.13","violationDescription":"NonFOOD-CONTACT SURFACES of EQUIPMENT shall be cleaned at a frequency necessary to preclude accumulation of soil residues.\n","violationType":"Core","itemDescription":"Nonfood contact surface(s)","subItem":null,"problemDescription":"Soiled","subProblem":null,"location":"HOT DOG CART","subLocation":"Inside the Cabinet(s) (lower)","corrected":"False","daysToCorrect":"30","correctedDate":null,"correctionDescription":null}]}]}],"maxInspectionDate":[{"inspectionDate":"2022-08-31T00:00:00"}]}},"pageContext":{"eid":"51623005"}},"staticQueryHashes":["3649515864","63159454"]}