{"componentChunkName":"component---src-templates-establishment-page-js","path":"/establishment/695","result":{"data":{"site":{"pathPrefix":"/restaurant-inspections"},"postgres":{"establishment":[{"establishmentid":"695","name":"Three Aces Lounge","address":"3201 Gilbert St.","zipcode":"48209","owner":"Sobush, John","licenseNumber":"034648","licenseType":"Fixed Establishment","establishmentType":"Food Service Establishment","establishmentStatus":"Open","riskCategory":null,"reviewFrequencyDays":"500","coords":"-83.11805,42.32534","geojson":{"id":"695","type":"Feature","geometry":{"type":"Point","coordinates":[-83.118049089,42.32534361]},"properties":{"name":"Three Aces Lounge","owner":"Sobush, John","address":"3201 Gilbert St.","zipcode":"48209","license_type":"Fixed Establishment","risk_category":null,"license_number":"034648","establishmentid":"695","establishment_type":"Food Service Establishment","establishment_status":"Open","review_frequency_days":"500","most_recent_license_date":null}},"nearbyList":[{"establishmentid":"860","name":"SGT-Edward J Madaj AMVETS #","address":"3401 Gilbert St","zipcode":"48210"},{"establishmentid":"815","name":"Abicks Bar","address":"3500 Gilbert St.","zipcode":"48210"},{"establishmentid":"1707","name":"The Mexicano Restaurant","address":"3410 Livernois","zipcode":"48210"},{"establishmentid":"4069","name":"Pupuseria Y Restaurant","address":"3149  Livernois","zipcode":"48210"},{"establishmentid":"3372","name":"Jalisco Restaurant","address":"3149  Livernois ","zipcode":"48210"},{"establishmentid":"5247","name":"La Casita","address":"3242 Livernois","zipcode":"48209"},{"establishmentid":"51623304","name":"Raquels Cocina (Wayne County)","address":"3422 Military St.","zipcode":"48210"},{"establishmentid":"51622860","name":"Pietrzyk Pierogi","address":"3700 Gilbert St.","zipcode":"48210"},{"establishmentid":"3526","name":"St. Peter & Paul Orthodox Cathedral","address":"3700  Gilbert St.","zipcode":"48210"},{"establishmentid":"51622462","name":"Better Woodman","address":"3700 Gilbert","zipcode":"48210"}],"inspectionsByEstablishmentidList":[]}],"maxInspectionDate":[{"inspectionDate":"2023-04-13T00:00:00"}]}},"pageContext":{"eid":"695"}},"staticQueryHashes":["3649515864","63159454"]}