{"data":{"site":{"pathPrefix":"/restaurant-inspections"},"postgres":{"establishment":[{"establishmentid":"51623278","name":"Sam Z Deli LLC","address":"18551 Grand River Ave","zipcode":"48223","owner":"Osamah Zaitonna","licenseNumber":"VT120519","licenseType":"Fixed Establishment","establishmentType":"Food Service Establishment","establishmentStatus":"Open","riskCategory":null,"reviewFrequencyDays":"180","coords":"-83.22427,42.40257","geojson":{"id":"51623278","type":"Feature","geometry":{"type":"Point","coordinates":[-83.224267632,42.402565539]},"properties":{"name":"Sam Z Deli LLC","owner":"Osamah Zaitonna","address":"18551 Grand River Ave","zipcode":"48223","license_type":"Fixed Establishment","risk_category":null,"license_number":"VT120519","establishmentid":"51623278","establishment_type":"Food Service Establishment","establishment_status":"Open","review_frequency_days":"180","most_recent_license_date":null}},"nearbyList":[{"establishmentid":"2669","name":"Fish Express 1-Pizza Palace","address":"18509 Grand River Ave","zipcode":"48223"},{"establishmentid":"1562","name":"Panda Chinese Restaurant","address":"18614 Fenkell Ave","zipcode":"48223"},{"establishmentid":"5420","name":"La Kabob Grill ","address":"18616 Fenkell Ave","zipcode":"48223"},{"establishmentid":"51622571","name":"River Bistro Detroit","address":"18456 Grand River Ave","zipcode":"48223"},{"establishmentid":"5237","name":"Metro Fish & Seafood LLC","address":"18440 Grand River","zipcode":"48223"},{"establishmentid":"2045","name":"McDonald's #567","address":"18403 Grand River Ave","zipcode":"48223"},{"establishmentid":"2345","name":"Subway #11686/Mama Delucas","address":"18288 Grand River Ave","zipcode":"48223"},{"establishmentid":"5417","name":"Brooklyn Fish and Chicken","address":"18354 Fenkell Ave","zipcode":"48223"},{"establishmentid":"601","name":"North Rosedale Park Civic Association","address":"18445 Scarsdale St","zipcode":"48223"},{"establishmentid":"787","name":"Omega Grill","address":"18130 Fenkell Ave","zipcode":"48223"}],"inspectionsByEstablishmentidList":[{"inspectionid":"52624","inspectionDate":"2020-08-07T00:00:00","inspectionType":"Routine Inspection","inCompliance":"Yes","violationsByInspectionidList":[{"violationCode":"3-501.16","violationDescription":"Except during preparation, cooking, or cooling, or when time is used as the public health control POTENTIALLY HAZARDOUS FOOD (TIME/TEMPERATURE CONTROL FOR SAFETY FOOD) shall be maintained:\r\n(A)  135ºF or above, except that roasts properly cooked and cooled may be held              at a temperature of 130ºF; or (P)\r\n(B)   At 41ºF or less (P)\r\n","violationType":"Priority","itemDescription":"Hot food item(s)","subItem":"","problemDescription":"Stored below 135 degrees F","subProblem":"","location":"STEAM TABLE","subLocation":"","corrected":"Yes","daysToCorrect":"10","correctedDate":"2020-08-07T00:00:00","correctionDescription":null}]}]}],"maxInspectionDate":[{"inspectionDate":"2020-10-30T00:00:00"}]}},"pageContext":{"eid":"51623278"}}