{"data":{"postgres":{"establishment":[{"establishmentid":"4143","name":"U of Detroit Mercy-Library Cafe","address":"4001 W McNichols Rd","zipcode":"48221","owner":"Mark Corone","licenseNumber":"22064","licenseType":"Fixed Establishment","establishmentType":"Food Service Establishment","establishmentStatus":"Open","riskCategory":"Medium","reviewFrequencyDays":"365.0","coords":"-83.13708,42.41295","geojson":{"id":"4143","type":"Feature","geometry":{"type":"Point","coordinates":[-83.137082725,42.412946784]},"properties":{"name":"U of Detroit Mercy-Library Cafe","owner":"Mark Corone","address":"4001 W McNichols Rd","zipcode":"48221","license_type":"Fixed Establishment","risk_category":"Medium","license_number":"22064","establishmentid":"4143","establishment_type":"Food Service Establishment","establishment_status":"Open","review_frequency_days":"365.0","most_recent_license_date":"4/27/2018"}},"nearbyList":[{"establishmentid":"880","name":"U of Detroit Mercy- Calihan Hall","address":"4001 W McNichols Rd","zipcode":"48221"},{"establishmentid":"1577","name":"U of Detroit Mercy-Student Cafe/Poblanos","address":"4001 W McNichols Rd","zipcode":"48221"},{"establishmentid":"4413","name":"U of Detroit Mercy-Subway","address":"4001 W McNichols Rd","zipcode":"48221"},{"establishmentid":"4438","name":"U of Detroit Mercy-Tommy's Smoothies","address":"4001 W McNichols Rd","zipcode":"48221"},{"establishmentid":"5164","name":"Burger King","address":"16245 Livernois Ave","zipcode":"48221"},{"establishmentid":"1023","name":"U Of D Coney Island #1","address":"16126 Livernois Ave","zipcode":"48221"},{"establishmentid":"1144","name":"Church's Fried Chicken #785","address":"16100 Livernois Ave","zipcode":"48221"},{"establishmentid":"5306","name":"Livernois Ocean Delight Inc","address":"16817 Livernois Ave","zipcode":"48221"},{"establishmentid":"1547","name":"Gesu Elementary","address":"17139 Oak Dr","zipcode":"48221"},{"establishmentid":"1674","name":"Nicky D's Coney Island","address":"16953 Livernois Ave","zipcode":"48221"}],"inspectionsByEstablishmentidList":[{"inspectionid":"44193","inspectionDate":"2018-11-20T00:00:00","inspectionType":"Routine Inspection","inCompliance":"Yes","violationsByInspectionidList":[]},{"inspectionid":"40511","inspectionDate":"2017-10-20T00:00:00","inspectionType":"Routine Inspection","inCompliance":"Yes","violationsByInspectionidList":[]},{"inspectionid":"36425","inspectionDate":"2016-09-13T00:00:00","inspectionType":"Routine Inspection","inCompliance":"Yes","violationsByInspectionidList":[]}]}]}},"pageContext":{"eid":"4143"}}