{"componentChunkName":"component---src-templates-establishment-page-js","path":"/establishment/51623424","result":{"data":{"site":{"pathPrefix":"/restaurant-inspections"},"postgres":{"establishment":[{"establishmentid":"51623424","name":"Little Icy's","address":"18445 Scarsdale St,","zipcode":"48223","owner":"Shewczuk LLC","licenseNumber":"255124","licenseType":"Fixed Establishment","establishmentType":"Food Service Establishment","establishmentStatus":"Permanently Closed","riskCategory":null,"reviewFrequencyDays":null,"coords":"-83.22311,42.40633","geojson":{"id":"51623424","type":"Feature","geometry":{"type":"Point","coordinates":[-83.223106477,42.406330864]},"properties":{"name":"Little Icy's","owner":"Shewczuk LLC","address":"18445 Scarsdale St,","zipcode":"48223","license_type":"Fixed Establishment","risk_category":null,"license_number":"255124","establishmentid":"51623424","establishment_type":"Food Service Establishment","establishment_status":"Permanently Closed","review_frequency_days":null,"most_recent_license_date":"28/4/2021"}},"nearbyList":[{"establishmentid":"51623445","name":"Kenny's 622 Trowbridge LLC ","address":"18445 Scarsdale ST ","zipcode":"48223"},{"establishmentid":"601","name":"North Rosedale Park Civic Association","address":"18445 Scarsdale ","zipcode":"48223"},{"establishmentid":"51622918","name":"North Rosedale Park Civic Association","address":"18445 Scarsdale","zipcode":"48223"},{"establishmentid":"51623203","name":"Delectables by Design LLC ","address":"18445 Scarsdale","zipcode":"48223"},{"establishmentid":"904","name":"Cooke Elementary","address":"18800 Puritan ","zipcode":"48219"},{"establishmentid":"51622571","name":"River Bistro Detroit","address":"18456  Grand River Ave","zipcode":"48223"},{"establishmentid":"51623339","name":"Spudz and Clucks","address":"18456 Grand River","zipcode":"48223"},{"establishmentid":"4607","name":"Louisiana Fried Chicken (Good Taste)","address":"18456 Grand River","zipcode":"48223"},{"establishmentid":"2598","name":"Gwen's BBQ","address":"18456 Grand River Ave.","zipcode":"48223"},{"establishmentid":"51623612","name":"Spudz and Clucks","address":"18456 Grand River","zipcode":"48223"}],"inspectionsByEstablishmentidList":[{"inspectionid":"54934","inspectionDate":"2021-05-11T00:00:00","inspectionType":"Routine Inspection","inCompliance":"Yes","violationsByInspectionidList":[]}]}],"maxInspectionDate":[{"inspectionDate":"2023-04-13T00:00:00"}]}},"pageContext":{"eid":"51623424"}},"staticQueryHashes":["3649515864","63159454"]}