{"componentChunkName":"component---src-templates-establishment-page-js","path":"/establishment/1594","result":{"data":{"site":{"pathPrefix":"/restaurant-inspections"},"postgres":{"establishment":[{"establishmentid":"1594","name":"ALBA'S CONEY ISLAND INC","address":"3639 DAVISON E.","zipcode":"48212","owner":"MARKU ZEF","licenseNumber":"035865","licenseType":"Fixed Establishment","establishmentType":"Food Service Establishment","establishmentStatus":"Permanently Closed","riskCategory":null,"reviewFrequencyDays":"180","coords":"-83.06225,42.41553","geojson":{"id":"1594","type":"Feature","geometry":{"type":"Point","coordinates":[-83.062245709,42.41552544]},"properties":{"name":"ALBA'S CONEY ISLAND INC","owner":"MARKU ZEF","address":"3639 DAVISON E.","zipcode":"48212","license_type":"Fixed Establishment","risk_category":null,"license_number":"035865","establishmentid":"1594","establishment_type":"Food Service Establishment","establishment_status":"Permanently Closed","review_frequency_days":"180","most_recent_license_date":null}},"nearbyList":[{"establishmentid":"51623776","name":"Coney Star","address":"13347 Conant","zipcode":"48212"},{"establishmentid":"51623571","name":"Detroit Best Wings","address":"4128 McNichols E.","zipcode":"48212"},{"establishmentid":"745","name":"M & M Sports Bar","address":"13837 Conant","zipcode":"48212"},{"establishmentid":"749","name":"Buddy's Rendezvous Pizza","address":"17125 Conant","zipcode":"48212"},{"establishmentid":"577","name":"Man Dees Lounge","address":"17132 Conant","zipcode":"48234"},{"establishmentid":"4949","name":"Frontier International Academy","address":"13200 Conant","zipcode":"48212"},{"establishmentid":"4502","name":"All Star Services","address":"3399 E. McNichols","zipcode":"48219"},{"establishmentid":"3589","name":"HRs Lounge","address":"12449 Conant","zipcode":"48212"},{"establishmentid":"750","name":"Starvin Marvin ","address":"12449 Conant","zipcode":"48212"},{"establishmentid":"2206","name":"Owens Ventures","address":"17385 Ryan","zipcode":"48212"}],"inspectionsByEstablishmentidList":[]}],"maxInspectionDate":[{"inspectionDate":"2022-08-31T00:00:00"}]}},"pageContext":{"eid":"1594"}},"staticQueryHashes":["3649515864","63159454"]}