{"componentChunkName":"component---src-templates-establishment-page-js","path":"/establishment/51623719","result":{"data":{"site":{"pathPrefix":"/restaurant-inspections"},"postgres":{"establishment":[{"establishmentid":"51623719","name":"McDoggonit (Oakland Co.)","address":"14960 Rossini Dr.","zipcode":"48205","owner":"Rose Hendricks","licenseNumber":"237917","licenseType":"Special Transitory Food Unit","establishmentType":"LHD - Special Transitory Food","establishmentStatus":"Open","riskCategory":null,"reviewFrequencyDays":null,"coords":"-82.96763,42.44338","geojson":{"id":"51623719","type":"Feature","geometry":{"type":"Point","coordinates":[-82.967629842,42.443376898]},"properties":{"name":"McDoggonit (Oakland Co.)","owner":"Rose Hendricks","address":"14960 Rossini Dr.","zipcode":"48205","license_type":"Special Transitory Food Unit","risk_category":null,"license_number":"237917","establishmentid":"51623719","establishment_type":"LHD - Special Transitory Food","establishment_status":"Open","review_frequency_days":null,"most_recent_license_date":null}},"nearbyList":[{"establishmentid":"320","name":"Lucky II Lounge","address":"15146 Gratiot Ave.","zipcode":"48205"},{"establishmentid":"2093","name":"UNIC","address":"15268  State Fair E.","zipcode":"48205"},{"establishmentid":"1201","name":"Taco Bell #1825","address":"15170 Gratiot Ave.","zipcode":"48205"},{"establishmentid":"2259","name":"IMPERIAL VENDING","address":"15000 GRATIOT","zipcode":"48219"},{"establishmentid":"2679","name":"Metro Vending","address":"15000 Gratiot","zipcode":"48205"},{"establishmentid":"3669","name":"Stonecrest Center","address":"15000 Gratiot Ave.","zipcode":"48224"},{"establishmentid":"51622693","name":"Sea World Fish Market","address":"15084 Gratiot","zipcode":"48205"},{"establishmentid":"51622913","name":"Big Ken's BBQ","address":"15290 Fairmount","zipcode":"48213"},{"establishmentid":"3842","name":"Sweet Lett Sweet Ribs & More","address":"14999 Gratiot","zipcode":"48205"},{"establishmentid":"2052","name":"New Detroit Coney Island","address":"14987 Gratiot","zipcode":"48205"}],"inspectionsByEstablishmentidList":[]}],"maxInspectionDate":[{"inspectionDate":"2023-04-25T00:00:00"}]}},"pageContext":{"eid":"51623719"}},"staticQueryHashes":["3649515864","63159454"]}