{"data":{"site":{"pathPrefix":"/restaurant-inspections"},"postgres":{"establishment":[{"establishmentid":"51622835","name":"Burger King #1191","address":"1425 W Lafayette Blvd","zipcode":"48216","owner":"Paul Flanders","licenseNumber":"230533","licenseType":"Fixed Establishment","establishmentType":"Food Service Establishment","establishmentStatus":"Open","riskCategory":null,"reviewFrequencyDays":"365.0","coords":"-83.06147,42.32548","geojson":{"id":"51622835","type":"Feature","geometry":{"type":"Point","coordinates":[-83.061466517,42.325482084]},"properties":{"name":"Burger King #1191","owner":"Paul Flanders","address":"1425 W Lafayette Blvd","zipcode":"48216","license_type":"Fixed Establishment","risk_category":null,"license_number":"230533","establishmentid":"51622835","establishment_type":"Food Service Establishment","establishment_status":"Open","review_frequency_days":"365.0","most_recent_license_date":"8/22/2018"}},"nearbyList":[{"establishmentid":"51622455","name":"Sheiba Express","address":"1366 W Fort","zipcode":"48226"},{"establishmentid":"2406","name":"Haz Subs & Salads","address":"1360 W Fort St","zipcode":"48226"},{"establishmentid":"1507","name":"Coney King Coney Island","address":"1350 W Fort St","zipcode":"48226"},{"establishmentid":"5124","name":"Mercy Education Project","address":"1450 Howard St","zipcode":"48216"},{"establishmentid":"4013","name":"Le Petit Zinc","address":"1055 Trumbull","zipcode":"48216"},{"establishmentid":"1082","name":"Salvation Army","address":"1627 W Fort St","zipcode":"48216"},{"establishmentid":"1349","name":"Mudgie's","address":"1300 Porter St","zipcode":"48226"},{"establishmentid":"4939","name":"Batch Brewing Company","address":"1408 Porter St","zipcode":"48216"},{"establishmentid":"51622514","name":"Burroughs","address":"1331 Trumbull","zipcode":"48216"},{"establishmentid":"5174","name":"Red Dunn/ Events","address":"1331 Trumbull","zipcode":"48216"},{"establishmentid":"918","name":"Most Holy Trinity School","address":"1229 LaBrosse St","zipcode":"48226"},{"establishmentid":"3093","name":"Subway","address":"1001 W Fort St","zipcode":"48226"},{"establishmentid":"5072","name":"Bucharest Catering ","address":"1697 Abbott St","zipcode":"48216"},{"establishmentid":"5416","name":"Lady of the House, LLC","address":"1426 Bagley Ave","zipcode":"48216"},{"establishmentid":"3163","name":"Detroit Public Safety Academy","address":"1250 Rosa Parks Blvd","zipcode":"48216"},{"establishmentid":"51622591","name":"The Farmer's Hand LLC /DBA Folk","address":"1701 Trumbull Ste B","zipcode":"48216"},{"establishmentid":"51622639","name":"Meta Physica Wellness Center","address":"1701 Trumbull Ste 3","zipcode":"48216"},{"establishmentid":"3451","name":"Signature Grill","address":"250 Riverfront Drive","zipcode":"48226"},{"establishmentid":"429","name":"PJ's Lager House","address":"1254 Michigan Ave","zipcode":"48226"},{"establishmentid":"2675","name":"Brooklyn Street Local","address":"1266 Michigan Ave","zipcode":"48226"}],"inspectionsByEstablishmentidList":[{"inspectionid":"43803","inspectionDate":"2018-10-17T00:00:00","inspectionType":"Routine Inspection","inCompliance":"Yes","violationsByInspectionidList":[{"violationCode":"6-403.11","violationDescription":"(A) Areas designated for EMPLOYEES to eat, drink, and use tobacco shall be located so that FOOD, EQUIPMENT, LINENS, and SINGLE-SERVICE and SINGLE-USE ARTICLES are protected from contamination.\r\n(B) Lockers or other suitable facilities shall be located in a designated room or area where contamination of FOOD, EQUIPMENT, UTENSILS, LINENS, and SINGLE-SERVICE and SINGLE-USE ARTICLES can not occur.\r\n","violationType":"Core","itemDescription":"Locker(s)/employee storage area(s)","subItem":"","problemDescription":"Contaminates","subProblem":"Single use","location":"DRY STORAGE AREA","subLocation":"","corrected":"Yes","daysToCorrect":"30.0","correctedDate":"2018-10-17T00:00:00","correctionDescription":"Relocate to a designated area that does not contaminate items or surfaces."}]}]}]}},"pageContext":{"eid":"51622835"}}