{"componentChunkName":"component---src-templates-establishment-page-js","path":"/establishment/857","result":{"data":{"site":{"pathPrefix":"/restaurant-inspections"},"postgres":{"establishment":[{"establishmentid":"857","name":"Sherry Lee's Place","address":"7631 Vernor St.W.","zipcode":"48209","owner":"Olsen Christine","licenseNumber":"034888","licenseType":"Fixed Establishment","establishmentType":"Food Service Establishment","establishmentStatus":"Temporarily Closed","riskCategory":null,"reviewFrequencyDays":"335","coords":"-83.12348,42.31277","geojson":{"id":"857","type":"Feature","geometry":{"type":"Point","coordinates":[-83.123480652,42.312772398]},"properties":{"name":"Sherry Lee's Place","owner":"Olsen Christine","address":"7631 Vernor St.W.","zipcode":"48209","license_type":"Fixed Establishment","risk_category":null,"license_number":"034888","establishmentid":"857","establishment_type":"Food Service Establishment","establishment_status":"Temporarily Closed","review_frequency_days":"335","most_recent_license_date":"29/6/2015"}},"nearbyList":[{"establishmentid":"279","name":"Pauls Pizzeria","address":"7635 Vernor St. W.","zipcode":"48209"},{"establishmentid":"51623784","name":"La Casa Ice Cream ","address":"7615 W. Vernor Hwy","zipcode":"48209"},{"establishmentid":"3399","name":"Sweet Maria's","address":"7647 Vernor W. ","zipcode":"48209"},{"establishmentid":"51623382","name":"Utila Juices","address":"7600 Vernor W.","zipcode":"48209"},{"establishmentid":"4358","name":"Domino's Pizza","address":"7603 Vernor W.","zipcode":"48209"},{"establishmentid":"51623681","name":"Taqueria Nuestra Familia","address":"7620 Vernor W.","zipcode":"48209"},{"establishmentid":"1342","name":"Restaurant Nuestra Familia","address":"7620 Vernor St. W.","zipcode":"48209"},{"establishmentid":"51623823","name":"El Campanario Taco Truck","address":"7620 Vernor W.","zipcode":"48209"},{"establishmentid":"5007","name":"Famous Tasty Chicken","address":"7431  Vernor W.","zipcode":"48209"},{"establishmentid":"4873","name":"Neveria La Chilindrina","address":"7431 Vernor W","zipcode":"48209"}],"inspectionsByEstablishmentidList":[]}],"maxInspectionDate":[{"inspectionDate":"2023-04-13T00:00:00"}]}},"pageContext":{"eid":"857"}},"staticQueryHashes":["3649515864","63159454"]}