{"data":{"site":{"pathPrefix":"/restaurant-inspections"},"postgres":{"establishment":[{"establishmentid":"51622451","name":"F & R Eatery","address":"21451 Fenkell","zipcode":"48223","owner":"Felicia Pew/Rodney Burns","licenseNumber":"218027","licenseType":"Fixed Establishment","establishmentType":"Food Service Establishment","establishmentStatus":"Permanently Closed","riskCategory":null,"reviewFrequencyDays":"90.0","coords":"-83.25304,42.40024","geojson":{"id":"51622451","type":"Feature","geometry":{"type":"Point","coordinates":[-83.253037578,42.4002433050001]},"properties":{"name":"F & R Eatery","owner":"Felicia Pew/Rodney Burns","address":"21451 Fenkell","zipcode":"48223","license_type":"Fixed Establishment","risk_category":null,"license_number":"218027","establishmentid":"51622451","establishment_type":"Food Service Establishment","establishment_status":"Permanently Closed","review_frequency_days":"90.0","most_recent_license_date":null}},"nearbyList":[{"establishmentid":"4036","name":"Ronald Brown Academy (Annex)","address":"11450 E Outer Drive","zipcode":"48224"},{"establishmentid":"5269","name":"Habibi Fish & Chicken","address":"21740 Fenkell","zipcode":"48223"},{"establishmentid":"51622753","name":"Fred's Fish & Chicken","address":"21740 Fenkell Street","zipcode":"48223"},{"establishmentid":"4283","name":"New Grandy's ","address":"22001 Fenkell Ave","zipcode":"48223"},{"establishmentid":"51622518","name":"New Grandy's","address":"22001 Fenkell Ave","zipcode":"48223"},{"establishmentid":"1521","name":"Mt. Vernon Missionary Baptist Church","address":"15125 Burt Rd","zipcode":"48223"},{"establishmentid":"239","name":"Scotty Simpsons Fish and Chips","address":"22200 Fenkell Ave","zipcode":"48223"},{"establishmentid":"1710","name":"St. Christine's Community Soup Kitchen","address":"22261 Fenkell Ave","zipcode":"48223"},{"establishmentid":"4175","name":"Samuel Gompers Learning Academy PK-8","address":"14450 Burt Rd","zipcode":"48223"},{"establishmentid":"5196","name":"Captain Jay's Fish & Chicken #113","address":"21431 Grand River","zipcode":"48219"}],"inspectionsByEstablishmentidList":[{"inspectionid":"38576","inspectionDate":"2017-04-25T00:00:00","inspectionType":"Routine Inspection","inCompliance":"Yes","violationsByInspectionidList":[{"violationCode":"6-301.14","violationDescription":"A sign or poster that notifies FOOD EMPLOYEES to wash their hands shall be provided at all HANDWASHING SINKS used by FOOD EMPLOYEES and shall be clearly visible to FOOD EMPLOYEES.\r\n","violationType":"Core","itemDescription":"Handwashing signage","subItem":"Not provided At hand sink","problemDescription":"Not provided","subProblem":"At hand sink","location":"KITCHEN","subLocation":"","corrected":"Not required","daysToCorrect":"30.0","correctedDate":null,"correctionDescription":"Provide"}]}]}],"maxInspectionDate":[{"inspectionDate":"2019-10-31T00:00:00"}]}},"pageContext":{"eid":"51622451"}}