{"componentChunkName":"component---src-templates-establishment-page-js","path":"/establishment/1805","result":{"data":{"site":{"pathPrefix":"/restaurant-inspections"},"postgres":{"establishment":[{"establishmentid":"1805","name":"Robinson Dairy Vending","address":"3300 Mack","zipcode":"48207","owner":"Frank Caramagno","licenseNumber":"035599","licenseType":"Other","establishmentType":"LHD - Vending","establishmentStatus":"Open","riskCategory":null,"reviewFrequencyDays":"180","coords":"-83.02724,42.35943","geojson":{"id":"1805","type":"Feature","geometry":{"type":"Point","coordinates":[-83.02723611,42.359427581]},"properties":{"name":"Robinson Dairy Vending","owner":"Frank Caramagno","address":"3300 Mack","zipcode":"48207","license_type":"Other","risk_category":null,"license_number":"035599","establishmentid":"1805","establishment_type":"LHD - Vending","establishment_status":"Open","review_frequency_days":"180","most_recent_license_date":null}},"nearbyList":[{"establishmentid":"2479","name":"K & D ICE CREAM","address":"3177 MACK","zipcode":"48234"},{"establishmentid":"2137","name":"K & D","address":"3177 Mack Ave.","zipcode":"48234"},{"establishmentid":"654","name":"Gratiot Grill Coney Island","address":"3121 Gratiot","zipcode":"48207"},{"establishmentid":"600","name":"Metropolitan Prince Hall","address":"3500 McDougall Rd.","zipcode":"48207"},{"establishmentid":"1682","name":"Open Door Rescue Mission","address":"3442 McDougall","zipcode":"48207"},{"establishmentid":"51622855","name":"Detroit Collegiate High School","address":"3111 Elmwood","zipcode":"48207"},{"establishmentid":"2824","name":"Ross-Hill Academy","address":"3111   Elmwood","zipcode":"48207"},{"establishmentid":"1792","name":"Metro Vending","address":"3579 Gratiot","zipcode":"48207"},{"establishmentid":"2507","name":"Robinson Dairy Vending","address":"3579 Gratiot","zipcode":"48207"},{"establishmentid":"633","name":"Marracci Temple/ Grenadier Lodge #13","address":"3101 Mc Dougall","zipcode":"48207"}],"inspectionsByEstablishmentidList":[]}],"maxInspectionDate":[{"inspectionDate":"2022-07-25T00:00:00"}]}},"pageContext":{"eid":"1805"}},"staticQueryHashes":["3649515864","63159454"]}