{"componentChunkName":"component---src-templates-establishment-page-js","path":"/establishment/2688","result":{"data":{"site":{"pathPrefix":"/restaurant-inspections"},"postgres":{"establishment":[{"establishmentid":"2688","name":"Filterfresh","address":"1000 Woodbridge","zipcode":"48207","owner":"John Fantini","licenseNumber":"039724","licenseType":"Other","establishmentType":"LHD - Vending","establishmentStatus":"Open","riskCategory":null,"reviewFrequencyDays":null,"coords":"-83.03387,42.33224","geojson":{"id":"2688","type":"Feature","geometry":{"type":"Point","coordinates":[-83.033874593,42.332244756]},"properties":{"name":"Filterfresh","owner":"John Fantini","address":"1000 Woodbridge","zipcode":"48207","license_type":"Other","risk_category":null,"license_number":"039724","establishmentid":"2688","establishment_type":"LHD - Vending","establishment_status":"Open","review_frequency_days":null,"most_recent_license_date":null}},"nearbyList":[{"establishmentid":"449","name":"Clique Restaurant","address":"1326 Jefferson Ave. E.","zipcode":"48207"},{"establishmentid":"3663","name":"Vondie's On the River","address":"260 Schweizer Place","zipcode":"48226"},{"establishmentid":"2164","name":"Captain's Bar & Grill","address":"260 Schweizer Place","zipcode":"48226"},{"establishmentid":"774","name":"Disabled American Veterans","address":"1360 Jefferson E.","zipcode":"48207"},{"establishmentid":"2623","name":"Alabama Style Chicken & Fish","address":"1404 Jefferson Ave. E.","zipcode":"48207"},{"establishmentid":"4450","name":"Happy's Pizza #99","address":"1404 Jefferson Ave E.","zipcode":"48207"},{"establishmentid":"3993","name":"River Walk Cafe","address":"1340 Atwater E.","zipcode":"48207"},{"establishmentid":"5199","name":"Riverwalk Cafe Carousel","address":"1340 E. Atwater","zipcode":"48207"},{"establishmentid":"3505","name":"River's Edge Grille","address":"673 Franklin","zipcode":"49226"},{"establishmentid":"4268","name":"Club Waterfalls","address":"673 Franklin E.","zipcode":"48226"}],"inspectionsByEstablishmentidList":[]}],"maxInspectionDate":[{"inspectionDate":"2022-08-31T00:00:00"}]}},"pageContext":{"eid":"2688"}},"staticQueryHashes":["3649515864","63159454"]}