{"data":{"site":{"pathPrefix":"/restaurant-inspections"},"postgres":{"establishment":[{"establishmentid":"51622884","name":"China House","address":"1650 Lansing St","zipcode":"48209","owner":"Wen Qing Chen","licenseNumber":"ps120618","licenseType":"Fixed Establishment","establishmentType":"Food Service Establishment","establishmentStatus":"Open","riskCategory":null,"reviewFrequencyDays":"180.0","coords":"-83.09720,42.31779","geojson":{"id":"51622884","type":"Feature","geometry":{"type":"Point","coordinates":[-83.0972033749999,42.317788023]},"properties":{"name":"China House","owner":"Wen Qing Chen","address":"1650 Lansing St","zipcode":"48209","license_type":"Fixed Establishment","risk_category":null,"license_number":"ps120618","establishmentid":"51622884","establishment_type":"Food Service Establishment","establishment_status":"Open","review_frequency_days":"180.0","most_recent_license_date":null}},"nearbyList":[{"establishmentid":"2402","name":"China House","address":"1650 Lansing St","zipcode":"48209"},{"establishmentid":"5402","name":"Antojitos Los Tres Hermanos","address":"4627 W Vernor St","zipcode":"48209"},{"establishmentid":"5387","name":"Flowers of Vietnam","address":"4430 W Vernor Hwy","zipcode":"4821"},{"establishmentid":"4677","name":"La Fiesta Ice Cream Shop","address":"4801 W Vernor Hwy","zipcode":"48209"},{"establishmentid":"5409","name":"PizzaPlex","address":"4454-58 Vernor","zipcode":"48214"},{"establishmentid":"979","name":"Clippert Academy","address":"1981 McKinstry St","zipcode":"48209"},{"establishmentid":"2128","name":"Maybury School","address":"4410 Porter St","zipcode":"48209"},{"establishmentid":"4662","name":"Tacos Morelotes","address":"1494 Junction Ave","zipcode":"48209"},{"establishmentid":"1525","name":"Holy Redeemer Grade School","address":"1711 Junction Ave","zipcode":"48209"},{"establishmentid":"4311","name":"Holy Redeemer Church","address":"1721 Junction","zipcode":"48209"}],"inspectionsByEstablishmentidList":[{"inspectionid":"44518","inspectionDate":"2018-12-19T00:00:00","inspectionType":"Routine Inspection","inCompliance":"Yes","violationsByInspectionidList":[{"violationCode":"7-102.11","violationDescription":"Working containers used for storing POISONOUS OR TOXIC MATERIALS such as cleaners and SANITIZERS taken from bulk supplies shall be clearly and individually identified with the common name of the material. (Pf)\r\n","violationType":"Foundation","itemDescription":"Working containers-toxics","subItem":"degreaser","problemDescription":"Not labeled as to content","subProblem":"","location":"PREP SINK","subLocation":"Labels","corrected":"Yes","daysToCorrect":"10.0","correctedDate":"2018-12-19T00:00:00","correctionDescription":"Label containers with common name."}]}]}]}},"pageContext":{"eid":"51622884"}}