{"data":{"site":{"pathPrefix":"/restaurant-inspections"},"postgres":{"establishment":[{"establishmentid":"51622973","name":"El Zocalo","address":"3400 Bagley","zipcode":"48216","owner":"Zante Group LLC","licenseNumber":"NEWOWNER","licenseType":"Fixed Establishment","establishmentType":"Food Service Establishment","establishmentStatus":"Open","riskCategory":"High","reviewFrequencyDays":"180.0","coords":"-83.08565,42.32324","geojson":{"id":"51622973","type":"Feature","geometry":{"type":"Point","coordinates":[-83.085650669,42.3232359460001]},"properties":{"name":"El Zocalo","owner":"Zante Group LLC","address":"3400 Bagley","zipcode":"48216","license_type":"Fixed Establishment","risk_category":"High","license_number":"NEWOWNER","establishmentid":"51622973","establishment_type":"Food Service Establishment","establishment_status":"Open","review_frequency_days":"180.0","most_recent_license_date":"5/3/2019"}},"nearbyList":[{"establishmentid":"1297","name":"Evie's Tamales","address":"3454 Bagley St","zipcode":"48216"},{"establishmentid":"1454","name":"Mexican Town Restaurant","address":"3457 Bagley Street","zipcode":"48216"},{"establishmentid":"1632","name":"Taqueria Lupitas","address":"3443 Bagley","zipcode":"48216"},{"establishmentid":"642","name":"Xochimilco Restaurant ","address":"3401-09  Bagley","zipcode":"48216"},{"establishmentid":"1386","name":"Los Galanes","address":"3354 Bagley Ave","zipcode":"48216"},{"establishmentid":"821","name":"Covenant House Academy-Southwest","address":"1450 25th St","zipcode":"48216"},{"establishmentid":"5308","name":"Mangonadas Del Barrio #1, LLC","address":"4029 W Vernor Hwy","zipcode":"48209"},{"establishmentid":"822","name":"Western Senior High School","address":"1500 Scotten Ave","zipcode":"48209"},{"establishmentid":"4518","name":"Urban Bean Company","address":"200 Grand River","zipcode":"48226"},{"establishmentid":"525","name":"Mexican Village Of Detroit","address":"2600 Bagley Street","zipcode":"48216"}],"inspectionsByEstablishmentidList":[]}],"maxInspectionDate":[{"inspectionDate":"2019-04-30T00:00:00"}]}},"pageContext":{"eid":"51622973"}}