{"data":{"site":{"pathPrefix":"/restaurant-inspections"},"postgres":{"establishment":[{"establishmentid":"51622497","name":"Islamic Center of Detroit","address":"14350 Tireman Ave","zipcode":"48228","owner":"Islamic Center of Detroit","licenseNumber":"220247","licenseType":"Fixed Establishment","establishmentType":"Food Service Establishment","establishmentStatus":"Open","riskCategory":"Medium","reviewFrequencyDays":"365","coords":"-83.18393,42.35192","geojson":{"id":"51622497","type":"Feature","geometry":{"type":"Point","coordinates":[-83.183931797,42.351917192]},"properties":{"name":"Islamic Center of Detroit","owner":"Islamic Center of Detroit","address":"14350 Tireman Ave","zipcode":"48228","license_type":"Fixed Establishment","risk_category":"Medium","license_number":"220247","establishmentid":"51622497","establishment_type":"Food Service Establishment","establishment_status":"Open","review_frequency_days":"365","most_recent_license_date":null}},"nearbyList":[{"establishmentid":"2077","name":"Superior Coney Island","address":"14501 Joy Rd","zipcode":"48228"},{"establishmentid":"3976","name":"Manhattan Fish and Chicken","address":"8712 Schaefer Ave ","zipcode":"48228"},{"establishmentid":"3463","name":"Breithaupt Career/Technical Center","address":"9300 Hubbell Ave","zipcode":"48228"},{"establishmentid":"51622783","name":"Fire Pizza & Ribs Inc","address":"8004 Greenfield Rd","zipcode":"48228"},{"establishmentid":"1097","name":"Hayloft Saloon","address":"8070 Greenfield Ave","zipcode":"48228"},{"establishmentid":"51622704","name":"Tim Hortons","address":"7285 Greenfield Rd","zipcode":"48228"},{"establishmentid":"3535","name":"Front Page Deli","address":"14744 W Chicago","zipcode":"48228"},{"establishmentid":"258","name":"Barachit Club","address":"7235 Greenfield Rd","zipcode":"48228"},{"establishmentid":"4488","name":"Sister Love Treats","address":"9126 Ward St","zipcode":"48228"},{"establishmentid":"2155","name":"White Castle #40","address":"8811 Greenfield Rd","zipcode":"48228"}],"inspectionsByEstablishmentidList":[]}],"maxInspectionDate":[{"inspectionDate":"2020-10-30T00:00:00"}]}},"pageContext":{"eid":"51622497"}}