{"componentChunkName":"component---src-templates-establishment-page-js","path":"/establishment/1476","result":{"data":{"site":{"pathPrefix":"/restaurant-inspections"},"postgres":{"establishment":[{"establishmentid":"1476","name":"Bobbie's Ice Cream","address":"15864 Cheyenne","zipcode":"48227","owner":"Bobbie Stroughter","licenseNumber":"035674","licenseType":"Mobile Food Establishment","establishmentType":"LHD - Mobile Food Establishmen","establishmentStatus":"Open","riskCategory":null,"reviewFrequencyDays":"180","coords":"-83.17484,42.40858","geojson":{"id":"1476","type":"Feature","geometry":{"type":"Point","coordinates":[-83.174842271,42.408579229]},"properties":{"name":"Bobbie's Ice Cream","owner":"Bobbie Stroughter","address":"15864 Cheyenne","zipcode":"48227","license_type":"Mobile Food Establishment","risk_category":null,"license_number":"035674","establishmentid":"1476","establishment_type":"LHD - Mobile Food Establishmen","establishment_status":"Open","review_frequency_days":"180","most_recent_license_date":null}},"nearbyList":[{"establishmentid":"274","name":"The Cotillion Club West","address":"13221 Puritan","zipcode":"48227"},{"establishmentid":"4164","name":"Disabled Am. Vets K-R Metro Chp. No.1","address":"13221  Puritan Ave.","zipcode":"48227"},{"establishmentid":"5391","name":"Desmond's Elegant Affairs","address":"12924 Puritan","zipcode":"48227"},{"establishmentid":"273","name":"Gibson's Lounge","address":"12924 Puritan Ave.","zipcode":"48227"},{"establishmentid":"1406","name":"Christland Missionary Baptist Church","address":"12901 Puritan Ave.","zipcode":"48227"},{"establishmentid":"3825","name":"Conference Room","address":"15900 Schaefer Hwy.","zipcode":"48227"},{"establishmentid":"2405","name":"Mark's A. Eagles #4 Coney Island","address":"12701 Puritan Ave.","zipcode":"48227"},{"establishmentid":"1644","name":"KINGS & QUEENS RENTAL HALL","address":"15845 SCHAFER","zipcode":"48227"},{"establishmentid":"1873","name":"Suite 100","address":"15789 Schaefer Hwy.","zipcode":"48227"},{"establishmentid":"2099","name":"Club Rendezvous","address":"16139 Meyers","zipcode":"48235"}],"inspectionsByEstablishmentidList":[]}],"maxInspectionDate":[{"inspectionDate":"2023-04-25T00:00:00"}]}},"pageContext":{"eid":"1476"}},"staticQueryHashes":["3649515864","63159454"]}