{"componentChunkName":"component---src-templates-establishment-page-js","path":"/establishment/2754","result":{"data":{"site":{"pathPrefix":"/restaurant-inspections"},"postgres":{"establishment":[{"establishmentid":"2754","name":"Cheers/Hopz","address":"19244 Grand River Ave.","zipcode":"48219","owner":"Reginald Hammond","licenseNumber":"068331","licenseType":"Fixed Establishment","establishmentType":"Food Service Establishment","establishmentStatus":"Open","riskCategory":null,"reviewFrequencyDays":"335","coords":"-83.23098,42.40606","geojson":{"id":"2754","type":"Feature","geometry":{"type":"Point","coordinates":[-83.230976579,42.406063668]},"properties":{"name":"Cheers/Hopz","owner":"Reginald Hammond","address":"19244 Grand River Ave.","zipcode":"48219","license_type":"Fixed Establishment","risk_category":null,"license_number":"068331","establishmentid":"2754","establishment_type":"Food Service Establishment","establishment_status":"Open","review_frequency_days":"335","most_recent_license_date":"5/5/2011"}},"nearbyList":[{"establishmentid":"1514","name":"Elias Donuts","address":"19231 Grand River Ave.","zipcode":"48223"},{"establishmentid":"1995","name":"Little Caesar's Pizza #168","address":"19116 Grand River Ave.","zipcode":"48223"},{"establishmentid":"685","name":"George's Ham and Corned Beef","address":"19505 Grand River Ave.","zipcode":"48223"},{"establishmentid":"51623214","name":"Lemonade & Beyond","address":"19361 Bretton","zipcode":"48223"},{"establishmentid":"51623705","name":"Pressed Juice Bar LLC (Juicing with Jai)","address":"19550 Grand River","zipcode":"48223"},{"establishmentid":"2344","name":"Auntie Betty's Cafe","address":"19601 Grand River Ave.","zipcode":"48223"},{"establishmentid":"5412","name":"Detroit Vegan Soul","address":"19614 Grand River","zipcode":"48223"},{"establishmentid":"1369","name":"Blue Moon","address":"19614 Grand River Ave.","zipcode":"48223"},{"establishmentid":"904","name":"Cooke Elementary","address":"18800 Puritan ","zipcode":"48219"},{"establishmentid":"4348","name":"Rosedale Hot Dogs","address":"15076 Warwick","zipcode":"48223"}],"inspectionsByEstablishmentidList":[]}],"maxInspectionDate":[{"inspectionDate":"2022-08-31T00:00:00"}]}},"pageContext":{"eid":"2754"}},"staticQueryHashes":["3649515864","63159454"]}