{"data":{"site":{"pathPrefix":"/restaurant-inspections"},"postgres":{"establishment":[{"establishmentid":"51623050","name":"Eatori Market Capitol Cafe ","address":"1215 Griswold St Suite 150","zipcode":"48226","owner":"Zak Yatim","licenseNumber":"238155","licenseType":"Fixed Establishment","establishmentType":"Food Service Establishment","establishmentStatus":"Seasonal","riskCategory":null,"reviewFrequencyDays":"105.0","coords":"-83.04999,42.33285","geojson":{"id":"51623050","type":"Feature","geometry":{"type":"Point","coordinates":[-83.0499880359999,42.33284551]},"properties":{"name":"Eatori Market Capitol Cafe ","owner":"Zak Yatim","address":"1215 Griswold St Suite 150","zipcode":"48226","license_type":"Fixed Establishment","risk_category":null,"license_number":"238155","establishmentid":"51623050","establishment_type":"Food Service Establishment","establishment_status":"Seasonal","review_frequency_days":"105.0","most_recent_license_date":"7/3/2019"}},"nearbyList":[{"establishmentid":"5414","name":"Eatori Market","address":"1215 Griswold St","zipcode":"48226"},{"establishmentid":"3903","name":"The Westin Book Cadillac Detroit","address":"1114 Washington Boulevard","zipcode":"48226"},{"establishmentid":"3905","name":"WBC Coffee Bar","address":"1114 Washington Boulevard","zipcode":"48226"},{"establishmentid":"51622572","name":"Westin Book Cadillac Hotel Starbucks","address":"1114 Washington Blvd","zipcode":"48226"},{"establishmentid":"51622498","name":"Prime + Proper","address":"1145 Griswold St ","zipcode":"48226"},{"establishmentid":"5322","name":"Go! Sy Thai Griswold. LLC","address":"1226 Griswold St","zipcode":"48226"},{"establishmentid":"51622457","name":"La Lanterna","address":"1224 Griswold St","zipcode":"48226"},{"establishmentid":"5114","name":"Dessert Oasis Coffee Roasters","address":"1220 Griswold St","zipcode":"48226"},{"establishmentid":"5131","name":"The Bad Luck","address":"1218 Griswold St","zipcode":"48226"},{"establishmentid":"5155","name":"Shopper's Lounge DBA Queens Bar","address":"35 E Grand River Ave","zipcode":"48226"}],"inspectionsByEstablishmentidList":[{"inspectionid":"48261","inspectionDate":"2019-07-05T00:00:00","inspectionType":"Preopening/COO","inCompliance":"Yes","violationsByInspectionidList":[{"violationCode":"5-203.11","violationDescription":"(A)  A HANDWASHING SINK or an approved automatic handwashing unit shall be provided as necessary for their convenient use by EMPLOYEES in areas specified and not fewer than the number of HANDWASHING SINKS required by LAW shall be provided. (Pf)\r\n(B)  If APPROVED, when FOOD exposure is limited and HANDWASHING SINKS are not conveniently available, such as in some mobile or TEMPORARY FOOD ESTABLISHMENTS or at some VENDING MACHINE LOCATIONS, EMPLOYEES may use chemically treated towelettes for handwashing.\r\n","violationType":"Foundation","itemDescription":"Handwashing lavatories","subItem":"","problemDescription":"Not provided","subProblem":"","location":"BAR","subLocation":"","corrected":"Yes","daysToCorrect":"10.0","correctedDate":"2019-07-10T00:00:00","correctionDescription":null}]}]}],"maxInspectionDate":[{"inspectionDate":"2019-10-31T00:00:00"}]}},"pageContext":{"eid":"51623050"}}