{"data":{"site":{"pathPrefix":"/restaurant-inspections"},"postgres":{"establishment":[{"establishmentid":"51622786","name":"Verified Vegan","address":"2934 Russell","zipcode":"48207","owner":"Skye Corp./Charlene S. Staff","licenseNumber":"229301","licenseType":"Fixed Establishment","establishmentType":"Food Service Establishment","establishmentStatus":"Open","riskCategory":"Medium","reviewFrequencyDays":"365.0","coords":"-83.04186,42.34913","geojson":{"id":"51622786","type":"Feature","geometry":{"type":"Point","coordinates":[-83.041855574,42.349130851]},"properties":{"name":"Verified Vegan","owner":"Skye Corp./Charlene S. Staff","address":"2934 Russell","zipcode":"48207","license_type":"Fixed Establishment","risk_category":"Medium","license_number":"229301","establishmentid":"51622786","establishment_type":"Food Service Establishment","establishment_status":"Open","review_frequency_days":"365.0","most_recent_license_date":null}},"nearbyList":[{"establishmentid":"3864","name":"Urban Grounds, LLC","address":"2934 Russell St","zipcode":"48207"},{"establishmentid":"5048","name":"Eastern Market Coproration Shed #5","address":"2934 Russell St","zipcode":"48207"},{"establishmentid":"2714","name":"Sala Thai","address":"3400 Russell St","zipcode":"48207"},{"establishmentid":"51622579","name":"Amore Da Roma","address":"3401 Riopelle St","zipcode":"48207"},{"establishmentid":"457","name":"Roma Cafe Inc","address":"3401 Riopelle St","zipcode":"48207"},{"establishmentid":"4634","name":"Bert's Market Place--Motown Bar","address":"2735 Russell St","zipcode":"48207"},{"establishmentid":"51622477","name":"The Eastern","address":"3434 Russell St Unit 501","zipcode":"48207"},{"establishmentid":"462","name":"Mike's Coney Island Inc.","address":"2719 Russell St","zipcode":"48207"},{"establishmentid":"5212","name":"Beyond Juicery & Eatery","address":"2501 Russell St","zipcode":"48207"},{"establishmentid":"485","name":"Farmer's Restaurant","address":"2542 Market St","zipcode":"48207"}],"inspectionsByEstablishmentidList":[{"inspectionid":"42951","inspectionDate":"2018-06-01T00:00:00","inspectionType":"Routine Inspection","inCompliance":"Yes","violationsByInspectionidList":[]}]}]}},"pageContext":{"eid":"51622786"}}