{"data":{"site":{"pathPrefix":"/restaurant-inspections"},"postgres":{"establishment":[{"establishmentid":"5065","name":"Johnson's Southern Bar And Grille","address":"14701 Plymouth Rd","zipcode":"48227","owner":"Roger Johnson","licenseNumber":"081051","licenseType":"Fixed Establishment","establishmentType":"Food Service Establishment","establishmentStatus":"Permanently Closed","riskCategory":"High","reviewFrequencyDays":"180.0","coords":"-83.18902,42.37258","geojson":{"id":"5065","type":"Feature","geometry":{"type":"Point","coordinates":[-83.189017319,42.3725840160001]},"properties":{"name":"Johnson's Southern Bar And Grille","owner":"Roger Johnson","address":"14701 Plymouth Rd","zipcode":"48227","license_type":"Fixed Establishment","risk_category":"High","license_number":"081051","establishmentid":"5065","establishment_type":"Food Service Establishment","establishment_status":"Permanently Closed","review_frequency_days":"180.0","most_recent_license_date":null}},"nearbyList":[{"establishmentid":"734","name":"Verdell's Lounge","address":"14826 Plymouth Rd","zipcode":"48227"},{"establishmentid":"722","name":"Club Celebrity","address":"14421 Plymouth Rd","zipcode":"48227"},{"establishmentid":"2454","name":"Happy's Pizza #6","address":"15128 Plymouth Rd","zipcode":"48227"},{"establishmentid":"3535","name":"Front Page Deli","address":"14744 W Chicago","zipcode":"48228"},{"establishmentid":"3431","name":"Checkers Hamburgers #6238","address":"11641 Greenfield Rd","zipcode":"48227"},{"establishmentid":"1587","name":"McDonald's #12308","address":"15501 Plymouth Rd","zipcode":"48227"},{"establishmentid":"3463","name":"Breithaupt Career/Technical Center","address":"9300 Hubbell Ave","zipcode":"48228"},{"establishmentid":"631","name":"Ice Night Club","address":"9933 Greenfield","zipcode":"48227"},{"establishmentid":"1560","name":"Mr. Steve's Pizza","address":"9911 Greenfield Ave","zipcode":"48227"},{"establishmentid":"1075","name":"Omega Coney Island","address":"9500 Greenfield Rd","zipcode":"48227"},{"establishmentid":"1699","name":"Salvation Army-Detroit Grandale Corp.","address":"11325 Montrose Ave","zipcode":"48227"},{"establishmentid":"1162","name":"Church's Fried Chicken #868","address":"15525 W Chicago","zipcode":"48228"},{"establishmentid":"2647","name":"Captain Jay's Fish & Chicken #101","address":"9233 Greenfield Ave","zipcode":"48228"},{"establishmentid":"527","name":"Lon's Ham and Corned Beef","address":"13600 Chicago Ave W","zipcode":"48228"},{"establishmentid":"1581","name":"Club Jovonnes","address":"9138 Greenfield Rd","zipcode":"48228"},{"establishmentid":"5215","name":"Showtime Ice Cream","address":"12874 Greenfield Rd","zipcode":"48227"},{"establishmentid":"2077","name":"Superior Coney Island","address":"14501 Joy Rd","zipcode":"48228"},{"establishmentid":"4992","name":"Glasshouse Bar and Grill","address":"14301 Grand River Ave","zipcode":"48227"},{"establishmentid":"1190","name":"Popeye's Chicken & Biscuits","address":"8997 Greenfield Rd","zipcode":"48228"},{"establishmentid":"2277","name":"Galaxy Coney Island","address":"13611 Grand River Ave","zipcode":"48227"}],"inspectionsByEstablishmentidList":[{"inspectionid":"36414","inspectionDate":"2016-09-08T00:00:00","inspectionType":"Routine Inspection","inCompliance":"Yes","violationsByInspectionidList":[]}]}]}},"pageContext":{"eid":"5065"}}