{"componentChunkName":"component---src-templates-establishment-page-js","path":"/establishment/4579","result":{"data":{"site":{"pathPrefix":"/restaurant-inspections"},"postgres":{"establishment":[{"establishmentid":"4579","name":"Total Vending","address":"5200 Woodward Ave.","zipcode":"48202","owner":"Joann Trevisan","licenseNumber":"043167","licenseType":"Other","establishmentType":null,"establishmentStatus":null,"riskCategory":null,"reviewFrequencyDays":"500","coords":"-83.06438,42.35941","geojson":{"id":"4579","type":"Feature","geometry":{"type":"Point","coordinates":[-83.064376486,42.359405625]},"properties":{"name":"Total Vending","owner":"Joann Trevisan","address":"5200 Woodward Ave.","zipcode":"48202","license_type":"Other","risk_category":null,"license_number":"043167","establishmentid":"4579","establishment_type":null,"establishment_status":null,"review_frequency_days":"500","most_recent_license_date":"2016-04-29"}},"nearbyList":[{"establishmentid":"4248","name":"Detroit Institute of Arts-Kresge Court","address":"5200 Woodward Ave.","zipcode":"48202"},{"establishmentid":"2330","name":"Detroit Institute of Arts -Cafe DIA","address":"5200 Woodward Ave.","zipcode":"48202"},{"establishmentid":"798","name":"Cafe DIA","address":"5200 Woodward Ave.","zipcode":"48202"},{"establishmentid":"4247","name":"Detroit Institute of Arts-Crystal Galler","address":"5200 Woodward Ave.","zipcode":"48202"},{"establishmentid":"611","name":"Scarab Club of Detroit","address":"217 Farnsworth St.","zipcode":"48202"},{"establishmentid":"2607","name":"International Kitchen","address":"111 Kirby St. E.","zipcode":"48202"},{"establishmentid":"51622770","name":"Small World Kitchen","address":"111 Kirby St. E.","zipcode":"48202"},{"establishmentid":"2906","name":"AVI Foodsystems","address":"201 Kirby E.","zipcode":"48202"},{"establishmentid":"2907","name":"AVI Foodsystems","address":"201 Kirby E.","zipcode":"48202"},{"establishmentid":"2564","name":"AVI Foodsystems","address":"201 Kirby E.","zipcode":"48202"}],"inspectionsByEstablishmentidList":[]}],"maxInspectionDate":[{"inspectionDate":"2023-04-25T00:00:00"}]}},"pageContext":{"eid":"4579"}},"staticQueryHashes":["3649515864","63159454"]}