{"data":{"site":{"pathPrefix":"/restaurant-inspections"},"postgres":{"establishment":[{"establishmentid":"51623017","name":"Tin Roof Bar","address":"47 E Adams Ave","zipcode":"48226","owner":"Tin Roof Detroit LLC","licenseNumber":"PR19071C","licenseType":"Fixed Establishment","establishmentType":"Food Service Establishment","establishmentStatus":"Open","riskCategory":"High","reviewFrequencyDays":"180","coords":"-83.05008,42.33760","geojson":{"id":"51623017","type":"Feature","geometry":{"type":"Point","coordinates":[-83.050081233,42.337595174]},"properties":{"name":"Tin Roof Bar","owner":"Tin Roof Detroit LLC","address":"47 E Adams Ave","zipcode":"48226","license_type":"Fixed Establishment","risk_category":"High","license_number":"PR19071C","establishmentid":"51623017","establishment_type":"Food Service Establishment","establishment_status":"Open","review_frequency_days":"180","most_recent_license_date":null}},"nearbyList":[{"establishmentid":"3475","name":"Chelis Chili Bar","address":"47 E Adams Ave","zipcode":"48226"},{"establishmentid":"1265","name":"Central Methodist Church","address":"23 E Adams Ave","zipcode":"48226"},{"establishmentid":"2637","name":"The Fillmore Detroit (State Bar/Theatre)","address":"2101-2115 Woodward Ste 971","zipcode":"48201"},{"establishmentid":"4859","name":"Norte","address":"22 W Adams","zipcode":"48226"},{"establishmentid":"51622694","name":"Annex","address":"24 W Adams St","zipcode":"48226"},{"establishmentid":"51622517","name":"Brass Rail","address":"18 W Adams St","zipcode":"48226"},{"establishmentid":"5144","name":"Broderick Grille","address":"1570 Woodward Ave","zipcode":"48226"},{"establishmentid":"3706","name":"Angelina Italian Bistro","address":"1565 Broadway","zipcode":"48226"},{"establishmentid":"51623074","name":"Buddy's Pizza","address":"1555 Broadway St","zipcode":"48226"},{"establishmentid":"5152","name":"Ashe Supply Co.","address":"1555 Broadway St","zipcode":"48226"}],"inspectionsByEstablishmentidList":[]}],"maxInspectionDate":[{"inspectionDate":"2020-10-30T00:00:00"}]}},"pageContext":{"eid":"51623017"}}