{"componentChunkName":"component---src-templates-establishment-page-js","path":"/establishment/1880","result":{"data":{"site":{"pathPrefix":"/restaurant-inspections"},"postgres":{"establishment":[{"establishmentid":"1880","name":"Holistic Development Center","address":"17425 Second Ave.","zipcode":"48203","owner":"Karen Johnson Moore","licenseNumber":"037105","licenseType":"Fixed Establishment","establishmentType":"Food Service Establishment","establishmentStatus":"Permanently Closed","riskCategory":null,"reviewFrequencyDays":"150","coords":"-83.11051,42.41891","geojson":{"id":"1880","type":"Feature","geometry":{"type":"Point","coordinates":[-83.110512515,42.418905184]},"properties":{"name":"Holistic Development Center","owner":"Karen Johnson Moore","address":"17425 Second Ave.","zipcode":"48203","license_type":"Fixed Establishment","risk_category":null,"license_number":"037105","establishmentid":"1880","establishment_type":"Food Service Establishment","establishment_status":"Permanently Closed","review_frequency_days":"150","most_recent_license_date":"4/12/2006"}},"nearbyList":[{"establishmentid":"281","name":"Kow Kow Inn, Inc.","address":"322 McNichols W.","zipcode":"48203"},{"establishmentid":"51623851","name":"Balkan House Food Truck LLC ","address":"314 Nine Mile Road W ","zipcode":null},{"establishmentid":"700","name":"La Dolce Vita","address":"17546 Woodward","zipcode":"48203"},{"establishmentid":"2718","name":"Bread Basket Wholesale","address":"17740 Woodward","zipcode":"48203"},{"establishmentid":"51623613","name":"Guerilla Food DBA Pink Flamingo to Go","address":"17740 Woodward","zipcode":"48203"},{"establishmentid":"5211","name":"Sun Sun","address":"230 McNichols W.","zipcode":"48203"},{"establishmentid":"4689","name":"Po Boyz Soul Food","address":"230 W. McNichols","zipcode":"48203"},{"establishmentid":"4149","name":"Delight Fish & Chicken","address":"230 McNichols Ave. W.","zipcode":"48203"},{"establishmentid":"1087","name":"Menjo's","address":"928 McNichols W.","zipcode":"48203"},{"establishmentid":"1972","name":"Arty Art's Eats & Treats","address":"17348 Woodward Ave.","zipcode":"48203"}],"inspectionsByEstablishmentidList":[]}],"maxInspectionDate":[{"inspectionDate":"2023-04-13T00:00:00"}]}},"pageContext":{"eid":"1880"}},"staticQueryHashes":["3649515864","63159454"]}