{"componentChunkName":"component---src-templates-establishment-page-js","path":"/establishment/51624000","result":{"data":{"site":{"pathPrefix":"/restaurant-inspections"},"postgres":{"establishment":[{"establishmentid":"51624000","name":"Blue Roof Ice Cream Parlor ","address":"11650 Van Dyke Ave ","zipcode":"48234","owner":"Ron Gonzales ","licenseNumber":"PR23036A","licenseType":"Fixed Establishment","establishmentType":"Food Service Establishment","establishmentStatus":"Plan Review","riskCategory":null,"reviewFrequencyDays":null,"coords":"-83.02307,42.40945","geojson":{"id":"51624000","type":"Feature","geometry":{"type":"Point","coordinates":[-83.023066468,42.40945206]},"properties":{"name":"Blue Roof Ice Cream Parlor ","owner":"Ron Gonzales ","address":"11650 Van Dyke Ave ","zipcode":"48234","license_type":"Fixed Establishment","risk_category":null,"license_number":"PR23036A","establishmentid":"51624000","establishment_type":"Food Service Establishment","establishment_status":"Plan Review","review_frequency_days":null,"most_recent_license_date":null}},"nearbyList":[{"establishmentid":"1195","name":"The Cone Zone","address":"11650 Van Dyke","zipcode":"48234"},{"establishmentid":"996","name":"Lynch Elementary","address":"7601 Palmetto  St.","zipcode":"48234"},{"establishmentid":"985","name":"UAW Local 961","address":"7575 Lynch Rd.","zipcode":"48234"},{"establishmentid":"2318","name":"E's On Van Dyke Fish & Shrimp","address":"13501 Van Dyke","zipcode":"48234"},{"establishmentid":"1129","name":"Davis Aerospace High School","address":"10200 Erwin","zipcode":"48234"},{"establishmentid":"2964","name":"Metro Vending","address":"13475 Eldon","zipcode":"48234"},{"establishmentid":"4574","name":"Metro Vending","address":"13475 Eldon","zipcode":"48234"},{"establishmentid":"1770","name":"CONTINENTAL SERVICES INC","address":"13475 ELDEN","zipcode":"48238"},{"establishmentid":"2914","name":"AVI Foodsystems","address":"6700 Lynch Rd.","zipcode":"48234"},{"establishmentid":"2143","name":"Robinson Dairy Vending","address":"6700 Lynch","zipcode":"48234"}],"inspectionsByEstablishmentidList":[]}],"maxInspectionDate":[{"inspectionDate":"2023-04-25T00:00:00"}]}},"pageContext":{"eid":"51624000"}},"staticQueryHashes":["3649515864","63159454"]}