{"componentChunkName":"component---src-templates-establishment-page-js","path":"/establishment/4638","result":{"data":{"site":{"pathPrefix":"/restaurant-inspections"},"postgres":{"establishment":[{"establishmentid":"4638","name":"Michigan Healthy Vending","address":"1401 Broadway","zipcode":"48226","owner":"Brad Glass","licenseNumber":"045690","licenseType":"Other","establishmentType":"LHD - Vending","establishmentStatus":null,"riskCategory":null,"reviewFrequencyDays":"500","coords":"-83.04766,42.33520","geojson":{"id":"4638","type":"Feature","geometry":{"type":"Point","coordinates":[-83.047655726,42.335202544]},"properties":{"name":"Michigan Healthy Vending","owner":"Brad Glass","address":"1401 Broadway","zipcode":"48226","license_type":"Other","risk_category":null,"license_number":"045690","establishmentid":"4638","establishment_type":"LHD - Vending","establishment_status":null,"review_frequency_days":"500","most_recent_license_date":null}},"nearbyList":[{"establishmentid":"51622699","name":"Deluxx Fluxx","address":"1274 Library","zipcode":"48226"},{"establishmentid":"4718","name":"Cafe Detroit","address":"1260  Library St.","zipcode":"48226"},{"establishmentid":"2368","name":"Cafe' de Troit","address":"1260 Library Ste. 120","zipcode":"48226"},{"establishmentid":"51622901","name":"Madcap Coffee Company","address":"1413 Farmer","zipcode":"48226"},{"establishmentid":"3404","name":"Vincente's Cuban Cuisine","address":"1250 Library St.","zipcode":"48226"},{"establishmentid":"51623358","name":"I Love You Juicery","address":"206 Grand River E.","zipcode":"48226"},{"establishmentid":"51622905","name":"Detroit Mini Donut","address":"206 Grand River E. Ste 1D","zipcode":"48226"},{"establishmentid":"2716","name":"Harmonie Way","address":"218 Grand River E.","zipcode":"48226"},{"establishmentid":"3913","name":"Al's Paradise Cafe, LLC","address":"218  Grand River","zipcode":"48226"},{"establishmentid":"4906","name":"Jose's Tacos, LLC","address":"218 Grand River E.","zipcode":"48226"}],"inspectionsByEstablishmentidList":[]}],"maxInspectionDate":[{"inspectionDate":"2023-04-25T00:00:00"}]}},"pageContext":{"eid":"4638"}},"staticQueryHashes":["3649515864","63159454"]}