{"componentChunkName":"component---src-templates-establishment-page-js","path":"/establishment/51623364","result":{"data":{"site":{"pathPrefix":"/restaurant-inspections"},"postgres":{"establishment":[{"establishmentid":"51623364","name":"Hall Star Grill","address":"11840 Morang","zipcode":"48224","owner":"Tawana Hall","licenseNumber":"253487","licenseType":"Fixed Establishment","establishmentType":"Food Service Establishment","establishmentStatus":"Open","riskCategory":"High","reviewFrequencyDays":"150","coords":"-82.95054,42.42665","geojson":{"id":"51623364","type":"Feature","geometry":{"type":"Point","coordinates":[-82.950538619,42.42664897]},"properties":{"name":"Hall Star Grill","owner":"Tawana Hall","address":"11840 Morang","zipcode":"48224","license_type":"Fixed Establishment","risk_category":"High","license_number":"253487","establishmentid":"51623364","establishment_type":"Food Service Establishment","establishment_status":"Open","review_frequency_days":"150","most_recent_license_date":"4/12/2022"}},"nearbyList":[{"establishmentid":"2039","name":"Club Millenium 2000 AKA:A Taste of Honey","address":"11850 Morang","zipcode":"48224"},{"establishmentid":"3127","name":"Mo's Weenies","address":"12410 Duchess","zipcode":"48215"},{"establishmentid":"2588","name":"Detroit School of Industrial Arts","address":"11406 Morang ","zipcode":"48224"},{"establishmentid":"1885","name":"Fat-n-Juicy Smoke Bone","address":"12351 Morang","zipcode":"48224"},{"establishmentid":"844","name":"Carleton Elementary School","address":"11724 Casino","zipcode":"48224"},{"establishmentid":"4997","name":"Grace Cuisine Inc.","address":"12400 Morang Dr.","zipcode":"48224"},{"establishmentid":"51622719","name":"Toarmina's Pizza","address":"12400 Morang","zipcode":"48224"},{"establishmentid":"2585","name":"Pro Wash Food","address":"12400 Morang","zipcode":"48224"},{"establishmentid":"3910","name":"Roza's Coney Island and Pizzeria","address":"12400 Morang","zipcode":"48224"},{"establishmentid":"4336","name":"King Fish & Chicken","address":"12400 Morang","zipcode":"48224"}],"inspectionsByEstablishmentidList":[{"inspectionid":"54687","inspectionDate":"2021-03-03T00:00:00","inspectionType":"Preopening/Other","inCompliance":"Yes","violationsByInspectionidList":[{"violationCode":"5-501.11","violationDescription":"An outdoor storage surface for REFUSE, recyclables, and returnable's shall be constructed of nonabsorbent material such as concrete or asphalt and shall be SMOOTH, durable, and sloped to drain.\n","violationType":"Core","itemDescription":"Waste receptacle(s)","subItem":null,"problemDescription":"Stored over","subProblem":"Dirt/soil","location":"OUTSIDE PREMISES","subLocation":"Dumpster(s)","corrected":"False","daysToCorrect":"30","correctedDate":null,"correctionDescription":null}]}]}],"maxInspectionDate":[{"inspectionDate":"2022-08-31T00:00:00"}]}},"pageContext":{"eid":"51623364"}},"staticQueryHashes":["3649515864","63159454"]}