{"componentChunkName":"component---src-templates-establishment-page-js","path":"/establishment/51623454","result":{"data":{"site":{"pathPrefix":"/restaurant-inspections"},"postgres":{"establishment":[{"establishmentid":"51623454","name":"Detroit Breakfast","address":"9488 Conner Ave","zipcode":"48213","owner":"Michael Anthony ","licenseNumber":"255913","licenseType":"Fixed Establishment","establishmentType":"Food Service Establishment","establishmentStatus":"Open","riskCategory":null,"reviewFrequencyDays":"150","coords":"-82.99235,42.40062","geojson":{"id":"51623454","type":"Feature","geometry":{"type":"Point","coordinates":[-82.992352116,42.400618829]},"properties":{"name":"Detroit Breakfast","owner":"Michael Anthony ","address":"9488 Conner Ave","zipcode":"48213","license_type":"Fixed Establishment","risk_category":null,"license_number":"255913","establishmentid":"51623454","establishment_type":"Food Service Establishment","establishment_status":"Open","review_frequency_days":"150","most_recent_license_date":"6/1/2022"}},"nearbyList":[{"establishmentid":"51622858","name":"Detroit Blues Breakfast Restaurant","address":"9488 Conner","zipcode":"48213"},{"establishmentid":"3157","name":"BB's Home of Steak & Shrimp","address":"9472 Conner","zipcode":"48209"},{"establishmentid":"4820","name":"Bates & Company","address":"11585  Harper Ave.","zipcode":"48205"},{"establishmentid":"920","name":"Edward Duke Ellington Conservatory","address":"8030 Outer Drive E.","zipcode":"48213"},{"establishmentid":"51623511","name":"Denise Welons-Glover Welcome Center","address":"8200 Outer Drive W.","zipcode":"48219"},{"establishmentid":"3798","name":"Subway ","address":"8200 Outer Dr. W.","zipcode":"48235"},{"establishmentid":"812","name":"University of Detroit Mercy","address":"8200 OUTER DR W.","zipcode":"48219"},{"establishmentid":"5003","name":"Coney Connection","address":"10993 Gratiot Ave.","zipcode":"48205"},{"establishmentid":"51622640","name":"Rio's Coney Island","address":"10993 Gratiot","zipcode":"48213"},{"establishmentid":"2354","name":"Aloha Coney Island","address":"10993 Gratiot Ave.","zipcode":"48213"}],"inspectionsByEstablishmentidList":[]}],"maxInspectionDate":[{"inspectionDate":"2022-08-31T00:00:00"}]}},"pageContext":{"eid":"51623454"}},"staticQueryHashes":["3649515864","63159454"]}