{"componentChunkName":"component---src-templates-establishment-page-js","path":"/establishment/51622456","result":{"data":{"site":{"pathPrefix":"/restaurant-inspections"},"postgres":{"establishment":[{"establishmentid":"51622456","name":"Chris Top Dog's LLC","address":"8420 Stout","zipcode":"48228","owner":"Christopher L. Howard","licenseNumber":"220258","licenseType":"Mobile Food Establishment","establishmentType":"LHD - Mobile Food Establishmen","establishmentStatus":"Seasonal","riskCategory":null,"reviewFrequencyDays":"365","coords":"-83.23923,42.35426","geojson":{"id":"51622456","type":"Feature","geometry":{"type":"Point","coordinates":[-83.239228897,42.354257126]},"properties":{"name":"Chris Top Dog's LLC","owner":"Christopher L. Howard","address":"8420 Stout","zipcode":"48228","license_type":"Mobile Food Establishment","risk_category":null,"license_number":"220258","establishmentid":"51622456","establishment_type":"LHD - Mobile Food Establishmen","establishment_status":"Seasonal","review_frequency_days":"365","most_recent_license_date":"19/3/2018"}},"nearbyList":[{"establishmentid":"51623388","name":"Gusto's Burgers","address":"8475 Evergreen","zipcode":"48228"},{"establishmentid":"51623012","name":"Ameera's Place","address":"20226 Joy Rd.","zipcode":"48228"},{"establishmentid":"264","name":"Loose Ends, Inc/dba Club Ro-zay","address":"20226 Joy Rd.","zipcode":"48228"},{"establishmentid":"1238","name":"Kosciusko Elementary School","address":"20220 Tireman","zipcode":"48228"},{"establishmentid":"263","name":"E & H Lounge","address":"20531 Joy Rd.","zipcode":"48228"},{"establishmentid":"51623397","name":"Buick Hall","address":"20531  Joy Rd.","zipcode":"48228"},{"establishmentid":"719","name":"L. George Coney Island #7","address":"20003 Joy Rd.","zipcode":"48228"},{"establishmentid":"51623483","name":"Joy Chicken & Seafood","address":"20000 Joy","zipcode":"48228"},{"establishmentid":"51622775","name":"Joy & Green Mart LLC","address":"20000 Joy Rd.","zipcode":"48228"},{"establishmentid":"1983","name":"Dynasty Express NY Style Chinese Food","address":"20622 Joy Rd.","zipcode":"48228"}],"inspectionsByEstablishmentidList":[{"inspectionid":"39513","inspectionDate":"2017-08-04T00:00:00","inspectionType":"Plan Review/Final/Ap","inCompliance":"Yes","violationsByInspectionidList":[{"violationCode":"MFL289.6135","violationDescription":"Sec. 6135. (1) The name and address of the business operating a mobile food establishment shall be affixed to each side of the exterior of the vehicle in letters not less than 3 inches high and 3/8 of an inch wide and shall be in contrast to the vehicle background color. When more than 1 mobile food service establishment is operated by the same person, the director shall assign a number to each establishment.  (2) A copy of limitations attached to the license of a mobile food service establishment shall be carried on the mobile food service establishment at all times.  (3) If a mobile food establishment is operating on a regularly scheduled route, the director may require the license holder to provide a copy of the route schedule when the license is approved and every time the route schedule is changed.  (4) The director or the operator in the presence of the director shall affix 2 decals provided by the department on the mobile food establishment when the license is issued. The decals shall be conspicuously displayed on each side of the mobile food establishment so as to be visible when in transit and while serving the public.","violationType":"Core","itemDescription":null,"subItem":"","problemDescription":null,"subProblem":"","location":"HOT DOG CART","subLocation":"At the SIGNAGE","corrected":"True","daysToCorrect":"30","correctedDate":"0001-01-01T00:00:00","correctionDescription":null}]}]}],"maxInspectionDate":[{"inspectionDate":"2023-04-13T00:00:00"}]}},"pageContext":{"eid":"51622456"}},"staticQueryHashes":["3649515864","63159454"]}