{"componentChunkName":"component---src-templates-establishment-page-js","path":"/establishment/51622596","result":{"data":{"site":{"pathPrefix":"/restaurant-inspections"},"postgres":{"establishment":[{"establishmentid":"51622596","name":"The Elephant Shack LLC","address":"2515 Riopelle","zipcode":"48207","owner":"The Elephant Shack LLC","licenseNumber":"229331","licenseType":"Mobile Food Establishment","establishmentType":"LHD - Mobile Food Establishmen","establishmentStatus":"Open","riskCategory":"Medium","reviewFrequencyDays":"180","coords":"-83.03895,42.34670","geojson":{"id":"51622596","type":"Feature","geometry":{"type":"Point","coordinates":[-83.038954223,42.346701082]},"properties":{"name":"The Elephant Shack LLC","owner":"The Elephant Shack LLC","address":"2515 Riopelle","zipcode":"48207","license_type":"Mobile Food Establishment","risk_category":"Medium","license_number":"229331","establishmentid":"51622596","establishment_type":"LHD - Mobile Food Establishmen","establishment_status":"Open","review_frequency_days":"180","most_recent_license_date":"4/17/2019"}},"nearbyList":[{"establishmentid":"51622482","name":"Eastern Market Brewing Co.","address":"2515  Riopelle St.","zipcode":"48207"},{"establishmentid":"51623117","name":"Jose Taco's #2 Eastern Market","address":"2510 Market St. ","zipcode":"48207"},{"establishmentid":"3895","name":"Butcher's Inn","address":"1489 Winder Ave.","zipcode":"48207"},{"establishmentid":"3480","name":"Butchers Inn","address":"1489 Winder","zipcode":"48207"},{"establishmentid":"51623367","name":"Farmer Frank's","address":"2542 Market St.","zipcode":"48207"},{"establishmentid":"485","name":"Farmer's Restaurant","address":"2542 Market  St","zipcode":"48207"},{"establishmentid":"51623037","name":"DeVries & Co. 1887","address":"2468 Market St.","zipcode":"48207"},{"establishmentid":"501","name":"Vivio's Market Center Club","address":"2460 Market St.","zipcode":"48207"},{"establishmentid":"51623781","name":"Mitsos Greek Food & Coffee","address":"2614 Riopelle","zipcode":"48207"},{"establishmentid":"51623787","name":"Mitsos Greek Food and Coffee","address":"2614 Riopelle Unit A","zipcode":"48207"}],"inspectionsByEstablishmentidList":[{"inspectionid":"51412","inspectionDate":"2020-03-23T00:00:00","inspectionType":"COVID19-temp closed","inCompliance":"Yes","violationsByInspectionidList":[]},{"inspectionid":"41977","inspectionDate":"2018-04-18T00:00:00","inspectionType":"Preopening/New","inCompliance":"Yes","violationsByInspectionidList":[]}]}],"maxInspectionDate":[{"inspectionDate":"2022-07-25T00:00:00"}]}},"pageContext":{"eid":"51622596"}},"staticQueryHashes":["3649515864","63159454"]}