{"data":{"site":{"pathPrefix":"/restaurant-inspections"},"postgres":{"establishment":[{"establishmentid":"51622953","name":"DPSCD (previously MaryGrove)","address":"8425 W McNichols Rd","zipcode":"48221","owner":"Detroit Board of Education","licenseNumber":"238007","licenseType":"Fixed Establishment","establishmentType":"Public School","establishmentStatus":"Open","riskCategory":null,"reviewFrequencyDays":"180","coords":"-83.15874,42.41438","geojson":{"id":"51622953","type":"Feature","geometry":{"type":"Point","coordinates":[-83.158738903,42.414383898]},"properties":{"name":"DPSCD (previously MaryGrove)","owner":"Detroit Board of Education","address":"8425 W McNichols Rd","zipcode":"48221","license_type":"Fixed Establishment","risk_category":null,"license_number":"238007","establishmentid":"51622953","establishment_type":"Public School","establishment_status":"Open","review_frequency_days":"180","most_recent_license_date":"4/15/2019"}},"nearbyList":[{"establishmentid":"5334","name":"Marygrove College","address":"8425 W McNichols Rd","zipcode":"48221"},{"establishmentid":"51622983","name":"Marygrove Conservancy","address":"8425 W McNichols Rd","zipcode":"48221"},{"establishmentid":"51622895","name":"Peggy's Place (COTS)","address":"16630 Wyoming Ave","zipcode":"48221"},{"establishmentid":"1379","name":"Oscar's Coney Island #6","address":"10000 W McNichols Rd","zipcode":"48221"},{"establishmentid":"4665","name":"Faustina's Creole and Soulfood","address":"16155 Wyoming Ave","zipcode":"48221"},{"establishmentid":"1868","name":"WE Care Senior Meal Program","address":"8720 Puritan ","zipcode":"48238"},{"establishmentid":"306","name":"Lou's Finer Deli, Inc.","address":"8224 W McNichols Rd","zipcode":"48221"},{"establishmentid":"4436","name":"Domino's Pizza","address":"10437 W McNichols Rd","zipcode":"48221"},{"establishmentid":"1160","name":"Caribbean Citchen","address":"10500 W McNichols Rd","zipcode":"48221"},{"establishmentid":"5340","name":"Spud HeadZ Food Truck","address":"10601 W McNichols Rd","zipcode":"48221"}],"inspectionsByEstablishmentidList":[]}],"maxInspectionDate":[{"inspectionDate":"2020-05-29T00:00:00"}]}},"pageContext":{"eid":"51622953"}}