{"componentChunkName":"component---src-templates-establishment-page-js","path":"/establishment/3393","result":{"data":{"site":{"pathPrefix":"/restaurant-inspections"},"postgres":{"establishment":[{"establishmentid":"3393","name":"Arthur's Deli","address":"2709 Fort St. S.","zipcode":"48217","owner":"Mr. Gholston","licenseNumber":"WW63663","licenseType":"Fixed Establishment","establishmentType":"Food Service Establishment","establishmentStatus":"Open","riskCategory":null,"reviewFrequencyDays":"180","coords":"-83.16047,42.26953","geojson":{"id":"3393","type":"Feature","geometry":{"type":"Point","coordinates":[-83.160469159,42.269534168]},"properties":{"name":"Arthur's Deli","owner":"Mr. Gholston","address":"2709 Fort St. S.","zipcode":"48217","license_type":"Fixed Establishment","risk_category":null,"license_number":"WW63663","establishmentid":"3393","establishment_type":"Food Service Establishment","establishment_status":"Open","review_frequency_days":"180","most_recent_license_date":null}},"nearbyList":[{"establishmentid":"51622561","name":"The Paris Cafe","address":"2709 South Fort Street","zipcode":"48217"},{"establishmentid":"51623463","name":"Grill Culture","address":"2709 Fort St. S.","zipcode":"48217"},{"establishmentid":"2021","name":"Fort St. Eats d/b/a Johnny Noodle King","address":"2601 Fort W.","zipcode":"48216"},{"establishmentid":"885","name":"Mark Twain K-8","address":"12800 Visger  Rd.","zipcode":"48217"},{"establishmentid":"51622926","name":"Moore Soul Food","address":"3005 Fort Street S.","zipcode":"48217"},{"establishmentid":"781","name":"Ciotti Bar","address":"3133 Fort St S.","zipcode":"48217"},{"establishmentid":"4068","name":"Ella Mae's Place","address":"2251 Fort St. S.","zipcode":"48217"},{"establishmentid":"1272","name":"Kemeny Recreation Center","address":"2260 Fort St. S.","zipcode":"48217"},{"establishmentid":"3132","name":"Perfect Cafe","address":"2037  Fort St. S.","zipcode":"48217"},{"establishmentid":"2245","name":"Perfect Beat","address":"1941 Fort St. S.","zipcode":"48217"}],"inspectionsByEstablishmentidList":[]}],"maxInspectionDate":[{"inspectionDate":"2022-08-31T00:00:00"}]}},"pageContext":{"eid":"3393"}},"staticQueryHashes":["3649515864","63159454"]}