{"componentChunkName":"component---src-templates-establishment-page-js","path":"/establishment/51623497","result":{"data":{"site":{"pathPrefix":"/restaurant-inspections"},"postgres":{"establishment":[{"establishmentid":"51623497","name":"J & N Fish Market Inc.","address":"3517 Fort St.","zipcode":"48217","owner":"Jamal Shamman","licenseNumber":"PS070921","licenseType":"Fixed Establishment","establishmentType":"Food Service Establishment","establishmentStatus":"Open","riskCategory":null,"reviewFrequencyDays":"150","coords":"-83.16644,42.26227","geojson":{"id":"51623497","type":"Feature","geometry":{"type":"Point","coordinates":[-83.166440457,42.262268183]},"properties":{"name":"J & N Fish Market Inc.","owner":"Jamal Shamman","address":"3517 Fort St.","zipcode":"48217","license_type":"Fixed Establishment","risk_category":null,"license_number":"PS070921","establishmentid":"51623497","establishment_type":"Food Service Establishment","establishment_status":"Open","review_frequency_days":"150","most_recent_license_date":null}},"nearbyList":[{"establishmentid":"51623495","name":"Nu Wave Fish & Chicken","address":"3517 Fort St. S.","zipcode":"48217"},{"establishmentid":"3590","name":"Happy's Pizza #22","address":"3517 Fort St. S.","zipcode":"48217"},{"establishmentid":"781","name":"Ciotti Bar","address":"3133 Fort St S.","zipcode":"48217"},{"establishmentid":"51622926","name":"Moore Soul Food","address":"3005 Fort Street S.","zipcode":"48217"},{"establishmentid":"886","name":"Mark Twain Elementry","address":"12001 Gleason","zipcode":"48217"},{"establishmentid":"885","name":"Mark Twain K-8","address":"12800 Visger  Rd.","zipcode":"48217"},{"establishmentid":"51622561","name":"The Paris Cafe","address":"2709 South Fort Street","zipcode":"48217"},{"establishmentid":"3393","name":"Arthur's Deli","address":"2709 Fort St. S.","zipcode":"48217"},{"establishmentid":"51623463","name":"Grill Culture","address":"2709 Fort St. S.","zipcode":"48217"},{"establishmentid":"2021","name":"Fort St. Eats d/b/a Johnny Noodle King","address":"2601 Fort W.","zipcode":"48216"}],"inspectionsByEstablishmentidList":[]}],"maxInspectionDate":[{"inspectionDate":"2023-04-25T00:00:00"}]}},"pageContext":{"eid":"51623497"}},"staticQueryHashes":["3649515864","63159454"]}