{"data":{"site":{"pathPrefix":"/restaurant-inspections"},"postgres":{"establishment":[{"establishmentid":"3695","name":"MGM Grand Casino-Int Ice","address":"1777 Third St","zipcode":"48226","owner":"MGM Grand Detroit Casino","licenseNumber":"060169","licenseType":"Fixed Establishment","establishmentType":"Food Service Establishment","establishmentStatus":"Open","riskCategory":null,"reviewFrequencyDays":"365.0","coords":"-83.06068,42.33472","geojson":{"id":"3695","type":"Feature","geometry":{"type":"Point","coordinates":[-83.0606819449999,42.334723771]},"properties":{"name":"MGM Grand Casino-Int Ice","owner":"MGM Grand Detroit Casino","address":"1777 Third St","zipcode":"48226","license_type":"Fixed Establishment","risk_category":null,"license_number":"060169","establishmentid":"3695","establishment_type":"Food Service Establishment","establishment_status":"Open","review_frequency_days":"365.0","most_recent_license_date":"5/2/2018"}},"nearbyList":[{"establishmentid":"3617","name":"DTE Energy Town Square C-Store313","address":"2000 Second Ave","zipcode":"48226"},{"establishmentid":"429","name":"PJ's Lager House","address":"1254 Michigan Ave","zipcode":"48226"},{"establishmentid":"3598","name":"Cass Technical High School","address":"2501 Second Ave","zipcode":"48201-34"},{"establishmentid":"2675","name":"Brooklyn Street Local","address":"1266 Michigan Ave","zipcode":"48226"},{"establishmentid":"1405","name":"Mariner's Inn","address":"445 Ledyard","zipcode":"48201"},{"establishmentid":"3966","name":"Bookies Bar and Grille","address":"2208 Cass Ave","zipcode":"48226"},{"establishmentid":"545","name":"Nemos","address":"1378 Michigan Ave","zipcode":"48226"},{"establishmentid":"4916","name":"Republic Tavern","address":"1942 Grand River","zipcode":"48226"},{"establishmentid":"1349","name":"Mudgie's","address":"1300 Porter St","zipcode":"48226"},{"establishmentid":"4648","name":"Ottava Via","address":"1400 Michigan Ave","zipcode":"48226"},{"establishmentid":"918","name":"Most Holy Trinity School","address":"1229 LaBrosse St","zipcode":"48226"},{"establishmentid":"5416","name":"Lady of the House, LLC","address":"1426 Bagley Ave","zipcode":"48216"},{"establishmentid":"4655","name":"Leland House","address":"400 Bagley Ave","zipcode":"48226"},{"establishmentid":"720","name":"Lucy & Ethel's Diner","address":"400 Bagley Ave","zipcode":"48226"},{"establishmentid":"3173","name":"Harry's Detroit","address":"2482 Clifford","zipcode":"48201"},{"establishmentid":"1409","name":"Manna Meals","address":"1950 Trumbull","zipcode":"48216"},{"establishmentid":"500","name":"McShane's","address":"1460 Michigan Ave","zipcode":"48216"},{"establishmentid":"4939","name":"Batch Brewing Company","address":"1408 Porter St","zipcode":"48216"},{"establishmentid":"4938","name":"UFO Factory","address":"2110 Trumbull St","zipcode":"48207"},{"establishmentid":"1140","name":"Masonic Temple","address":"500 Temple","zipcode":"48201"}],"inspectionsByEstablishmentidList":[{"inspectionid":"38253","inspectionDate":"2017-03-02T00:00:00","inspectionType":"Routine Inspection","inCompliance":"Yes","violationsByInspectionidList":[]}]}]}},"pageContext":{"eid":"3695"}}