{"data":{"site":{"pathPrefix":"/restaurant-inspections"},"postgres":{"establishment":[{"establishmentid":"51622868","name":"Pursue/Fort Street Galley","address":"160 W Fort St","zipcode":"48226","owner":"Michael Han","licenseNumber":"1031NKB","licenseType":"Fixed Establishment","establishmentType":"Food Service Establishment","establishmentStatus":"Open","riskCategory":"High","reviewFrequencyDays":"180.0","coords":"-83.04859,42.33058","geojson":{"id":"51622868","type":"Feature","geometry":{"type":"Point","coordinates":[-83.0485863489999,42.3305789710001]},"properties":{"name":"Pursue/Fort Street Galley","owner":"Michael Han","address":"160 W Fort St","zipcode":"48226","license_type":"Fixed Establishment","risk_category":"High","license_number":"1031NKB","establishmentid":"51622868","establishment_type":"Food Service Establishment","establishment_status":"Open","review_frequency_days":"180.0","most_recent_license_date":null}},"nearbyList":[{"establishmentid":"51622865","name":"Lucky's Noble BBQ/Fort Street Galley","address":"160 W Fort St","zipcode":"48226"},{"establishmentid":"51622866","name":"Isla/Fort Street Galley","address":"160 W Fort St","zipcode":"48226"},{"establishmentid":"51622867","name":"Allenby/Fort Street Galley","address":"160 W Fort St","zipcode":"48226"},{"establishmentid":"5320","name":"Maru Detroit","address":"160 W Fort St","zipcode":"48226"},{"establishmentid":"51622819","name":"Fort Street Galley (Bar)","address":"160 W Fort St","zipcode":"48226"},{"establishmentid":"4866","name":"Dime Store","address":"719 Griswold St Ste 180","zipcode":"48226"},{"establishmentid":"5039","name":"Mikes Kabob Grille","address":"719 Griswold Ste 140","zipcode":"48226"},{"establishmentid":"619","name":"Lafayette Enterprises Inc","address":"118 W Lafayette Blvd","zipcode":"48226"},{"establishmentid":"4449","name":"Carnival Fresh Mex","address":"645 Griswold St  Ste. 56 ","zipcode":"48226"},{"establishmentid":"3859","name":"Fastbreak Donut (Detroit Donut)","address":"645 Griswold St","zipcode":"48226"}],"inspectionsByEstablishmentidList":[{"inspectionid":"44301","inspectionDate":"2018-11-30T00:00:00","inspectionType":"Plan Review/Pre-Open","inCompliance":"Yes","violationsByInspectionidList":[]}]}]}},"pageContext":{"eid":"51622868"}}