{"componentChunkName":"component---src-templates-establishment-page-js","path":"/establishment/51623877","result":{"data":{"site":{"pathPrefix":"/restaurant-inspections"},"postgres":{"establishment":[{"establishmentid":"51623877","name":"Sunrisse Fresh Fish And Chicken Market ","address":"2970  W. Davison ","zipcode":null,"owner":"Fuad M. Yahya ","licenseNumber":"350029","licenseType":"Fixed Establishment","establishmentType":"Food Service Establishment","establishmentStatus":"Open","riskCategory":null,"reviewFrequencyDays":"150","coords":"-83.12661,42.39175","geojson":{"id":"51623877","type":"Feature","geometry":{"type":"Point","coordinates":[-83.126610349,42.391748247]},"properties":{"name":"Sunrisse Fresh Fish And Chicken Market ","owner":"Fuad M. Yahya ","address":"2970  W. Davison ","zipcode":null,"license_type":"Fixed Establishment","risk_category":null,"license_number":"350029","establishmentid":"51623877","establishment_type":"Food Service Establishment","establishment_status":"Open","review_frequency_days":"150","most_recent_license_date":null}},"nearbyList":[{"establishmentid":"5296","name":"Nu Wave Fish & Chicken","address":"2970 Davison Ave. W.","zipcode":"48238"},{"establishmentid":"3415","name":"Nu Wave Fish & Chicken","address":"2970 Davison Ave. W.","zipcode":"48238"},{"establishmentid":"1785","name":"Burger King ","address":"3200 Davison Ave. W.","zipcode":"48238"},{"establishmentid":"51623498","name":"Chroma","address":"2938 Grand Blvd. E.","zipcode":"48202"},{"establishmentid":"1149","name":"Church's Fried Chicken #863","address":"2757 Davison Ave. W.","zipcode":"48238"},{"establishmentid":"826","name":"Stewart Elementary- Middle School","address":"13120 Wildmere","zipcode":"48238"},{"establishmentid":"453","name":"White Castle #51","address":"2735 Davison Ave. W.","zipcode":"48238"},{"establishmentid":"2449","name":"Subway #24214","address":"2694 Davison W.","zipcode":"48238"},{"establishmentid":"1936","name":"Great Wall","address":"3345 Davison Ave. W.","zipcode":"48238"},{"establishmentid":"4425","name":"Yummy Wong's","address":"3345 Davison Ave. W.","zipcode":"48238"}],"inspectionsByEstablishmentidList":[]}],"maxInspectionDate":[{"inspectionDate":"2023-04-13T00:00:00"}]}},"pageContext":{"eid":"51623877"}},"staticQueryHashes":["3649515864","63159454"]}