{"componentChunkName":"component---src-templates-establishment-page-js","path":"/establishment/51623607","result":{"data":{"site":{"pathPrefix":"/restaurant-inspections"},"postgres":{"establishment":[{"establishmentid":"51623607","name":"Kai's Loaded Bakery","address":"17400 Grand River W.","zipcode":"48235","owner":"Kai R Davie","licenseNumber":"260464","licenseType":"Fixed Establishment","establishmentType":"Food Service Establishment","establishmentStatus":"Open","riskCategory":"High","reviewFrequencyDays":"150","coords":"-83.21309,42.39886","geojson":{"id":"51623607","type":"Feature","geometry":{"type":"Point","coordinates":[-83.21308995,42.398856779]},"properties":{"name":"Kai's Loaded Bakery","owner":"Kai R Davie","address":"17400 Grand River W.","zipcode":"48235","license_type":"Fixed Establishment","risk_category":"High","license_number":"260464","establishmentid":"51623607","establishment_type":"Food Service Establishment","establishment_status":"Open","review_frequency_days":"150","most_recent_license_date":null}},"nearbyList":[{"establishmentid":"5405","name":"Kai Loaded Bakery","address":"17400 Grand River W.","zipcode":"48227"},{"establishmentid":"51623361","name":"Tha Rib Crib","address":"17300 Grand River","zipcode":"48227"},{"establishmentid":"2296","name":"Wendy's Old Fashioned Hamburgers #2259","address":"17420 Grand River Ave.","zipcode":"48227"},{"establishmentid":"51623978","name":"Bella's Chicken & Waffles","address":"17000 Grand River","zipcode":"48227"},{"establishmentid":"1222","name":"Edison Elementary School","address":"17045 Grand River Ave.","zipcode":"48227"},{"establishmentid":"4357","name":"Nu Wave Fish & Chicken","address":"17630  Grand River Ave.","zipcode":"48227"},{"establishmentid":"2691","name":"Checkers","address":"17630 Grand River Ave.","zipcode":"48227"},{"establishmentid":"2100","name":"Popeye's #933","address":"17700 Grand River Ave.","zipcode":"48227"},{"establishmentid":"2413","name":"White Castle #58","address":"17739 Grand River Ave.","zipcode":"48227"},{"establishmentid":"1501","name":"Tubby's Sub Shop #75","address":"16543 Grand River Ave.","zipcode":"48227"}],"inspectionsByEstablishmentidList":[{"inspectionid":"62125","inspectionDate":"2023-04-12T00:00:00","inspectionType":"Routine Inspection","inCompliance":"Yes","violationsByInspectionidList":[]}]}],"maxInspectionDate":[{"inspectionDate":"2023-04-25T00:00:00"}]}},"pageContext":{"eid":"51623607"}},"staticQueryHashes":["3649515864","63159454"]}