{"componentChunkName":"component---src-templates-establishment-page-js","path":"/establishment/3028","result":{"data":{"site":{"pathPrefix":"/restaurant-inspections"},"postgres":{"establishment":[{"establishmentid":"3028","name":"Robinson Dairy Vending","address":"18901 Meyers","zipcode":"48235","owner":"Frank Caramagno","licenseNumber":"039547","licenseType":"Other","establishmentType":"LHD - Vending","establishmentStatus":"Open","riskCategory":null,"reviewFrequencyDays":null,"coords":"-83.17097,42.43012","geojson":{"id":"3028","type":"Feature","geometry":{"type":"Point","coordinates":[-83.170967815,42.430124573]},"properties":{"name":"Robinson Dairy Vending","owner":"Frank Caramagno","address":"18901 Meyers","zipcode":"48235","license_type":"Other","risk_category":null,"license_number":"039547","establishmentid":"3028","establishment_type":"LHD - Vending","establishment_status":"Open","review_frequency_days":null,"most_recent_license_date":null}},"nearbyList":[{"establishmentid":"2557","name":"Double Diamond Vending","address":"18901 Meyers","zipcode":"48235"},{"establishmentid":"4145","name":"CC's Grill","address":"12729 W. Seven Mile Rd.","zipcode":"48235"},{"establishmentid":"51623134","name":"BBQ Central","address":"12729 W 7 Mile Rd. ","zipcode":"48235"},{"establishmentid":"5403","name":"Detroit Shawarma/Spice Giant","address":"12729 Seven W.","zipcode":"48235"},{"establishmentid":"5147","name":"Front Page Deli","address":"12729 Seven Mile Rd. W.","zipcode":"48235"},{"establishmentid":"3624","name":"Ribb Tipp","address":"12729 Seven Mile Rd. W.","zipcode":"48235"},{"establishmentid":"723","name":"Motor City Soul Food","address":"12700 Seven Mile Rd. W.","zipcode":"48235"},{"establishmentid":"51623652","name":"Ooh Wee Coffee Cafe","address":"12803 Seven Mile W.","zipcode":"48235"},{"establishmentid":"51623192","name":"Motor City Soul Food","address":"12730 W. Seven Mile Rd.","zipcode":"48235"},{"establishmentid":"3368","name":"Captain D's Seafood #6161","address":"10711 Seven Mile Rd. W.","zipcode":"48221"}],"inspectionsByEstablishmentidList":[]}],"maxInspectionDate":[{"inspectionDate":"2023-04-13T00:00:00"}]}},"pageContext":{"eid":"3028"}},"staticQueryHashes":["3649515864","63159454"]}