{"componentChunkName":"component---src-templates-establishment-page-js","path":"/establishment/51623115","result":{"data":{"site":{"pathPrefix":"/restaurant-inspections"},"postgres":{"establishment":[{"establishmentid":"51623115","name":"Graham's (Oakland Co.)","address":"8223 Wyoming","zipcode":"48224","owner":"Antonio Graham","licenseNumber":"204735","licenseType":"Special Transitory Food Unit","establishmentType":"LHD - Special Transitory Food","establishmentStatus":"Open","riskCategory":null,"reviewFrequencyDays":null,"coords":"-83.15797,42.35451","geojson":{"id":"51623115","type":"Feature","geometry":{"type":"Point","coordinates":[-83.157974804,42.354511139]},"properties":{"name":"Graham's (Oakland Co.)","owner":"Antonio Graham","address":"8223 Wyoming","zipcode":"48224","license_type":"Special Transitory Food Unit","risk_category":null,"license_number":"204735","establishmentid":"51623115","establishment_type":"LHD - Special Transitory Food","establishment_status":"Open","review_frequency_days":null,"most_recent_license_date":null}},"nearbyList":[{"establishmentid":"2348","name":"Atomic Dog","address":"8900 Tireman","zipcode":"48204"},{"establishmentid":"51623121","name":"Holy Temple","address":"8590 Esper Blvd.","zipcode":"48204"},{"establishmentid":"635","name":"Deb's Place","address":"8748 Tireman","zipcode":"48204"},{"establishmentid":"807","name":"7 Brother's Daily Hot & Cold Food ","address":"10010 Joy Rd.","zipcode":"48204"},{"establishmentid":"4269","name":"Felicia's Texas Style Hot Dog","address":"8040 Wisconsin","zipcode":"48204"},{"establishmentid":"1002","name":"St. Brigid School Montessori","address":"8091 Ohio","zipcode":"48226"},{"establishmentid":"51623661","name":"Alaska Fish & Chicken","address":"8848 Wyoming","zipcode":"48204"},{"establishmentid":"4150","name":"Grace Bible Chapel","address":"5440 Oakman","zipcode":"48204"},{"establishmentid":"2439","name":"Indulgent Manor","address":"8505 Joy Rd.","zipcode":"48204"},{"establishmentid":"4887","name":"Clara's Place","address":"8505 Joy Rd","zipcode":"48204"}],"inspectionsByEstablishmentidList":[]}],"maxInspectionDate":[{"inspectionDate":"2022-08-31T00:00:00"}]}},"pageContext":{"eid":"51623115"}},"staticQueryHashes":["3649515864","63159454"]}