{"componentChunkName":"component---src-templates-establishment-page-js","path":"/establishment/2063","result":{"data":{"site":{"pathPrefix":"/restaurant-inspections"},"postgres":{"establishment":[{"establishmentid":"2063","name":"Fifth Avenue Downtown","address":"2100 Woodward","zipcode":"48201","owner":"Cloud 9 Entertainment Inc.","licenseNumber":"039852","licenseType":"Fixed Establishment","establishmentType":"Food Service Establishment","establishmentStatus":"Open","riskCategory":null,"reviewFrequencyDays":"335","coords":"-83.04890,42.33918","geojson":{"id":"2063","type":"Feature","geometry":{"type":"Point","coordinates":[-83.048898226,42.339179962]},"properties":{"name":"Fifth Avenue Downtown","owner":"Cloud 9 Entertainment Inc.","address":"2100 Woodward","zipcode":"48201","license_type":"Fixed Establishment","risk_category":null,"license_number":"039852","establishmentid":"2063","establishment_type":"Food Service Establishment","establishment_status":"Open","review_frequency_days":"335","most_recent_license_date":"2006-12-04"}},"nearbyList":[{"establishmentid":"4222","name":"Comerica Park- Michigan Craft Beer","address":"2100 Woodward Ave.","zipcode":"48201"},{"establishmentid":"4223","name":"Comerica Park- 300 Level Lounge","address":"2100 Woodward Ave.","zipcode":"48201"},{"establishmentid":"4220","name":"Comerica Park- Champions Club","address":"2100 Woodward Ave.","zipcode":"48201"},{"establishmentid":"4219","name":"Comerica Park- Tiger Club #300","address":"2100 Woodward Ave.","zipcode":"48201"},{"establishmentid":"4218","name":"Comerica Park- Kitchens Upper/Lower","address":"2100 Woodward Ave.","zipcode":"48201"},{"establishmentid":"4221","name":"Comerica Park- Press Box Lounge","address":"2100 Woodward Ave.","zipcode":"48201"},{"establishmentid":"4217","name":"Comerica Park- Tiger Den/Beer Hall","address":"2100 Woodward Ave.","zipcode":"48201"},{"establishmentid":"409","name":"Leo's Coney Island","address":"2100 Woodward Ave.","zipcode":"48201"},{"establishmentid":"2437","name":"Comerica Park","address":"2100 Woodward Ave.","zipcode":"48201"},{"establishmentid":"4224","name":"Comerica Park- Vending Commissaries","address":"2100 Woodward Ave.","zipcode":"48201"}],"inspectionsByEstablishmentidList":[]}],"maxInspectionDate":[{"inspectionDate":"2023-04-25T00:00:00"}]}},"pageContext":{"eid":"2063"}},"staticQueryHashes":["3649515864","63159454"]}