{"componentChunkName":"component---src-templates-establishment-page-js","path":"/establishment/745","result":{"data":{"site":{"pathPrefix":"/restaurant-inspections"},"postgres":{"establishment":[{"establishmentid":"745","name":"M & M Sports Bar","address":"13837 Conant","zipcode":"48212","owner":"Michael Smith","licenseNumber":"069224","licenseType":"Fixed Establishment","establishmentType":"Food Service Establishment","establishmentStatus":"Open","riskCategory":"Low","reviewFrequencyDays":"335","coords":"-83.06371,42.41828","geojson":{"id":"745","type":"Feature","geometry":{"type":"Point","coordinates":[-83.063707595,42.41828468]},"properties":{"name":"M & M Sports Bar","owner":"Michael Smith","address":"13837 Conant","zipcode":"48212","license_type":"Fixed Establishment","risk_category":"Low","license_number":"069224","establishmentid":"745","establishment_type":"Food Service Establishment","establishment_status":"Open","review_frequency_days":"335","most_recent_license_date":null}},"nearbyList":[{"establishmentid":"749","name":"Buddy's Rendezvous Pizza","address":"17125 Conant","zipcode":"48212"},{"establishmentid":"577","name":"Man Dees Lounge","address":"17132 Conant","zipcode":"48234"},{"establishmentid":"51623571","name":"Detroit Best Wings","address":"4128 McNichols E.","zipcode":"48212"},{"establishmentid":"1594","name":"ALBA'S CONEY ISLAND INC","address":"3639 DAVISON E.","zipcode":"48212"},{"establishmentid":"4502","name":"All Star Services","address":"3399 E. McNichols","zipcode":"48219"},{"establishmentid":"2206","name":"Owens Ventures","address":"17385 Ryan","zipcode":"48212"},{"establishmentid":"51622459","name":"Dearborn Dairy LLC","address":"17351 Conant","zipcode":"48212"},{"establishmentid":"51623776","name":"Coney Star","address":"13347 Conant","zipcode":"48212"},{"establishmentid":"1363","name":"Evans Recreation Center","address":"13950 Joseph Campau","zipcode":"48207"},{"establishmentid":"464","name":"JoAnn's Bar-B-Q","address":"3139 Jerome ","zipcode":"48212"}],"inspectionsByEstablishmentidList":[]}],"maxInspectionDate":[{"inspectionDate":"2023-04-13T00:00:00"}]}},"pageContext":{"eid":"745"}},"staticQueryHashes":["3649515864","63159454"]}