{"data":{"site":{"pathPrefix":"/restaurant-inspections"},"postgres":{"establishment":[{"establishmentid":"791","name":"Sha Max","address":"18050 Lahser Rd","zipcode":"48219","owner":"Shaffer Boyd","licenseNumber":"034812","licenseType":"Fixed Establishment","establishmentType":"Food Service Establishment","establishmentStatus":"Open","riskCategory":null,"reviewFrequencyDays":"365.0","coords":"-83.25772,42.42120","geojson":{"id":"791","type":"Feature","geometry":{"type":"Point","coordinates":[-83.25772399,42.4211953290001]},"properties":{"name":"Sha Max","owner":"Shaffer Boyd","address":"18050 Lahser Rd","zipcode":"48219","license_type":"Fixed Establishment","risk_category":null,"license_number":"034812","establishmentid":"791","establishment_type":"Food Service Establishment","establishment_status":"Open","review_frequency_days":"365.0","most_recent_license_date":"4/12/2019"}},"nearbyList":[{"establishmentid":"4490","name":"Old Redford Community Development  LLC","address":"17405 Lahser Rd","zipcode":"48219"},{"establishmentid":"3593","name":"Redford Theater","address":"17360 Lahser Rd","zipcode":"48219"},{"establishmentid":"51623061","name":"Motor City Java House","address":"17336 Lahser Rd","zipcode":null},{"establishmentid":"620","name":"Wendy's Restaurant #4","address":"22222 Grand River Ave","zipcode":"48219"},{"establishmentid":"4249","name":"Crazy Joe's Pizza","address":"22019 Grand River Ave","zipcode":"48219"},{"establishmentid":"5026","name":"Old Redford Kitchen & Cafe","address":"21733 W Grand River Ave","zipcode":"48219"},{"establishmentid":"1942","name":"Kentucky Fried Chicken F428120","address":"22345 Grand River Ave","zipcode":"48219"},{"establishmentid":"4882","name":"Nicky D's Coney Island","address":"22365 Grand River Ave","zipcode":"48219"},{"establishmentid":"2749","name":"Old Redford Academy Elementary School","address":"17195 Redford Ave","zipcode":"48219"},{"establishmentid":"2218","name":"JMC Inc VII dba McDonalds","address":"21640 Grand River Ave","zipcode":"48219"}],"inspectionsByEstablishmentidList":[{"inspectionid":"48850","inspectionDate":"2019-08-21T00:00:00","inspectionType":"Routine Inspection","inCompliance":"Yes","violationsByInspectionidList":[]},{"inspectionid":"36736","inspectionDate":"2016-10-11T00:00:00","inspectionType":"Routine Inspection","inCompliance":"Yes","violationsByInspectionidList":[]}]}],"maxInspectionDate":[{"inspectionDate":"2019-10-31T00:00:00"}]}},"pageContext":{"eid":"791"}}