{"data":{"postgres":{"establishment":[{"establishmentid":"4416","name":"Detroit Innovation Academy","address":"18211 Plymouth Road","zipcode":"48228","owner":"Detroit Innovation Academy","licenseNumber":"072945","licenseType":"Fixed Establishment","establishmentType":"Charter School","establishmentStatus":"Open","riskCategory":"Medium","reviewFrequencyDays":"210.0","coords":"-83.21884,42.37185","geojson":{"id":"4416","type":"Feature","geometry":{"type":"Point","coordinates":[-83.21883557,42.371850319]},"properties":{"name":"Detroit Innovation Academy","owner":"Detroit Innovation Academy","address":"18211 Plymouth Road","zipcode":"48228","license_type":"Fixed Establishment","risk_category":"Medium","license_number":"072945","establishmentid":"4416","establishment_type":"Charter School","establishment_status":"Open","review_frequency_days":"210.0","most_recent_license_date":null}},"nearbyList":[{"establishmentid":"4986","name":"Sterling's Old Style BBQ","address":"18241 Plymouth Rd","zipcode":"48228"},{"establishmentid":"51622735","name":"The Custard Hut","address":"18435 Plymouth Rd","zipcode":"48228"},{"establishmentid":"455","name":"Starters Lounge","address":"18426 Plymouth Rd","zipcode":"48228"},{"establishmentid":"5307","name":"Black Orchid","address":"17040 Plymouth Rd","zipcode":"48227"},{"establishmentid":"4981","name":"Market Fresh Deli","address":"18200 W Chicago","zipcode":"48228"},{"establishmentid":"51622623","name":"Chicago Fish & Chicken","address":"16900 Plymouth","zipcode":"48227"},{"establishmentid":"5357","name":"A 1 Fish & Chicken LLC","address":"16900 Plymouth","zipcode":"48212"},{"establishmentid":"2797","name":"Little Caesar's Pizza ","address":"18310 W Chicago Rd","zipcode":"48228"},{"establishmentid":"3149","name":"Time Out Sports Bar & Grill","address":"16801 Plymouth Rd","zipcode":"48227"},{"establishmentid":"1522","name":"Fiberglass Estate Corp. ","address":"16515 Plymouth Rd","zipcode":"48227"},{"establishmentid":"893","name":"Cody Senior High School","address":"18445 Cathedral St","zipcode":"48228"},{"establishmentid":"2579","name":"Subway #29018","address":"18334 Joy Rd","zipcode":"48228"},{"establishmentid":"1127","name":"Dossin Elementary","address":"16650 Glendale","zipcode":"48227"},{"establishmentid":"4816","name":"WAY Academy West Campus","address":"19321 Chicago W","zipcode":"48228"},{"establishmentid":"1729","name":"McDonald's #17266","address":"18137 Joy Rd","zipcode":"48228"},{"establishmentid":"3708","name":"Freeze Shop","address":"13590 Glastonbury","zipcode":"48223"},{"establishmentid":"2471","name":"Ply Produce and Deli","address":"19615 Plymouth Rd","zipcode":"48228"},{"establishmentid":"4288","name":"Yusef's Place 2","address":"18516 Schoolcraft","zipcode":"48223"},{"establishmentid":"5025","name":"New Bentley Lounge","address":"19631 Plymouth Rd","zipcode":"48228"},{"establishmentid":"1241","name":"Mann Elementary School","address":"19625 Elmira","zipcode":"48228"}],"inspectionsByEstablishmentidList":[{"inspectionid":"43639","inspectionDate":"2018-10-03T00:00:00","inspectionType":"Routine Inspection","inCompliance":"No","violationsByInspectionidList":[{"violationCode":"4-302.14","violationDescription":"A test kit or other device that accurately measures the concentration in mg/L of SANITIZING solutions shall be provided. (Pf)\r\n","violationType":"Foundation","itemDescription":"Sanitizer test kit","subItem":"","problemDescription":"Not provided","subProblem":"","location":"DISHWASHING AREA","subLocation":"","corrected":"No","daysToCorrect":"10.0","correctedDate":null,"correctionDescription":"Provide."}]},{"inspectionid":"42062","inspectionDate":"2018-04-25T00:00:00","inspectionType":"Routine Inspection","inCompliance":"Yes","violationsByInspectionidList":[]},{"inspectionid":"40032","inspectionDate":"2017-09-20T00:00:00","inspectionType":"Routine Inspection","inCompliance":"Yes","violationsByInspectionidList":[]},{"inspectionid":"38687","inspectionDate":"2017-04-27T00:00:00","inspectionType":"Routine Inspection","inCompliance":"Yes","violationsByInspectionidList":[]},{"inspectionid":"36539","inspectionDate":"2016-09-21T00:00:00","inspectionType":"Routine Inspection","inCompliance":"Yes","violationsByInspectionidList":[]}]}]}},"pageContext":{"eid":"4416"}}