{"componentChunkName":"component---src-templates-establishment-page-js","path":"/establishment/3414","result":{"data":{"site":{"pathPrefix":"/restaurant-inspections"},"postgres":{"establishment":[{"establishmentid":"3414","name":"Al-Andaleeb Restaurant","address":"8020 Vernor W.","zipcode":"48210","owner":"Shar Al-gahdari","licenseNumber":"054783","licenseType":"Fixed Establishment","establishmentType":"Food Service Establishment","establishmentStatus":"Permanently Closed","riskCategory":null,"reviewFrequencyDays":"180","coords":"-83.12771,42.31143","geojson":{"id":"3414","type":"Feature","geometry":{"type":"Point","coordinates":[-83.127706497,42.311430619]},"properties":{"name":"Al-Andaleeb Restaurant","owner":"Shar Al-gahdari","address":"8020 Vernor W.","zipcode":"48210","license_type":"Fixed Establishment","risk_category":null,"license_number":"054783","establishmentid":"3414","establishment_type":"Food Service Establishment","establishment_status":"Permanently Closed","review_frequency_days":"180","most_recent_license_date":null}},"nearbyList":[{"establishmentid":"1730","name":"Great Panda Garden Chinese Restaurant","address":"7930 Vernor St. W.","zipcode":"48209"},{"establishmentid":"565","name":"La Mexicana Restaruant","address":"7928 Vernor W.","zipcode":"48209"},{"establishmentid":"4141","name":"Latino's Cafe","address":"8065 W.Vernor","zipcode":"48209"},{"establishmentid":"51622935","name":"Cenaduria Y Taqueria Triangulo Dorado","address":"8065 W. Vernor","zipcode":"48209"},{"establishmentid":"2294","name":"Spring at Vernor Coney Island","address":"7900 Vernor St. W.","zipcode":"48209"},{"establishmentid":"4471","name":"Dave's Famous Coney Island & Grill","address":"7900 Vernor, W.","zipcode":"48209"},{"establishmentid":"1225","name":"Pizza Di Casa","address":"2134 Springwells Ave.","zipcode":"48209"},{"establishmentid":"51622723","name":"Vitamin Juice ","address":"2030 Springwells","zipcode":"48209"},{"establishmentid":"51623737","name":"Coronados Southwest Tacos LLC","address":"7774 Whittaker","zipcode":"48209"},{"establishmentid":"768","name":"Family Treat","address":"2010 Springwells Ave.","zipcode":"48209"}],"inspectionsByEstablishmentidList":[]}],"maxInspectionDate":[{"inspectionDate":"2022-07-25T00:00:00"}]}},"pageContext":{"eid":"3414"}},"staticQueryHashes":["3649515864","63159454"]}