{"data":{"site":{"pathPrefix":"/restaurant-inspections"},"postgres":{"establishment":[{"establishmentid":"3940","name":"Mackavelli Deli Dog","address":"14595 Harbor Island","zipcode":"48215","owner":"Loronzo G. Jones/Budget Wise L","licenseNumber":null,"licenseType":"Mobile Food Establishment","establishmentType":"LHD - Mobile Food Establishmen","establishmentStatus":"Open","riskCategory":null,"reviewFrequencyDays":"395.0","coords":"-82.93231,42.36135","geojson":{"id":"3940","type":"Feature","geometry":{"type":"Point","coordinates":[-82.932313193,42.361351518]},"properties":{"name":"Mackavelli Deli Dog","owner":"Loronzo G. Jones/Budget Wise L","address":"14595 Harbor Island","zipcode":"48215","license_type":"Mobile Food Establishment","risk_category":null,"license_number":null,"establishmentid":"3940","establishment_type":"LHD - Mobile Food Establishmen","establishment_status":"Open","review_frequency_days":"395.0","most_recent_license_date":null}},"nearbyList":[{"establishmentid":"4537","name":"Govinda's at the Fisher Mansion","address":"383 Lenox Ave","zipcode":"48215"},{"establishmentid":"282","name":"Marshalls Bar","address":"14716 E Jefferson Ave","zipcode":"48215"},{"establishmentid":"5406","name":"Norma G's Detroit","address":"14628 E Jefferson Ave","zipcode":"48215"},{"establishmentid":"1030","name":"Carstens at Remus Robinson School","address":"13000 Essex St","zipcode":"48215"},{"establishmentid":"2317","name":"Detroit Merit Academy","address":"1091 Alter Rd","zipcode":"48215"},{"establishmentid":"1711","name":"Dynasty Chinese","address":"13340 E Jefferson Ave","zipcode":"48215"},{"establishmentid":"5148","name":"Detroits Finest Coney Island","address":"13337 E Jefferson Ave. ","zipcode":"48215"},{"establishmentid":"1961","name":"Subway 12011","address":"13222 E Jefferson Ave","zipcode":"48215"},{"establishmentid":"4927","name":"Davis Aerospace Tech High @ Golightly Te","address":"900 Dickerson Ave","zipcode":"48215"},{"establishmentid":"1388","name":"Golightly  Career Tech","address":"900 Dickerson Ave","zipcode":"48215"}],"inspectionsByEstablishmentidList":[{"inspectionid":"39255","inspectionDate":"2017-07-18T00:00:00","inspectionType":"Mobile Inspection","inCompliance":"Yes","violationsByInspectionidList":[{"violationCode":"MFL289.6135","violationDescription":"Sec. 6135. (1) The name and address of the business operating a mobile food establishment shall be affixed to each side of the exterior of the vehicle in letters not less than 3 inches high and 3/8 of an inch wide and shall be in contrast to the vehicle background color. When more than 1 mobile food service establishment is operated by the same person, the director shall assign a number to each establishment.  (2) A copy of limitations attached to the license of a mobile food service establishment shall be carried on the mobile food service establishment at all times.  (3) If a mobile food establishment is operating on a regularly scheduled route, the director may require the license holder to provide a copy of the route schedule when the license is approved and every time the route schedule is changed.  (4) The director or the operator in the presence of the director shall affix 2 decals provided by the department on the mobile food establishment when the license is issued. The decals shall be conspicuously displayed on each side of the mobile food establishment so as to be visible when in transit and while serving the public.","violationType":"Core","itemDescription":null,"subItem":"","problemDescription":null,"subProblem":"","location":"MOBILE UNIT","subLocation":"On the side of Mobile Unit","corrected":"Not required","daysToCorrect":"30.0","correctedDate":null,"correctionDescription":"Provide"}]}]}],"maxInspectionDate":[{"inspectionDate":"2019-04-30T00:00:00"}]}},"pageContext":{"eid":"3940"}}