{"componentChunkName":"component---src-templates-establishment-page-js","path":"/establishment/2457","result":{"data":{"site":{"pathPrefix":"/restaurant-inspections"},"postgres":{"establishment":[{"establishmentid":"2457","name":"Pizza Hut #26322","address":"18435 Plymouth Rd.","zipcode":"48228","owner":"Redberry Resto Brands IntlInc.","licenseNumber":"064574","licenseType":"Fixed Establishment","establishmentType":"Food Service Establishment","establishmentStatus":"Permanently Closed","riskCategory":"High","reviewFrequencyDays":"150","coords":"-83.22123,42.37186","geojson":{"id":"2457","type":"Feature","geometry":{"type":"Point","coordinates":[-83.221225232,42.371860449]},"properties":{"name":"Pizza Hut #26322","owner":"Redberry Resto Brands IntlInc.","address":"18435 Plymouth Rd.","zipcode":"48228","license_type":"Fixed Establishment","risk_category":"High","license_number":"064574","establishmentid":"2457","establishment_type":"Food Service Establishment","establishment_status":"Permanently Closed","review_frequency_days":"150","most_recent_license_date":"2014-05-07"}},"nearbyList":[{"establishmentid":"51622735","name":"The Custard Hut","address":"18435 Plymouth","zipcode":"48228"},{"establishmentid":"455","name":"Starters Lounge","address":"18426 Plymouth Rd.","zipcode":"48228"},{"establishmentid":"1898","name":"Silver Plate Coney Island","address":"18400 Plymouth Rd.","zipcode":"48228"},{"establishmentid":"1931","name":"Tao's New China","address":"18345 Plymouth Rd.","zipcode":"48228"},{"establishmentid":"640","name":"Little Champs Restaurant","address":"18338 Plymouth Rd.","zipcode":"48228"},{"establishmentid":"4416","name":"Detroit Innovation Academy","address":"18211 Plymouth Rd.","zipcode":"48228"},{"establishmentid":"51623585","name":"Red Tent BBQ and Rhythm","address":"9929 Brace St.","zipcode":"48228"},{"establishmentid":"2525","name":"Koolies","address":"11450 Warwick","zipcode":"48228"},{"establishmentid":"2797","name":"Little Caesar's Pizza ","address":"18310 Chicago W.","zipcode":"48228"},{"establishmentid":"51623479","name":"Sterlings BBQ LLC","address":"11310 Warwick","zipcode":"48228"}],"inspectionsByEstablishmentidList":[]}],"maxInspectionDate":[{"inspectionDate":"2023-04-25T00:00:00"}]}},"pageContext":{"eid":"2457"}},"staticQueryHashes":["3649515864","63159454"]}