{"componentChunkName":"component---src-templates-establishment-page-js","path":"/establishment/347","result":{"data":{"site":{"pathPrefix":"/restaurant-inspections"},"postgres":{"establishment":[{"establishmentid":"347","name":"Apex Lounge","address":"7649 Oakland Ave.","zipcode":"48211","owner":"Marvelous Veleria Persell","licenseNumber":"034056","licenseType":"Fixed Establishment","establishmentType":"Food Service Establishment","establishmentStatus":"Permanently Closed","riskCategory":"Medium","reviewFrequencyDays":"335","coords":"-83.06636,42.37624","geojson":{"id":"347","type":"Feature","geometry":{"type":"Point","coordinates":[-83.066361596,42.376244245]},"properties":{"name":"Apex Lounge","owner":"Marvelous Veleria Persell","address":"7649 Oakland Ave.","zipcode":"48211","license_type":"Fixed Establishment","risk_category":"Medium","license_number":"034056","establishmentid":"347","establishment_type":"Food Service Establishment","establishment_status":"Permanently Closed","review_frequency_days":"335","most_recent_license_date":"4/25/2014"}},"nearbyList":[{"establishmentid":"51622869","name":"Dichotomy Coffee","address":"605 Bethune E.","zipcode":"48202"},{"establishmentid":"3256","name":"Clay Super Coney Island","address":"1050-1052 Clay","zipcode":"48211"},{"establishmentid":"2398","name":"B Georges Coney Island","address":"2898 Grand Blvd. W.","zipcode":"48202"},{"establishmentid":"51622938","name":"WSM Group LLC","address":"1140 Clay","zipcode":"48212"},{"establishmentid":"51622948","name":"Krispy Chicken/WSM Group LLC","address":"1140 Clay St.","zipcode":"48211"},{"establishmentid":"785","name":"Parks Old Style Bar-B-Q ","address":"7444 Beaubien St.","zipcode":"48202"},{"establishmentid":"2313","name":"Mariga's","address":"2894-96 Grand Blvd. W.","zipcode":"48202"},{"establishmentid":"1871","name":"Clay Super Coney Island","address":"1141 Clay St.","zipcode":"48211"},{"establishmentid":"4723","name":"Shawarma King","address":"2920 Grand Blvd.","zipcode":"48202"},{"establishmentid":"51622992","name":"The Gathering Coffee Co","address":"2831 E. Grand Blvd.","zipcode":"48211"}],"inspectionsByEstablishmentidList":[]}],"maxInspectionDate":[{"inspectionDate":"2022-08-31T00:00:00"}]}},"pageContext":{"eid":"347"}},"staticQueryHashes":["3649515864","63159454"]}