{"componentChunkName":"component---src-templates-establishment-page-js","path":"/establishment/4113","result":{"data":{"site":{"pathPrefix":"/restaurant-inspections"},"postgres":{"establishment":[{"establishmentid":"4113","name":"427 Eatery","address":"15427 Schoolcraft Rd.","zipcode":"48227","owner":"Lisa Hightower","licenseNumber":"KP15427","licenseType":"Fixed Establishment","establishmentType":"Food Service Establishment","establishmentStatus":"Open","riskCategory":null,"reviewFrequencyDays":"335","coords":"-83.19737,42.38692","geojson":{"id":"4113","type":"Feature","geometry":{"type":"Point","coordinates":[-83.197374035,42.386921503]},"properties":{"name":"427 Eatery","owner":"Lisa Hightower","address":"15427 Schoolcraft Rd.","zipcode":"48227","license_type":"Fixed Establishment","risk_category":null,"license_number":"KP15427","establishmentid":"4113","establishment_type":"Food Service Establishment","establishment_status":"Open","review_frequency_days":"335","most_recent_license_date":null}},"nearbyList":[{"establishmentid":"687","name":"313 Bar & Lounge","address":"15418 Schoolcraft Rd.","zipcode":"48227"},{"establishmentid":"51622910","name":"Lola Mae's Bistro Bar","address":"15418 Schoolcraft","zipcode":"48227"},{"establishmentid":"1988","name":"Greenfield Deli","address":"13573 Greenfield","zipcode":"48227"},{"establishmentid":"5228","name":"All Star Fish & Seafood Inc.","address":"13585 Greenfield","zipcode":"48227"},{"establishmentid":"51622464","name":"Burger Grille LLC","address":"15539 Schoolcraft","zipcode":"48227"},{"establishmentid":"4801","name":"Hot Toppings","address":"15539 Schoolcraft","zipcode":"48227"},{"establishmentid":"4278","name":"Ninety- Nine Cents Soul Food","address":"15539  Schoolcraft","zipcode":"48227"},{"establishmentid":"4419","name":"House of Soul Food","address":"15539 Schoolcraft","zipcode":"48227"},{"establishmentid":"2397","name":"French Quarter","address":"15539 Schoolcraft","zipcode":"48227"},{"establishmentid":"4174","name":"AC's Hot Dog Express #2","address":"13501  Greenfield St.","zipcode":"48227"}],"inspectionsByEstablishmentidList":[]}],"maxInspectionDate":[{"inspectionDate":"2022-08-31T00:00:00"}]}},"pageContext":{"eid":"4113"}},"staticQueryHashes":["3649515864","63159454"]}