{"data":{"postgres":{"establishment":[{"establishmentid":"5205","name":"Coriander","address":"1464 Gratiot Ave","zipcode":"48207","owner":"Alison Heeres","licenseNumber":"202861","licenseType":"Fixed Establishment","establishmentType":"Food Service Establishment","establishmentStatus":null,"riskCategory":null,"reviewFrequencyDays":"365.0","coords":"-83.03764,42.34434","geojson":{"id":"5205","type":"Feature","geometry":{"type":"Point","coordinates":[-83.037643477,42.344336314]},"properties":{"name":"Coriander","owner":"Alison Heeres","address":"1464 Gratiot Ave","zipcode":"48207","license_type":"Fixed Establishment","risk_category":null,"license_number":"202861","establishmentid":"5205","establishment_type":"Food Service Establishment","establishment_status":null,"review_frequency_days":"365.0","most_recent_license_date":"5/7/2018"}},"nearbyList":[{"establishmentid":"5397","name":"Gather Detroit LLC","address":"1454 Gratiot Ave","zipcode":"48207"},{"establishmentid":"4461","name":"Antietam","address":"1428 Gratiot Ave","zipcode":"48207"},{"establishmentid":"51622859","name":"LeCulture Cafe","address":"1428 Gratiot","zipcode":"48207"},{"establishmentid":"501","name":"Vivio's Market Center Club","address":"2460 Market St","zipcode":"48207"},{"establishmentid":"4964","name":"Detroit City Distillery","address":"2462 Riopelle St","zipcode":"48207"},{"establishmentid":"1662","name":"Supino Pizzeria","address":"2457 Russell St","zipcode":"48207"},{"establishmentid":"3895","name":"Butcher's Inn","address":"1489 Winder Ave","zipcode":"48207"},{"establishmentid":"4180","name":"Mootown Ice Cream Shoppe","address":"2461 Russell St","zipcode":"48207"},{"establishmentid":"1384","name":"Russell Street Deli","address":"2465 Russell St","zipcode":"48207"},{"establishmentid":"647","name":"Zeff's Coney Island","address":"2469 Russell St","zipcode":"48207"},{"establishmentid":"51622482","name":"Eastern Market Brewing Co.","address":"2515 Riopelle St","zipcode":"48207"},{"establishmentid":"5159","name":"La Rondinella","address":"2453 Russell St","zipcode":"48207"},{"establishmentid":"485","name":"Farmer's Restaurant","address":"2542 Market St","zipcode":"48207"},{"establishmentid":"5212","name":"Beyond Juicery & Eatery","address":"2501 Russell St","zipcode":"48207"},{"establishmentid":"1178","name":"Cutters Bar And Grill","address":"2638 Orleans","zipcode":"48207"},{"establishmentid":"1565","name":"Brewery Park Deli","address":"1155 Brewery Park","zipcode":"48207"},{"establishmentid":"462","name":"Mike's Coney Island Inc.","address":"2719 Russell St","zipcode":"48207"},{"establishmentid":"4796","name":"Horatio Williams Foundation","address":"1010 Antietam","zipcode":"48207"},{"establishmentid":"4634","name":"Bert's Market Place--Motown Bar","address":"2735 Russell St","zipcode":"48207"},{"establishmentid":"51622488","name":"Louisiana Creole Gumbo/Mobile #1","address":"2051 Gratiot","zipcode":"48207"}],"inspectionsByEstablishmentidList":[{"inspectionid":"42963","inspectionDate":"2018-07-23T00:00:00","inspectionType":"Routine Inspection","inCompliance":"Yes","violationsByInspectionidList":[]},{"inspectionid":"38275","inspectionDate":"2017-03-17T00:00:00","inspectionType":"Routine Inspection","inCompliance":"Yes","violationsByInspectionidList":[]}]}]}},"pageContext":{"eid":"5205"}}