{"data":{"postgres":{"establishment":[{"establishmentid":"4241","name":"Tacos El Toro #3","address":"8191 Chamberlain St","zipcode":"48209","owner":"Filiberto Magana","licenseNumber":"221984","licenseType":"Mobile Food Establishment","establishmentType":"LHD - Mobile Food Establishmen","establishmentStatus":"Open","riskCategory":null,"reviewFrequencyDays":"395.0","coords":"-83.12461,42.30228","geojson":{"id":"4241","type":"Feature","geometry":{"type":"Point","coordinates":[-83.124608618,42.30228498]},"properties":{"name":"Tacos El Toro #3","owner":"Filiberto Magana","address":"8191 Chamberlain St","zipcode":"48209","license_type":"Mobile Food Establishment","risk_category":null,"license_number":"221984","establishmentid":"4241","establishment_type":"LHD - Mobile Food Establishmen","establishment_status":"Open","review_frequency_days":"395.0","most_recent_license_date":"4/12/2018"}},"nearbyList":[{"establishmentid":"3812","name":"Tacos El Caballo","address":"8084 Rathbone St","zipcode":"48209"},{"establishmentid":"370","name":"Los Compadres","address":"1132 Lawndale St","zipcode":"48209"},{"establishmentid":"51622764","name":"Tres Leches 'n Snacks","address":"1210 Lawndale Detroit MI 48209","zipcode":"48209"},{"establishmentid":"4234","name":"Mangonadas Del Barrio","address":"1210-14 Lawndale St","zipcode":"48209"},{"establishmentid":"1353","name":"Vince's Italian Rest & Pizzeria","address":"1341 Springwells Ave","zipcode":"48209"},{"establishmentid":"2224","name":"El Asador","address":"1312 Springwells Ave","zipcode":"48209"},{"establishmentid":"413","name":"Charlie's Bar","address":"1503 Springwells Ave","zipcode":"48209"},{"establishmentid":"1184","name":"McDonald's #5251","address":"1101 Springwells Ave","zipcode":"48209"},{"establishmentid":"51622563","name":"La Pasada","address":"1601 Springwells St","zipcode":"48209"},{"establishmentid":"469","name":"Puerto Rican Club","address":"8050 Fort St W","zipcode":"48209"},{"establishmentid":"4960","name":"El Parian Commissary","address":"1633 Lawndale St","zipcode":"48209"},{"establishmentid":"5028","name":"Marisqueria El Emperio","address":"1633 Lawndale St","zipcode":"48209"},{"establishmentid":"4050","name":"My Spot","address":"1801 Springwells","zipcode":"48209"},{"establishmentid":"3926","name":"Taqueria Camino Real","address":"1100 Central","zipcode":"48209"},{"establishmentid":"3800","name":"All Saints Soup Kitchen","address":"7824 Fort St W","zipcode":"48209"},{"establishmentid":"51622803","name":"La Posada","address":"1930 Springwells St","zipcode":"48209"},{"establishmentid":"768","name":"Family Treat","address":"2010 Springwells Ave","zipcode":"48209"},{"establishmentid":"926","name":"Bennett Elementary","address":"2111 Mullane St","zipcode":"48209"},{"establishmentid":"3140","name":"West Fort Street Bar & Grill","address":"7642 Fort St W","zipcode":"48209"},{"establishmentid":"1606","name":"Prelja's Ham Palace","address":"9405 Fort St W","zipcode":"48209"}],"inspectionsByEstablishmentidList":[]}]}},"pageContext":{"eid":"4241"}}