{"data":{"site":{"pathPrefix":"/restaurant-inspections"},"postgres":{"establishment":[{"establishmentid":"4402","name":"Bridge Academy West","address":"3105 Carpenter St","zipcode":"48212","owner":"Mohammed Marwan Issa","licenseNumber":"078654","licenseType":"Fixed Establishment","establishmentType":"Non-Public School","establishmentStatus":"Open","riskCategory":null,"reviewFrequencyDays":"210.0","coords":"-83.06179,42.40748","geojson":{"id":"4402","type":"Feature","geometry":{"type":"Point","coordinates":[-83.0617926739999,42.407475118]},"properties":{"name":"Bridge Academy West","owner":"Mohammed Marwan Issa","address":"3105 Carpenter St","zipcode":"48212","license_type":"Fixed Establishment","risk_category":null,"license_number":"078654","establishmentid":"4402","establishment_type":"Non-Public School","establishment_status":"Open","review_frequency_days":"210.0","most_recent_license_date":"4/26/2016"}},"nearbyList":[{"establishmentid":"4115","name":"Al Baraka Restaurant","address":"3611 Carpenter St","zipcode":"48212"},{"establishmentid":"51622666","name":"New Al Baraka Restaurant LLC","address":"3611 Carpenter St Ste 1","zipcode":"48212"},{"establishmentid":"3373","name":"Reshmi Sweets & Cafe","address":"12170 Conant Ave","zipcode":"48212"},{"establishmentid":"4949","name":"Frontier International Academy","address":"13200 Conant St","zipcode":"48212"},{"establishmentid":"5421","name":"Ali's Pizza","address":"11608 Conant St","zipcode":"48212"},{"establishmentid":"914","name":"Davison Elementary Annex","address":"13210 Maine St","zipcode":"48238"},{"establishmentid":"913","name":"Davison Elementary","address":"2800 E Davison Ave","zipcode":"48212"},{"establishmentid":"4016","name":"Mr. Soft Serve","address":"11613 Lumpkin Street","zipcode":"48212"},{"establishmentid":"5312","name":"Wonka Soft Serve","address":"11609 Lumpkin St","zipcode":"48212"},{"establishmentid":"5314","name":"Radda Soft","address":"11516 Saint Aubin St","zipcode":"48212"},{"establishmentid":"51622757","name":"Supa Flavor ","address":"11514 St Aubin St","zipcode":"48212"},{"establishmentid":"581","name":"Commonwealth Community Development","address":"13477 Eureka","zipcode":"48238"},{"establishmentid":"749","name":"Buddy's Rendezvous Pizza","address":"17125 Conant","zipcode":"48212"},{"establishmentid":"577","name":"Man Dees Lounge","address":"17132 Conant","zipcode":"48234"},{"establishmentid":"1345","name":"The Ham Palace","address":"4700 E Davison Ave","zipcode":"48212"},{"establishmentid":"917","name":"White Academy ","address":"5161 Charles St","zipcode":"48207"},{"establishmentid":"5390","name":"Premier Ice Cream","address":"2217 Evaline St","zipcode":"48212"},{"establishmentid":"4047","name":"Omar's Soft Serve","address":"3833 Evaline","zipcode":"48212"},{"establishmentid":"4809","name":"Moe's Ice Cream","address":"3833 Evaline","zipcode":"48212"},{"establishmentid":"4453","name":"Beignet's, LLC","address":"2424 Florian St","zipcode":"48212"}],"inspectionsByEstablishmentidList":[{"inspectionid":"44122","inspectionDate":"2018-11-13T00:00:00","inspectionType":"Routine Inspection","inCompliance":"Yes","violationsByInspectionidList":[]},{"inspectionid":"42185","inspectionDate":"2018-05-09T00:00:00","inspectionType":"Routine Inspection","inCompliance":"Yes","violationsByInspectionidList":[]},{"inspectionid":"39876","inspectionDate":"2017-09-07T00:00:00","inspectionType":"Routine Inspection","inCompliance":"Yes","violationsByInspectionidList":[{"violationCode":"3-307.11","violationDescription":"FOOD shall be protected from contamination that may result from a factor or source not specified under Subparts 3-301 - 3-306.\r\n","violationType":"Core","itemDescription":"Food","subItem":"","problemDescription":"Not protected","subProblem":"","location":"HANDSINK(S)","subLocation":"","corrected":"Not required","daysToCorrect":"30.0","correctedDate":null,"correctionDescription":"Store in protected manner."}]},{"inspectionid":"37120","inspectionDate":"2016-11-16T00:00:00","inspectionType":"Routine Inspection","inCompliance":"Yes","violationsByInspectionidList":[]}]}]}},"pageContext":{"eid":"4402"}}