{"data":{"site":{"pathPrefix":"/restaurant-inspections"},"postgres":{"establishment":[{"establishmentid":"51622948","name":"WSM Group LLC- Krispy Chicken","address":"1140 Clay","zipcode":"48211","owner":"Wadhah Mogammal","licenseNumber":"PR19034A","licenseType":"Fixed Establishment","establishmentType":"Food Service Establishment","establishmentStatus":"Open","riskCategory":"High","reviewFrequencyDays":"180.0","coords":"-83.06389,42.37784","geojson":{"id":"51622948","type":"Feature","geometry":{"type":"Point","coordinates":[-83.0638930109999,42.377840157]},"properties":{"name":"WSM Group LLC- Krispy Chicken","owner":"Wadhah Mogammal","address":"1140 Clay","zipcode":"48211","license_type":"Fixed Establishment","risk_category":"High","license_number":"PR19034A","establishmentid":"51622948","establishment_type":"Food Service Establishment","establishment_status":"Open","review_frequency_days":"180.0","most_recent_license_date":"3/11/2019"}},"nearbyList":[{"establishmentid":"1871","name":"Clay Super Coney Island","address":"1141 Clay St","zipcode":"48211"},{"establishmentid":"4411","name":"Triumph Church","address":"2760 E Grand Blvd","zipcode":"48211"},{"establishmentid":"2404","name":"The Schvitz ","address":"8295 Oakland Ave","zipcode":"48211"},{"establishmentid":"4173","name":"Hastings Street Ballroom & DBA Tangent G","address":"715 E Milwaukee Ave","zipcode":"48202"},{"establishmentid":"5346","name":"Clay Street Entertainment","address":"1680 Clay St","zipcode":"48211"},{"establishmentid":"785","name":"Parks Old Style Bar-B-Q ","address":"7444 Beaubien St","zipcode":"48202"},{"establishmentid":"51622696","name":"Kiesling","address":"449 E Milwaukee Ave","zipcode":"48202"},{"establishmentid":"696","name":"Grandy's Coney Island","address":"1200 Holbrook Rd","zipcode":"48211"},{"establishmentid":"5204","name":"Miss Virginia's Ice Cream Parlor","address":"8801 Oakland Ave","zipcode":"48211"},{"establishmentid":"3608","name":"Firewater Bar & Grill II","address":"107 E Milwaukee Ave.  ","zipcode":"48202"}],"inspectionsByEstablishmentidList":[{"inspectionid":"47726","inspectionDate":"2019-05-09T00:00:00","inspectionType":"Plan Review/Pre-Open","inCompliance":"Yes","violationsByInspectionidList":[]}]}],"maxInspectionDate":[{"inspectionDate":"2019-05-31T00:00:00"}]}},"pageContext":{"eid":"51622948"}}