{"componentChunkName":"component---src-templates-establishment-page-js","path":"/establishment/51624046","result":{"data":{"site":{"pathPrefix":"/restaurant-inspections"},"postgres":{"establishment":[{"establishmentid":"51624046","name":"Beirock Wraps","address":"4658 Lumley St.","zipcode":"48210","owner":"Bierock Taco Truck #2","licenseNumber":"PS042023","licenseType":"Special Transitory Food Unit","establishmentType":"LHD - Special Transitory Food","establishmentStatus":"Open","riskCategory":null,"reviewFrequencyDays":null,"coords":"-83.13920,42.32887","geojson":{"id":"51624046","type":"Feature","geometry":{"type":"Point","coordinates":[-83.139204236,42.328873643]},"properties":{"name":"Beirock Wraps","owner":"Bierock Taco Truck #2","address":"4658 Lumley St.","zipcode":"48210","license_type":"Special Transitory Food Unit","risk_category":null,"license_number":"PS042023","establishmentid":"51624046","establishment_type":"LHD - Special Transitory Food","establishment_status":"Open","review_frequency_days":null,"most_recent_license_date":null}},"nearbyList":[{"establishmentid":"51624048","name":"Beirock Truck #1 ","address":"4658 Lumley","zipcode":"48210"},{"establishmentid":"51623956","name":"Sabor","address":"4540 Ternes St.","zipcode":"48210"},{"establishmentid":"1283","name":"Papa's Pizza & Subs","address":"7801 Michigan Ave.","zipcode":"48210"},{"establishmentid":"51623918","name":"Zizo's Pizza & Subs","address":"7801 Michigan Ave","zipcode":"48210"},{"establishmentid":"3198","name":"Angel's Place","address":"7824 Michigan Ave.","zipcode":"48210"},{"establishmentid":"1132","name":"Cas Bar","address":"7800 Michigan Ave.","zipcode":"48210"},{"establishmentid":"51623428","name":"Greek Grill","address":"7931 Michigan","zipcode":"48210"},{"establishmentid":"51622970","name":"MAA Gas and More","address":"7931 Michigan","zipcode":"48210"},{"establishmentid":"51623813","name":"Alaska Express","address":"7931 Michigan Ave.","zipcode":"48210"},{"establishmentid":"2285","name":"Little Caesar's Pizza","address":"7633 Michigan Ave.","zipcode":"48210"}],"inspectionsByEstablishmentidList":[]}],"maxInspectionDate":[{"inspectionDate":"2023-04-25T00:00:00"}]}},"pageContext":{"eid":"51624046"}},"staticQueryHashes":["3649515864","63159454"]}