{"data":{"site":{"pathPrefix":"/restaurant-inspections"},"postgres":{"establishment":[{"establishmentid":"550","name":"Pandora's Boxx, LLC","address":"6221 E Davison Ave","zipcode":"48212","owner":"Viola Mines","licenseNumber":"053571","licenseType":"Fixed Establishment","establishmentType":"Food Service Establishment","establishmentStatus":"Open","riskCategory":null,"reviewFrequencyDays":"365.0","coords":"-83.03932,42.42349","geojson":{"id":"550","type":"Feature","geometry":{"type":"Point","coordinates":[-83.0393177779999,42.4234897920001]},"properties":{"name":"Pandora's Boxx, LLC","owner":"Viola Mines","address":"6221 E Davison Ave","zipcode":"48212","license_type":"Fixed Establishment","risk_category":null,"license_number":"053571","establishmentid":"550","establishment_type":"Food Service Establishment","establishment_status":"Open","review_frequency_days":"365.0","most_recent_license_date":"5/15/2015"}},"nearbyList":[{"establishmentid":"605","name":"Two Way Inn","address":"17897 Mt Elliott St","zipcode":"48212"},{"establishmentid":"302","name":"Original Marcus Hamburger","address":"6349 E McNichols Rd","zipcode":"48212"},{"establishmentid":"560","name":"Tippin Inn, Inc.","address":"18430-34 Mt Elliott","zipcode":"48234"},{"establishmentid":"629","name":"V.F.W. Post #2233 James Europe","address":"18651 Mound Rd","zipcode":"48234"},{"establishmentid":"1724","name":"Cornerstone School","address":"6861 E Nevada St","zipcode":"48234"},{"establishmentid":"361","name":"Brandy's on 7","address":"6141 E Seven Mile Rd","zipcode":"48234"},{"establishmentid":"1213","name":"Chili Boys (Lou's Coney Island)","address":"19100 Mound Rd","zipcode":"48234"},{"establishmentid":"4987","name":"Playhouse Entertainment East","address":"7468 E Davison Ave","zipcode":"48212"},{"establishmentid":"1095","name":"Jons Coney Island","address":"5101 E McNichols Ave","zipcode":"48212"},{"establishmentid":"492","name":"Escape Lounge","address":"19404 Sherwood","zipcode":"48234"},{"establishmentid":"3086","name":"B & B's Diner","address":"5223 E Seven Mile Rd","zipcode":"48234"},{"establishmentid":"5422","name":"Texas Fish and Chicken","address":"5207 E 7 Mile Rd","zipcode":"48234"},{"establishmentid":"4477","name":"Senior Community Exchange","address":"18341 Van Dyke Ave","zipcode":"48234"},{"establishmentid":"917","name":"White Academy ","address":"5161 Charles St","zipcode":"48207"},{"establishmentid":"4128","name":"Legacy Charter Academy","address":"4900 E Hildale St","zipcode":"48234"},{"establishmentid":"1345","name":"The Ham Palace","address":"4700 E Davison Ave","zipcode":"48212"},{"establishmentid":"1935","name":"Kams Chop Suey","address":"5113 E Seven Mile Rd","zipcode":"48234"},{"establishmentid":"531","name":"Wing's Chop Suey","address":"18700 Van Dyke Ave","zipcode":"48234"},{"establishmentid":"2250","name":"M. George's Coney Island","address":"7690 E Seven Mile Rd","zipcode":"48234"},{"establishmentid":"1863","name":"New Law Elementary","address":"19411 Cliff","zipcode":"48235"}],"inspectionsByEstablishmentidList":[{"inspectionid":"36221","inspectionDate":"2016-08-24T00:00:00","inspectionType":"Closed - Temporary","inCompliance":"Yes","violationsByInspectionidList":[]}]}]}},"pageContext":{"eid":"550"}}