{"componentChunkName":"component---src-templates-establishment-page-js","path":"/establishment/51623700","result":{"data":{"site":{"pathPrefix":"/restaurant-inspections"},"postgres":{"establishment":[{"establishmentid":"51623700","name":"Culture Soul (Food Truck) ","address":"24737 W 8 Mile ","zipcode":"48219","owner":"Drew Matthews ","licenseNumber":"041322DC","licenseType":"Special Transitory Food Unit","establishmentType":"LHD - Mobile Food Establishmen","establishmentStatus":"Plan Review","riskCategory":null,"reviewFrequencyDays":null,"coords":"-83.28601,42.44238","geojson":{"id":"51623700","type":"Feature","geometry":{"type":"Point","coordinates":[-83.286010949,42.442382737]},"properties":{"name":"Culture Soul (Food Truck) ","owner":"Drew Matthews ","address":"24737 W 8 Mile ","zipcode":"48219","license_type":"Special Transitory Food Unit","risk_category":null,"license_number":"041322DC","establishmentid":"51623700","establishment_type":"LHD - Mobile Food Establishmen","establishment_status":"Plan Review","review_frequency_days":null,"most_recent_license_date":null}},"nearbyList":[{"establishmentid":"221","name":"8 Mile Pita and Grill","address":"24737 Eight Mile Rd. W.","zipcode":"48219"},{"establishmentid":"51623587","name":"Culture Soul ","address":"24737 E 8 Mile ","zipcode":"48219"},{"establishmentid":"4209","name":"Enjoy In & Out Southern Cooking","address":"24737 Eight Mile Rd. W.","zipcode":"48219"},{"establishmentid":"3790","name":"Splash Bar","address":"24587 Eight Mile Rd. W.","zipcode":"48219"},{"establishmentid":"1288","name":"Cactus Lounge","address":"24587 Eight Mile Rd. W.","zipcode":"48219"},{"establishmentid":"4267","name":"Opyum Lounge","address":"24587 Eight Mile Rd. W.","zipcode":"48219"},{"establishmentid":"5291","name":"Cosmic Burrito LLC","address":"24806 Frisbee ","zipcode":"48219"},{"establishmentid":"1220","name":"Detroit Open K-8","address":"24601 Frisbee","zipcode":"48219"},{"establishmentid":"4745","name":"S & G Vending LLC","address":"19480 Five Points St.","zipcode":"48240-0000"},{"establishmentid":"3047","name":"Total Vending","address":"24760 Seven Mile Rd. W.","zipcode":"48219"}],"inspectionsByEstablishmentidList":[]}],"maxInspectionDate":[{"inspectionDate":"2022-08-31T00:00:00"}]}},"pageContext":{"eid":"51623700"}},"staticQueryHashes":["3649515864","63159454"]}