{"componentChunkName":"component---src-templates-establishment-page-js","path":"/establishment/51623863","result":{"data":{"site":{"pathPrefix":"/restaurant-inspections"},"postgres":{"establishment":[{"establishmentid":"51623863","name":"Push Bar & Grill","address":"11526 Portlance","zipcode":"48205","owner":"Felicia Booker","licenseNumber":"PR22143B","licenseType":"Fixed Establishment","establishmentType":"Food Service Establishment","establishmentStatus":"Plan Review","riskCategory":null,"reviewFrequencyDays":null,"coords":"-83.00421,42.41958","geojson":{"id":"51623863","type":"Feature","geometry":{"type":"Point","coordinates":[-83.004213032,42.419578387]},"properties":{"name":"Push Bar & Grill","owner":"Felicia Booker","address":"11526 Portlance","zipcode":"48205","license_type":"Fixed Establishment","risk_category":null,"license_number":"PR22143B","establishmentid":"51623863","establishment_type":"Food Service Establishment","establishment_status":"Plan Review","review_frequency_days":null,"most_recent_license_date":null}},"nearbyList":[{"establishmentid":"309","name":"P.P.H Lounge","address":"11526 Portlance","zipcode":"48205"},{"establishmentid":"1402","name":"Zorba's Coney Island","address":"11701 McNichols Ave. E.","zipcode":"48205"},{"establishmentid":"4244","name":"Zorba's Fine Food","address":"11701 McNichols Ave. E.","zipcode":"48205"},{"establishmentid":"3405","name":"Lucky's Resturant","address":"11701 McNichols Rd. E.","zipcode":"48224"},{"establishmentid":"3750","name":"Zorba's Coney Island","address":"11701 McNichols Ave. E.","zipcode":"48205"},{"establishmentid":"5303","name":"Kreative Cream ","address":"11790 Kennebec","zipcode":"48205"},{"establishmentid":"1554","name":"Academy of Fine and Peforming Arts","address":"17201 Annott","zipcode":"48205"},{"establishmentid":"51623780","name":"K & K Eatz & Catering ","address":"13066 Canonbury","zipcode":"48205"},{"establishmentid":"1166","name":"Wilkins Elementary School","address":"12400 Nashville","zipcode":"48205"},{"establishmentid":"4503","name":"Sterling Services","address":"11499 Conner Ave.","zipcode":"48226"}],"inspectionsByEstablishmentidList":[]}],"maxInspectionDate":[{"inspectionDate":"2022-08-31T00:00:00"}]}},"pageContext":{"eid":"51623863"}},"staticQueryHashes":["3649515864","63159454"]}