{"componentChunkName":"component---src-templates-establishment-page-js","path":"/establishment/752","result":{"data":{"site":{"pathPrefix":"/restaurant-inspections"},"postgres":{"establishment":[{"establishmentid":"752","name":"Cafe Park Avenue","address":"2305 Park","zipcode":"48201","owner":"Sean Harrington","licenseNumber":"034755","licenseType":"Fixed Establishment","establishmentType":"Food Service Establishment","establishmentStatus":"Open","riskCategory":null,"reviewFrequencyDays":"180","coords":"-83.05429,42.33826","geojson":{"id":"752","type":"Feature","geometry":{"type":"Point","coordinates":[-83.054294517,42.338257088]},"properties":{"name":"Cafe Park Avenue","owner":"Sean Harrington","address":"2305 Park","zipcode":"48201","license_type":"Fixed Establishment","risk_category":null,"license_number":"034755","establishmentid":"752","establishment_type":"Food Service Establishment","establishment_status":"Open","review_frequency_days":"180","most_recent_license_date":"2006-12-04"}},"nearbyList":[{"establishmentid":"4340","name":"Hot Taco","address":"2233 Park Ave","zipcode":"48201"},{"establishmentid":"3172","name":"Centaur Bar","address":"2233 Park Ave.","zipcode":"48201-3400"},{"establishmentid":"51622957","name":"Town Pump Tavern","address":"2233 Park Ave.","zipcode":"48226"},{"establishmentid":"5146","name":"Frita Airstream","address":"66 Columbia","zipcode":"48201"},{"establishmentid":"51622841","name":"Frita Batidos","address":"66 Columbia","zipcode":"48201"},{"establishmentid":"3274","name":"Little Caesar's","address":"2211 Woodward Ave.","zipcode":"48201"},{"establishmentid":"4585","name":"Total Vending","address":"2211 Woodward Ave.","zipcode":"48201"},{"establishmentid":"377","name":"Fox Theatre","address":"2211 Woodward Ave.","zipcode":"48201"},{"establishmentid":"2630","name":"Continental Services","address":"2211 Woodward","zipcode":"48201"},{"establishmentid":"51622916","name":"Starbucks Coffee #54775","address":"2211 Woodward Ave.","zipcode":"48224"}],"inspectionsByEstablishmentidList":[]}],"maxInspectionDate":[{"inspectionDate":"2023-04-25T00:00:00"}]}},"pageContext":{"eid":"752"}},"staticQueryHashes":["3649515864","63159454"]}