{"componentChunkName":"component---src-templates-establishment-page-js","path":"/establishment/2374","result":{"data":{"site":{"pathPrefix":"/restaurant-inspections"},"postgres":{"establishment":[{"establishmentid":"2374","name":"Southern Fires","address":"575 Bellevue","zipcode":"48207","owner":"John Thompson","licenseNumber":"043510","licenseType":"Fixed Establishment","establishmentType":"Food Service Establishment","establishmentStatus":"Temporarily Closed","riskCategory":null,"reviewFrequencyDays":"150","coords":"-83.00806,42.34736","geojson":{"id":"2374","type":"Feature","geometry":{"type":"Point","coordinates":[-83.00806039,42.34736218]},"properties":{"name":"Southern Fires","owner":"John Thompson","address":"575 Bellevue","zipcode":"48207","license_type":"Fixed Establishment","risk_category":null,"license_number":"043510","establishmentid":"2374","establishment_type":"Food Service Establishment","establishment_status":"Temporarily Closed","review_frequency_days":"150","most_recent_license_date":"2013-07-26"}},"nearbyList":[{"establishmentid":"5161","name":"Southern Fire Bistro & Lounge","address":"575 Bellevue","zipcode":"48207"},{"establishmentid":"5317","name":"Comfort Cafe","address":"6533  Jefferson E.","zipcode":"48207"},{"establishmentid":"1800","name":"Wendy's","address":"6601 Jefferson Ave. E.","zipcode":"48207"},{"establishmentid":"4264","name":"Zen Bar & Restaurant","address":"6452 E. Jefferson","zipcode":"48207"},{"establishmentid":"4030","name":"The Bridge","address":"6470 E. Jefferson Ave.","zipcode":"48207"},{"establishmentid":"51622615","name":"Le Petit Dejeuner","address":"6470  E. Jefferson","zipcode":"48207"},{"establishmentid":"3305","name":"Quizno's","address":"500 Mt. Elliott","zipcode":"48207"},{"establishmentid":"2764","name":"Little Caesar's Pizza #164","address":"500 Mt. Elliott","zipcode":"48207"},{"establishmentid":"3203","name":"Happy's Pizza #11","address":"6412  Jefferson Ave. E.","zipcode":"48207"},{"establishmentid":"51623733","name":"Streetcredit Coworking & Events LLC","address":"6340 Jefferson E.","zipcode":"48207"}],"inspectionsByEstablishmentidList":[]}],"maxInspectionDate":[{"inspectionDate":"2023-04-25T00:00:00"}]}},"pageContext":{"eid":"2374"}},"staticQueryHashes":["3649515864","63159454"]}