{"componentChunkName":"component---src-templates-establishment-page-js","path":"/establishment/4738","result":{"data":{"site":{"pathPrefix":"/restaurant-inspections"},"postgres":{"establishment":[{"establishmentid":"4738","name":"Meemo's","address":"12843  Greenfield","zipcode":"48227","owner":"Valerie Pentecost","licenseNumber":"","licenseType":"Other","establishmentType":"LHD - Mobile Food Establishmen","establishmentStatus":null,"riskCategory":null,"reviewFrequencyDays":"365","coords":"-83.19926,42.38305","geojson":{"id":"4738","type":"Feature","geometry":{"type":"Point","coordinates":[-83.199261044,42.383051547]},"properties":{"name":"Meemo's","owner":"Valerie Pentecost","address":"12843  Greenfield","zipcode":"48227","license_type":"Other","risk_category":null,"license_number":"","establishmentid":"4738","establishment_type":"LHD - Mobile Food Establishmen","establishment_status":null,"review_frequency_days":"365","most_recent_license_date":null}},"nearbyList":[{"establishmentid":"2184","name":"What's Up Dawg","address":"12843 Greenfield Rd.","zipcode":"48227"},{"establishmentid":"2186","name":"J P ENTERPRISE","address":"12843 Greenfield Rd.","zipcode":"48227"},{"establishmentid":"2183","name":"Red Bee Hot Dogs","address":"12843 Greenfield Rd.","zipcode":"48224"},{"establishmentid":"2133","name":"Frankly Yours #1","address":"12843 Greenfield Rd.","zipcode":"48227"},{"establishmentid":"2132","name":"Frankly Yours #3","address":"12843 Greenfield Rd.","zipcode":"48227"},{"establishmentid":"2135","name":"Cordova Hot Dog","address":"12843 Greenfield Rd.","zipcode":"48208"},{"establishmentid":"2136","name":"Frankly Yours #4","address":"12843 Greenfield Rd.","zipcode":"48227"},{"establishmentid":"2101","name":"The Hotdog Depot, Inc.","address":"12843 Greenfield Rd.","zipcode":"48227"},{"establishmentid":"2086","name":"Trio Vending","address":"12843 Greenfield Rd.","zipcode":"48227"},{"establishmentid":"2299","name":"Frankly Yours #6","address":"12843 Greenfield Rd.","zipcode":"48202"}],"inspectionsByEstablishmentidList":[]}],"maxInspectionDate":[{"inspectionDate":"2023-04-13T00:00:00"}]}},"pageContext":{"eid":"4738"}},"staticQueryHashes":["3649515864","63159454"]}