{"componentChunkName":"component---src-templates-establishment-page-js","path":"/establishment/1898","result":{"data":{"site":{"pathPrefix":"/restaurant-inspections"},"postgres":{"establishment":[{"establishmentid":"1898","name":"Silver Plate Coney Island","address":"18400 Plymouth Rd.","zipcode":"48228","owner":"Ali Rahal","licenseNumber":"018400","licenseType":"Fixed Establishment","establishmentType":"Food Service Establishment","establishmentStatus":"Permanently Closed","riskCategory":null,"reviewFrequencyDays":"335","coords":"-83.22086,42.37251","geojson":{"id":"1898","type":"Feature","geometry":{"type":"Point","coordinates":[-83.220862864,42.37251036]},"properties":{"name":"Silver Plate Coney Island","owner":"Ali Rahal","address":"18400 Plymouth Rd.","zipcode":"48228","license_type":"Fixed Establishment","risk_category":null,"license_number":"018400","establishmentid":"1898","establishment_type":"Food Service Establishment","establishment_status":"Permanently Closed","review_frequency_days":"335","most_recent_license_date":"12/4/2006"}},"nearbyList":[{"establishmentid":"455","name":"Starters Lounge","address":"18426 Plymouth Rd.","zipcode":"48228"},{"establishmentid":"51622735","name":"The Custard Hut","address":"18435 Plymouth","zipcode":"48228"},{"establishmentid":"2457","name":"Pizza Hut #26322","address":"18435 Plymouth Rd.","zipcode":"48228"},{"establishmentid":"1931","name":"Tao's New China","address":"18345 Plymouth Rd.","zipcode":"48228"},{"establishmentid":"640","name":"Little Champs Restaurant","address":"18338 Plymouth Rd.","zipcode":"48228"},{"establishmentid":"4416","name":"Detroit Innovation Academy","address":"18211 Plymouth Rd.","zipcode":"48228"},{"establishmentid":"51623585","name":"Red Tent BBQ and Rhythm","address":"9929 Brace St.","zipcode":"48228"},{"establishmentid":"2525","name":"Koolies","address":"11450 Warwick","zipcode":"48228"},{"establishmentid":"5307","name":"Black Orchid dba Dolla Bills Gentleman C","address":"17040 Plymouth","zipcode":"48227"},{"establishmentid":"2223","name":"Sphinx Show Girls","address":"17040 Plymouth Rd.","zipcode":"48227"}],"inspectionsByEstablishmentidList":[]}],"maxInspectionDate":[{"inspectionDate":"2022-08-31T00:00:00"}]}},"pageContext":{"eid":"1898"}},"staticQueryHashes":["3649515864","63159454"]}