{"componentChunkName":"component---src-templates-establishment-page-js","path":"/establishment/51624047","result":{"data":{"site":{"pathPrefix":"/restaurant-inspections"},"postgres":{"establishment":[{"establishmentid":"51624047","name":"CJ's Kitchen","address":"19131 Fenelon","zipcode":"48219","owner":"Chandre Johnson","licenseNumber":"23056-D","licenseType":"Special Transitory Food Unit","establishmentType":"LHD - Special Transitory Food","establishmentStatus":"Plan Review","riskCategory":null,"reviewFrequencyDays":null,"coords":"-83.05401,42.43383","geojson":{"id":"51624047","type":"Feature","geometry":{"type":"Point","coordinates":[-83.054008177,42.433830562]},"properties":{"name":"CJ's Kitchen","owner":"Chandre Johnson","address":"19131 Fenelon","zipcode":"48219","license_type":"Special Transitory Food Unit","risk_category":null,"license_number":"23056-D","establishmentid":"51624047","establishment_type":"LHD - Special Transitory Food","establishment_status":"Plan Review","review_frequency_days":null,"most_recent_license_date":null}},"nearbyList":[{"establishmentid":"1177","name":"Playground Lounge","address":"4933 Seven Mile Rd. E.","zipcode":"48234"},{"establishmentid":"4451","name":"Lucabrasi's","address":"4933  Seven Mile Rd, E. ","zipcode":"48234"},{"establishmentid":"1432","name":"Taylor Made Burgers","address":"4844 Seven Mile Rd. E.","zipcode":"48234"},{"establishmentid":"1935","name":"Kams Chop Suey","address":"5113 Seven Mile Rd. E.","zipcode":"48234"},{"establishmentid":"4369","name":"Seven Mile Fish & Chicken","address":"5207 E. Seven Mile","zipcode":"48234"},{"establishmentid":"1321","name":"Dot & Etta's Shrimp Hut","address":"5207 Seven Mile Rd. E.","zipcode":"48234"},{"establishmentid":"51623461","name":"4 Guys Fish & Chicken","address":"5207 Seven Mile E.","zipcode":"48234"},{"establishmentid":"5422","name":"Texas Fish and Chicken","address":"5207 7 mile Rd. E.","zipcode":"48234"},{"establishmentid":"3086","name":"B & B's Diner","address":"5223 Seven Mile Rd. E.","zipcode":"48234"},{"establishmentid":"4128","name":"Legacy Charter Academy","address":"4900 Hildale St. E.","zipcode":"48234"}],"inspectionsByEstablishmentidList":[]}],"maxInspectionDate":[{"inspectionDate":"2023-04-25T00:00:00"}]}},"pageContext":{"eid":"51624047"}},"staticQueryHashes":["3649515864","63159454"]}