{"data":{"site":{"pathPrefix":"/restaurant-inspections"},"postgres":{"establishment":[{"establishmentid":"51623307","name":"Kwench Juice ","address":"719 Griswold Ste 10","zipcode":"48226","owner":"Robert Lawson ","licenseNumber":"2020KJ","licenseType":"Fixed Establishment","establishmentType":"Food Service Establishment","establishmentStatus":"Open","riskCategory":null,"reviewFrequencyDays":"90.0","coords":"-83.04799,42.33078","geojson":{"id":"51623307","type":"Feature","geometry":{"type":"Point","coordinates":[-83.047994321,42.330784485]},"properties":{"name":"Kwench Juice ","owner":"Robert Lawson ","address":"719 Griswold Ste 10","zipcode":"48226","license_type":"Fixed Establishment","risk_category":null,"license_number":"2020KJ","establishmentid":"51623307","establishment_type":"Food Service Establishment","establishment_status":"Open","review_frequency_days":"90.0","most_recent_license_date":"9/25/2020"}},"nearbyList":[{"establishmentid":"5039","name":"Mikes Kabob Grille","address":"719 Griswold Ste 140","zipcode":"48226"},{"establishmentid":"51622853","name":"Kwench Juice Cafe'","address":"719 Griswold","zipcode":"48226"},{"establishmentid":"4866","name":"Dime Store","address":"719 Griswold St Ste 180","zipcode":"48226"},{"establishmentid":"51622867","name":"Allenby/Fort Street Galley","address":"160 W Fort St","zipcode":"48226"},{"establishmentid":"51622866","name":"Isla/Fort Street Galley","address":"160 W Fort St","zipcode":"48226"},{"establishmentid":"5320","name":"Maru Detroit","address":"160 W Fort St","zipcode":"48226"},{"establishmentid":"51623044","name":"Michigan & Trumbull/Fort Street Galley","address":"160 W Fort St","zipcode":"48226"},{"establishmentid":"51622865","name":"Lucky's Noble BBQ/Fort Street Galley","address":"160 W Fort St","zipcode":"48226"},{"establishmentid":"51622819","name":"Fort Street Galley- Bar & Table","address":"160 W Fort St","zipcode":"48226"},{"establishmentid":"51622868","name":"Pursue/Fort Street Galley","address":"160 W Fort St","zipcode":"48226"}],"inspectionsByEstablishmentidList":[{"inspectionid":"52912","inspectionDate":"2020-09-25T00:00:00","inspectionType":"Routine Inspection","inCompliance":"Yes","violationsByInspectionidList":[{"violationCode":"3-302.11","violationDescription":"(A) FOOD shall be protected from cross contamination by:  \r\n(1) Except as specified in (1)(c) below, separating raw animal FOODS during         storage, preparation, holding, and display from:\r\n(a) Raw READY-TO-EAT FOOD including other raw animal FOOD such as FISH for sushi or MOLLUSCAN SHELLFISH, or other raw READY-TO-EAT FOOD such as fruits and vegetables,(P) and\r\n(b) Cooked READY-TO-EAT FOOD; (P)\r\n(c) Frozen, commercially processed and packaged raw animal FOOD may be          stored or displayed with or above frozen, commercially processed and           packaged, ready-to-eat food.\r\n(2) Except when combined as ingredients, separating types of raw animal FOODS    from each other such as beef, FISH, lamb, pork, and POULTRY during storage,        preparation, holding, and display by:\r\n(a) Using separate EQUIPMENT for each type, (P) or\r\n(b) Arranging each type of FOOD in EQUIPMENT so that cross contamination of one type with another is prevented, (P) and\r\n(c) Preparing each type of FOOD at different times or in separate areas; (P)\r\n","violationType":"Priority","itemDescription":"Raw animal food(s)","subItem":"","problemDescription":"Stored over/next to","subProblem":"Raw ready-to-eat food(s) Fruit(s)","location":"BACK AREA","subLocation":"","corrected":"Yes","daysToCorrect":"10","correctedDate":"2020-09-25T00:00:00","correctionDescription":null}]}]}],"maxInspectionDate":[{"inspectionDate":"2020-10-30T00:00:00"}]}},"pageContext":{"eid":"51623307"}}