{"data":{"site":{"pathPrefix":"/restaurant-inspections"},"postgres":{"establishment":[{"establishmentid":"51622950","name":"Boulevard Cafe & Coney","address":"540 E Warren Ave","zipcode":"48201","owner":"Shtjefen Ljugguraj","licenseNumber":"040419JB","licenseType":"Fixed Establishment","establishmentType":"Food Service Establishment","establishmentStatus":"Open","riskCategory":"High","reviewFrequencyDays":"180.0","coords":"-83.05878,42.35910","geojson":{"id":"51622950","type":"Feature","geometry":{"type":"Point","coordinates":[-83.058783905,42.359099085]},"properties":{"name":"Boulevard Cafe & Coney","owner":"Shtjefen Ljugguraj","address":"540 E Warren Ave","zipcode":"48201","license_type":"Fixed Establishment","risk_category":"High","license_number":"040419JB","establishmentid":"51622950","establishment_type":"Food Service Establishment","establishment_status":"Open","review_frequency_days":"180.0","most_recent_license_date":"4/4/2019"}},"nearbyList":[{"establishmentid":"2392","name":"Royal Grill","address":"540 E Warren Ave","zipcode":"48201"},{"establishmentid":"51622507","name":"Xus China House Inc","address":"550 E Warren Ave","zipcode":"48201"},{"establishmentid":"2778","name":"Chen's China House INC","address":"550 E Warren Ave","zipcode":"48201"},{"establishmentid":"1301","name":"Little Caesar's Pizza #43","address":"530 E Warren Ave","zipcode":"48201"},{"establishmentid":"5170","name":"Subway #34129","address":"498 E Warren Ave","zipcode":"48201"},{"establishmentid":"51622560","name":"Captain Jay's #120","address":"4851 St Antoine St","zipcode":"48201"},{"establishmentid":"1704","name":"Museum of African American History","address":"315 E Warren Ave","zipcode":"48201"},{"establishmentid":"2126","name":"Michigan Science Center/Edibles Rex","address":"5020 John R Street","zipcode":"48202"},{"establishmentid":"3909","name":"University Prep Math/Science 90/90","address":"5100 John R St","zipcode":"48202"},{"establishmentid":"4091","name":"University Prep Academy Middle School","address":"5310 St Antoine","zipcode":"48202"}],"inspectionsByEstablishmentidList":[]}],"maxInspectionDate":[{"inspectionDate":"2019-03-31T00:00:00"}]}},"pageContext":{"eid":"51622950"}}