{"data":{"site":{"pathPrefix":"/restaurant-inspections"},"postgres":{"establishment":[{"establishmentid":"2654","name":"Voyager Academy","address":"4321 N Military","zipcode":"4821","owner":"Tammy Visger","licenseNumber":"229355","licenseType":"Fixed Establishment","establishmentType":"Non-Public School","establishmentStatus":"Open","riskCategory":"Medium","reviewFrequencyDays":"180","coords":"-83.12039,42.33265","geojson":{"id":"2654","type":"Feature","geometry":{"type":"Point","coordinates":[-83.120391425,42.33264895]},"properties":{"name":"Voyager Academy","owner":"Tammy Visger","address":"4321 N Military","zipcode":"4821","license_type":"Fixed Establishment","risk_category":"Medium","license_number":"229355","establishmentid":"2654","establishment_type":"Non-Public School","establishment_status":"Open","review_frequency_days":"180","most_recent_license_date":"5/12/2020"}},"nearbyList":[{"establishmentid":"4443","name":"Voyager Consortium","address":"4366 Military","zipcode":"4821"},{"establishmentid":"51622875","name":"Happy's Pizza #9","address":"4220 Livernois Ave","zipcode":"4821"},{"establishmentid":"51622499","name":"Happys Southwest Detroit","address":"4220 Livernois Ave","zipcode":"4821"},{"establishmentid":"2308","name":"George's Famous Coney Island","address":"6362 Michigan Ave","zipcode":"4821"},{"establishmentid":"51622797","name":"Avdolli Adis Coney Island","address":"6171 Michigan Avenue","zipcode":"4821"},{"establishmentid":"3553","name":"Adi's Coney Island ","address":"6171 Michigan Ave","zipcode":"4821"},{"establishmentid":"546","name":"Hope of Detroit Academy","address":"4443 N Campbell St","zipcode":"4821"},{"establishmentid":"4966","name":"Rincon Tropical","address":"6538 Michigan Ave","zipcode":"4821"},{"establishmentid":"5354","name":"Kaleidoscope Catering","address":"3700 Gilbert","zipcode":"4821"},{"establishmentid":"51622462","name":"Better Woodman","address":"3700 Gilbert Street","zipcode":"4821"}],"inspectionsByEstablishmentidList":[{"inspectionid":"49120","inspectionDate":"2019-09-13T00:00:00","inspectionType":"Routine Inspection","inCompliance":"Yes","violationsByInspectionidList":[{"violationCode":"4-501.11","violationDescription":"EQUIPMENT shall be maintained in a state of repair and condition that meets the requirements of the code.\r\n","violationType":"Core","itemDescription":"Equipment","subItem":"","problemDescription":"Broken","subProblem":"","location":"KITCHEN","subLocation":"Cooler(s)","corrected":"Not required","daysToCorrect":"30","correctedDate":null,"correctionDescription":"Repair/replace."}]}]}],"maxInspectionDate":[{"inspectionDate":"2020-05-29T00:00:00"}]}},"pageContext":{"eid":"2654"}}