{"data":{"site":{"pathPrefix":"/restaurant-inspections"},"postgres":{"establishment":[{"establishmentid":"4969","name":"Cornerstone Village & Bar","address":"17315 Mack Ave","zipcode":"48224","owner":"Wilfred French","licenseNumber":"236367","licenseType":"Fixed Establishment","establishmentType":"Food Service Establishment","establishmentStatus":"Open","riskCategory":"Medium","reviewFrequencyDays":"365","coords":"-82.92042,42.39764","geojson":{"id":"4969","type":"Feature","geometry":{"type":"Point","coordinates":[-82.920420629,42.397636151]},"properties":{"name":"Cornerstone Village & Bar","owner":"Wilfred French","address":"17315 Mack Ave","zipcode":"48224","license_type":"Fixed Establishment","risk_category":"Medium","license_number":"236367","establishmentid":"4969","establishment_type":"Food Service Establishment","establishment_status":"Open","review_frequency_days":"365","most_recent_license_date":"3/25/2019"}},"nearbyList":[{"establishmentid":"3184","name":"Trolley's","address":"17315 Mack Ave","zipcode":"48224"},{"establishmentid":"3195","name":"La Cina","address":"17201 Mack Ave","zipcode":"48224"},{"establishmentid":"2813","name":"Bogartz Food and Spirits","address":"17441 Mack Ave","zipcode":"48224"},{"establishmentid":"318","name":"Cadieux Cafe","address":"4300 Cadieux  Rd","zipcode":"48224"},{"establishmentid":"51622460","name":"Starbuck's Coffee Company","address":"18051 Mack Ave","zipcode":"48224"},{"establishmentid":"1068","name":"Burger King","address":"17440 E Warren Ave","zipcode":"48224"},{"establishmentid":"4467","name":"Big Burgzs","address":"17627 E Warren Ave","zipcode":"48224"},{"establishmentid":"2268","name":"High Noon Saloon","address":"17339 E Warren Ave","zipcode":"48224"},{"establishmentid":"51622483","name":"The Detroit Pepper Company","address":"17180 E Warren Ave","zipcode":"48224"},{"establishmentid":"1992","name":"Domino's Pizza","address":"17140 E Warren Ave","zipcode":"48224"}],"inspectionsByEstablishmentidList":[{"inspectionid":"49313","inspectionDate":"2019-10-02T00:00:00","inspectionType":"Routine Inspection","inCompliance":"Yes","violationsByInspectionidList":[{"violationCode":"7-201.11","violationDescription":"POISONOUS OR TOXIC MATERIAL shall be stored so they can not contaminate FOOD, EQUIPMENT, UTENSILS, LINENS, AND SINGLE-SERVICE AND SINGLE-USE ARTICLES by:   \r\n(A) Separating the POISONOUS OR TOXIC MATERIAL by spacing or partitioning; (P) and   \r\n(B) Locating the POISONOUS OR TOXIC MATERIAL in an area that is not above FOOD, EQUIPMENT, UTENSILS, LINENS, AND SINGLE-SERVICE AND SINGLE-USE ARTICLES.  This paragraph does not apply to EQUIPMENT and UTENSIL cleaners and sanitizers that are stored in WAREWASHING areas for availability and convenience if the materials are stored to prevent contamination of FOOD, EQUIPMENT, UTENSILS, LINENS, AND SINGLE-SERVICE and SINGLE-USE ARTICLES. (P)","violationType":"Priority","itemDescription":"Poisonous/toxic material(s)","subItem":"","problemDescription":"Stored over/with","subProblem":"Equipment/utensils","location":"STORAGE ROOM","subLocation":"On top of the Freezer (upright)","corrected":"Yes","daysToCorrect":"10","correctedDate":"2019-10-02T00:00:00","correctionDescription":null}]}]}],"maxInspectionDate":[{"inspectionDate":"2020-05-29T00:00:00"}]}},"pageContext":{"eid":"4969"}}