{"data":{"postgres":{"establishment":[{"establishmentid":"1522","name":"Fiberglass Estate Corp. ","address":"16515 Plymouth Rd","zipcode":"48227","owner":"Fiberglass Estate Corp.","licenseNumber":"035746","licenseType":"Fixed Establishment","establishmentType":"Food Service Establishment","establishmentStatus":"Open","riskCategory":"Medium","reviewFrequencyDays":"365.0","coords":"-83.20884,42.37212","geojson":{"id":"1522","type":"Feature","geometry":{"type":"Point","coordinates":[-83.2088362219999,42.372122163]},"properties":{"name":"Fiberglass Estate Corp. ","owner":"Fiberglass Estate Corp.","address":"16515 Plymouth Rd","zipcode":"48227","license_type":"Fixed Establishment","risk_category":"Medium","license_number":"035746","establishmentid":"1522","establishment_type":"Food Service Establishment","establishment_status":"Open","review_frequency_days":"365.0","most_recent_license_date":null}},"nearbyList":[{"establishmentid":"3149","name":"Time Out Sports Bar & Grill","address":"16801 Plymouth Rd","zipcode":"48227"},{"establishmentid":"51622623","name":"Chicago Fish & Chicken","address":"16900 Plymouth","zipcode":"48227"},{"establishmentid":"5357","name":"A 1 Fish & Chicken LLC","address":"16900 Plymouth","zipcode":"48212"},{"establishmentid":"5307","name":"Black Orchid","address":"17040 Plymouth Rd","zipcode":"48227"},{"establishmentid":"892","name":"Henderson Jemison Academy PK-8","address":"16101 W Chicago Rd","zipcode":"48228"},{"establishmentid":"1699","name":"Salvation Army-Detroit Grandale Corp.","address":"11325 Montrose Ave","zipcode":"48227"},{"establishmentid":"4986","name":"Sterling's Old Style BBQ","address":"18241 Plymouth Rd","zipcode":"48228"},{"establishmentid":"4416","name":"Detroit Innovation Academy","address":"18211 Plymouth Road","zipcode":"48228"},{"establishmentid":"1587","name":"McDonald's #12308","address":"15501 Plymouth Rd","zipcode":"48227"},{"establishmentid":"3431","name":"Checkers Hamburgers #6238","address":"11641 Greenfield Rd","zipcode":"48227"},{"establishmentid":"1127","name":"Dossin Elementary","address":"16650 Glendale","zipcode":"48227"},{"establishmentid":"1560","name":"Mr. Steve's Pizza","address":"9911 Greenfield Ave","zipcode":"48227"},{"establishmentid":"51622735","name":"The Custard Hut","address":"18435 Plymouth Rd","zipcode":"48228"},{"establishmentid":"4981","name":"Market Fresh Deli","address":"18200 W Chicago","zipcode":"48228"},{"establishmentid":"631","name":"Ice Night Club","address":"9933 Greenfield","zipcode":"48227"},{"establishmentid":"455","name":"Starters Lounge","address":"18426 Plymouth Rd","zipcode":"48228"},{"establishmentid":"2797","name":"Little Caesar's Pizza ","address":"18310 W Chicago Rd","zipcode":"48228"},{"establishmentid":"1162","name":"Church's Fried Chicken #868","address":"15525 W Chicago","zipcode":"48228"},{"establishmentid":"1075","name":"Omega Coney Island","address":"9500 Greenfield Rd","zipcode":"48227"},{"establishmentid":"2647","name":"Captain Jay's Fish & Chicken #101","address":"9233 Greenfield Ave","zipcode":"48228"}],"inspectionsByEstablishmentidList":[{"inspectionid":"36410","inspectionDate":"2016-09-07T00:00:00","inspectionType":"Routine Inspection","inCompliance":"Yes","violationsByInspectionidList":[]}]}]}},"pageContext":{"eid":"1522"}}