{"data":{"site":{"pathPrefix":"/restaurant-inspections"},"postgres":{"establishment":[{"establishmentid":"51622875","name":"Happy's Pizza #9","address":"4220 Livernois Ave","zipcode":"4821","owner":"Rony Tinpan","licenseNumber":"249320","licenseType":"Fixed Establishment","establishmentType":"Food Service Establishment","establishmentStatus":"Open","riskCategory":null,"reviewFrequencyDays":"365","coords":"-83.12040,42.33131","geojson":{"id":"51622875","type":"Feature","geometry":{"type":"Point","coordinates":[-83.120397096,42.331309713]},"properties":{"name":"Happy's Pizza #9","owner":"Rony Tinpan","address":"4220 Livernois Ave","zipcode":"4821","license_type":"Fixed Establishment","risk_category":null,"license_number":"249320","establishmentid":"51622875","establishment_type":"Food Service Establishment","establishment_status":"Open","review_frequency_days":"365","most_recent_license_date":"4/22/2020"}},"nearbyList":[{"establishmentid":"51622499","name":"Happys Southwest Detroit","address":"4220 Livernois Ave","zipcode":"4821"},{"establishmentid":"2308","name":"George's Famous Coney Island","address":"6362 Michigan Ave","zipcode":"4821"},{"establishmentid":"2654","name":"Voyager Academy","address":"4321 N Military","zipcode":"4821"},{"establishmentid":"4443","name":"Voyager Consortium","address":"4366 Military","zipcode":"4821"},{"establishmentid":"51622797","name":"Avdolli Adis Coney Island","address":"6171 Michigan Avenue","zipcode":"4821"},{"establishmentid":"3553","name":"Adi's Coney Island ","address":"6171 Michigan Ave","zipcode":"4821"},{"establishmentid":"51622462","name":"Better Woodman","address":"3700 Gilbert Street","zipcode":"4821"},{"establishmentid":"5354","name":"Kaleidoscope Catering","address":"3700 Gilbert","zipcode":"4821"},{"establishmentid":"3526","name":"St. Peter & Paul Orthodox Cathedral","address":"3700 Gilbert Street","zipcode":"4821"},{"establishmentid":"51622860","name":"Pietrzyk Pierogi","address":"3700 Gilbert Street","zipcode":"4821"}],"inspectionsByEstablishmentidList":[{"inspectionid":"50669","inspectionDate":"2020-02-05T00:00:00","inspectionType":"Routine Inspection","inCompliance":"Yes","violationsByInspectionidList":[{"violationCode":"3-501.17","violationDescription":"(A)  READY-TO-EAT, POTENTIALLY HAZARDOUS FOOD (TIME/TEMPERATURE CONTROL FOR SAFETY FOOD)  prepared and held refrigerated for more than 24 hours in a FOOD ESTABLISHMENT  shall be clearly marked at the time of preparation to indicate the date or day by which the FOOD shall be consumed. (Pf)\r\n(B)  A container of refrigerated, commercially prepared READY-TO-EAT POTENTIALLY HAZARDOUS FOOD (TIME/TEMPERATURE CONTROL FOR SAFETY FOOD)  shall be clearly marked, at the time the original container is opened in a FOOD ESTABLISHMENT, to indicate the date or day by which the FOOD shall be consumed. (Pf)\r\n\r\nA date marking system that does not exceed 7 days, including date of preparation, or opening is to be used. (Pf)\r\n","violationType":"Foundation","itemDescription":"Commercially processed ready to eat potentially hazardous food(s)","subItem":"","problemDescription":"Without date of consumption marking","subProblem":"","location":"ESTABLISHMENT","subLocation":"DATE MARKING","corrected":"Yes","daysToCorrect":"10","correctedDate":"2020-02-05T00:00:00","correctionDescription":"Datemark with a discard date of 7 days or less."}]}]}],"maxInspectionDate":[{"inspectionDate":"2020-10-30T00:00:00"}]}},"pageContext":{"eid":"51622875"}}