{"componentChunkName":"component---src-templates-establishment-page-js","path":"/establishment/51622587","result":{"data":{"site":{"pathPrefix":"/restaurant-inspections"},"postgres":{"establishment":[{"establishmentid":"51622587","name":"The River House Chicken & Waffles","address":"8900 E. Jefferson Ave.","zipcode":"48214","owner":"","licenseNumber":"220225","licenseType":"Fixed Establishment","establishmentType":"Food Service Establishment","establishmentStatus":"Permanently Closed","riskCategory":null,"reviewFrequencyDays":null,"coords":"-82.98440,42.35414","geojson":{"id":"51622587","type":"Feature","geometry":{"type":"Point","coordinates":[-82.984395663,42.354143715]},"properties":{"name":"The River House Chicken & Waffles","owner":"","address":"8900 E. Jefferson Ave.","zipcode":"48214","license_type":"Fixed Establishment","risk_category":null,"license_number":"220225","establishmentid":"51622587","establishment_type":"Food Service Establishment","establishment_status":"Permanently Closed","review_frequency_days":null,"most_recent_license_date":"14/8/2017"}},"nearbyList":[{"establishmentid":"51623910","name":"Sno Biz Detroit","address":"8900 Jefferson E.","zipcode":"48214"},{"establishmentid":"3287","name":"Snacks Galore","address":"8900 Jefferson E.","zipcode":"48207"},{"establishmentid":"51623309","name":"Sno Biz Detroit (Wayne County)","address":"8900 E. Jefferson ","zipcode":"48214"},{"establishmentid":"3307","name":"Rumors on the River","address":"8900  Jefferson Ave. E.","zipcode":"48214"},{"establishmentid":"51623488","name":"Sno Biz Detroit (Oakland)","address":"8900 Jefferson E. Unit 521","zipcode":"48214"},{"establishmentid":"1651","name":"De Angelo's Pizza","address":"8935 Jefferson Ave. E.","zipcode":"48214"},{"establishmentid":"51623862","name":"Krunchy'z Fish & Chicken","address":"8935 Jefferson","zipcode":"48214"},{"establishmentid":"2370","name":"McDonald's #2285","address":"8825 Jefferson Ave. E.","zipcode":"48214"},{"establishmentid":"51623294","name":"McDonalds ","address":"8825 E. Jefferson ","zipcode":"48214"},{"establishmentid":"51622759","name":"Urban Flavors Detroit","address":"9215 Jefferson Avenue E.","zipcode":null}],"inspectionsByEstablishmentidList":[{"inspectionid":"39658","inspectionDate":"2017-08-22T00:00:00","inspectionType":"Routine Inspection","inCompliance":"Yes","violationsByInspectionidList":[{"violationCode":"4-501.11","violationDescription":"EQUIPMENT shall be maintained in a state of repair and condition that meets the requirements of the code.\n","violationType":"Core","itemDescription":"Equipment","subItem":"","problemDescription":"In poor repair","subProblem":"","location":"WALK-IN COOLER","subLocation":"Inside the WALK-IN COOLER","corrected":"False","daysToCorrect":"30","correctedDate":null,"correctionDescription":null}]}]}],"maxInspectionDate":[{"inspectionDate":"2023-04-13T00:00:00"}]}},"pageContext":{"eid":"51622587"}},"staticQueryHashes":["3649515864","63159454"]}