{"componentChunkName":"component---src-templates-establishment-page-js","path":"/establishment/3312","result":{"data":{"site":{"pathPrefix":"/restaurant-inspections"},"postgres":{"establishment":[{"establishmentid":"3312","name":"La Tyna","address":"7849 McGraw","zipcode":"48210","owner":"Abel Jaime","licenseNumber":"PR04064","licenseType":"Fixed Establishment","establishmentType":"Food Service Establishment","establishmentStatus":"Not The Jurisdiction Of Dhwp","riskCategory":null,"reviewFrequencyDays":null,"coords":"-83.14227,42.33472","geojson":{"id":"3312","type":"Feature","geometry":{"type":"Point","coordinates":[-83.142272273,42.334722362]},"properties":{"name":"La Tyna","owner":"Abel Jaime","address":"7849 McGraw","zipcode":"48210","license_type":"Fixed Establishment","risk_category":null,"license_number":"PR04064","establishmentid":"3312","establishment_type":"Food Service Establishment","establishment_status":"Not The Jurisdiction Of Dhwp","review_frequency_days":null,"most_recent_license_date":"4/18/2006"}},"nearbyList":[{"establishmentid":"4382","name":"La Rosita","address":"7849  McGraw Ave.","zipcode":"48210"},{"establishmentid":"3137","name":"La Rosita","address":"7849-31 McGraw St.","zipcode":"48210"},{"establishmentid":"5050","name":"El Rey De Las Arepas","address":"7701 McGraw","zipcode":"48210"},{"establishmentid":"693","name":"Delicious Pizzeria","address":"7701 McGraw","zipcode":"48210"},{"establishmentid":"4184","name":"El Taco Veloz #2","address":"7701 McGraw Ave.","zipcode":"48210"},{"establishmentid":"3263","name":"La Tyna Super Mercado","address":"7603  McGraw","zipcode":"48210"},{"establishmentid":"944","name":"Priest Elementary","address":"7840 Wagner","zipcode":"48210"},{"establishmentid":"4814","name":"Caribbean Club Inc.","address":"5506 Proctor","zipcode":"48210"},{"establishmentid":"881","name":"Mannecrop Inc./The Horse (Crazy Horse)","address":"8140 Michigan Ave.","zipcode":"48210"},{"establishmentid":"51622970","name":"MAA Gas and More","address":"7931 Michigan","zipcode":"48210"}],"inspectionsByEstablishmentidList":[]}],"maxInspectionDate":[{"inspectionDate":"2022-07-25T00:00:00"}]}},"pageContext":{"eid":"3312"}},"staticQueryHashes":["3649515864","63159454"]}