{"componentChunkName":"component---src-templates-establishment-page-js","path":"/establishment/51623603","result":{"data":{"site":{"pathPrefix":"/restaurant-inspections"},"postgres":{"establishment":[{"establishmentid":"51623603","name":"Farmacy Food","address":"8425 McNichols W.","zipcode":"48221","owner":"Phillip Jones","licenseNumber":"259450","licenseType":"Fixed Establishment","establishmentType":"Food Service Establishment","establishmentStatus":"Open","riskCategory":"High","reviewFrequencyDays":"150","coords":"-83.15465,42.41478","geojson":{"id":"51623603","type":"Feature","geometry":{"type":"Point","coordinates":[-83.154650193,42.414782797]},"properties":{"name":"Farmacy Food","owner":"Phillip Jones","address":"8425 McNichols W.","zipcode":"48221","license_type":"Fixed Establishment","risk_category":"High","license_number":"259450","establishmentid":"51623603","establishment_type":"Food Service Establishment","establishment_status":"Open","review_frequency_days":"150","most_recent_license_date":"2022-05-26"}},"nearbyList":[{"establishmentid":"51622953","name":"DPSCD MaryGrove","address":"8425 McNichols W","zipcode":"48221"},{"establishmentid":"51623574","name":"Marygrove Immaculata ","address":"8425 McNichols W.","zipcode":"48221"},{"establishmentid":"879","name":"Marygrove College - Madam Cadillac","address":"8425 McNichols Rd. W.","zipcode":"48221"},{"establishmentid":"5334","name":"Marygrove College","address":"8425 McNichols W.","zipcode":"48221"},{"establishmentid":"2056","name":"Sterling Services","address":"8425 McNichols W.","zipcode":"48221"},{"establishmentid":"1567","name":"Bates Academy","address":"16661 Greenlawn","zipcode":"48221"},{"establishmentid":"306","name":"Lou's Finer Deli, Inc.","address":"8224 McNichols Rd. W.","zipcode":"48221"},{"establishmentid":"51622895","name":"Peggy's Place (COTS)","address":"16630 Wyoming","zipcode":"48221"},{"establishmentid":"1868","name":"WE Care Senior Meal Program","address":"8720 Puritan Ave.","zipcode":"48238"},{"establishmentid":"3264","name":"Ken's Carryout","address":"8801  Puritan","zipcode":"48238"}],"inspectionsByEstablishmentidList":[{"inspectionid":"58336","inspectionDate":"2022-04-11T00:00:00","inspectionType":"Routine Inspection","inCompliance":"No","violationsByInspectionidList":[{"violationCode":"4-302.12","violationDescription":"(A) FOOD TEMPERATURE MEASURING DEVICES shall be provided and readily accessible for use in ensuring attainment and maintenance of FOOD temperatures as specified under Chapter 3. (Pf)   \n(B) A TEMPERATURE MEASURING DEVICE with a suitable small-diameter probe that is designed to measure the temperature of thin masses shall be provided and readily accessible to accurately measure the temperature in thin FOODS such as MEAT patties and FISH filets. (Pf)\n","violationType":"Foundation","itemDescription":"Food thermometer(s)","subItem":"","problemDescription":"Not provided","subProblem":"","location":"KITCHEN","subLocation":"","corrected":"False","daysToCorrect":"10","correctedDate":null,"correctionDescription":null}]}]}],"maxInspectionDate":[{"inspectionDate":"2023-04-25T00:00:00"}]}},"pageContext":{"eid":"51623603"}},"staticQueryHashes":["3649515864","63159454"]}