{"data":{"site":{"pathPrefix":"/restaurant-inspections"},"postgres":{"establishment":[{"establishmentid":"870","name":"Burns Elementary- Middle School","address":"14350 Terry St","zipcode":"48227","owner":"Detroit Board of Education","licenseNumber":"034903","licenseType":"Fixed Establishment","establishmentType":"Public School","establishmentStatus":"Open","riskCategory":null,"reviewFrequencyDays":"210.0","coords":"-83.19105,42.39359","geojson":{"id":"870","type":"Feature","geometry":{"type":"Point","coordinates":[-83.1910516849999,42.39359498]},"properties":{"name":"Burns Elementary- Middle School","owner":"Detroit Board of Education","address":"14350 Terry St","zipcode":"48227","license_type":"Fixed Establishment","risk_category":null,"license_number":"034903","establishmentid":"870","establishment_type":"Public School","establishment_status":"Open","review_frequency_days":"210.0","most_recent_license_date":"4/30/2018"}},"nearbyList":[{"establishmentid":"5051","name":"Seven Days Fish and Chicken Inc.","address":"15370 Grand River Ave","zipcode":"48227"},{"establishmentid":"5379","name":"Seven Days Fish & Grill Inc.","address":"15370 Grand River Ave","zipcode":"48227"},{"establishmentid":"4483","name":"Grand River Fuel LLC","address":"14458 Grand River Ave","zipcode":"48227"},{"establishmentid":"51622776","name":"Taco Palace","address":"14458 Grand River Ave","zipcode":"48227"},{"establishmentid":"5385","name":"Yum Yumz Snack Shack LLC","address":"15400 Grand River","zipcode":"48227"},{"establishmentid":"641","name":"Korner Coney Island ","address":"14253 Greenfield Rd","zipcode":"48227"},{"establishmentid":"2393","name":"Cosmos Coney Island","address":"14551 Greenfield Rd","zipcode":"48227"},{"establishmentid":"340","name":"Little Caesar's Pizza #59","address":"14301 Greenfield Rd","zipcode":"48227"},{"establishmentid":"358","name":"Great Wall","address":"14307 Greenfield Rd","zipcode":"48227"},{"establishmentid":"5229","name":"Big Star Fish & Seafood Inc.","address":"15540 Grand River","zipcode":"48227"},{"establishmentid":"1463","name":"Rikshaw House","address":"14135 Greenfield Rd","zipcode":"48227"},{"establishmentid":"5400","name":"Hubbell Fish & Chicken","address":"14535 Fenkell","zipcode":"48227"},{"establishmentid":"4838","name":"Bread Basket Deli","address":"15603 Grand River Ave","zipcode":"48227"},{"establishmentid":"4992","name":"Glasshouse Bar and Grill","address":"14301 Grand River Ave","zipcode":"48227"},{"establishmentid":"51622734","name":"Club Caribbean Bar & Grill","address":"15331 Fenkell Ave","zipcode":"48227"},{"establishmentid":"51622464","name":"Burger Grille LLC","address":"15539 Schoolcraft","zipcode":"48227"},{"establishmentid":"4801","name":"Hot Toppings","address":"15539 Schoolcraft","zipcode":"48227"},{"establishmentid":"5228","name":"All Star Fish & Seafood Inc.","address":"13585 Greenfield Rd","zipcode":"48227"},{"establishmentid":"4610","name":"Captain Jay's Fish & Chicken #110","address":"15321 Greenfield Rd","zipcode":"48227"},{"establishmentid":"1866","name":"Lee's Texas Style Bar-B-Que","address":"14001 Fenkell","zipcode":"48227"}],"inspectionsByEstablishmentidList":[{"inspectionid":"43527","inspectionDate":"2018-09-25T00:00:00","inspectionType":"Routine Inspection","inCompliance":"Yes","violationsByInspectionidList":[]},{"inspectionid":"41621","inspectionDate":"2018-03-01T00:00:00","inspectionType":"Routine Inspection","inCompliance":"Yes","violationsByInspectionidList":[]},{"inspectionid":"39431","inspectionDate":"2017-08-01T00:00:00","inspectionType":"Routine Inspection","inCompliance":"Yes","violationsByInspectionidList":[]},{"inspectionid":"37233","inspectionDate":"2016-11-28T00:00:00","inspectionType":"Routine Inspection","inCompliance":"Yes","violationsByInspectionidList":[]}]}]}},"pageContext":{"eid":"870"}}