{"data":{"site":{"pathPrefix":"/restaurant-inspections"},"postgres":{"establishment":[{"establishmentid":"1865","name":"Detroit Housing Commission","address":"1231 Selden, Bldg 503","zipcode":"48201","owner":"Detroit Area Agency on Aging","licenseNumber":"220242","licenseType":"Fixed Establishment","establishmentType":"Food Service Establishment","establishmentStatus":"Open","riskCategory":"Medium","reviewFrequencyDays":"395","coords":"-83.07192,42.34490","geojson":{"id":"1865","type":"Feature","geometry":{"type":"Point","coordinates":[-83.071923883,42.344903252]},"properties":{"name":"Detroit Housing Commission","owner":"Detroit Area Agency on Aging","address":"1231 Selden, Bldg 503","zipcode":"48201","license_type":"Fixed Establishment","risk_category":"Medium","license_number":"220242","establishmentid":"1865","establishment_type":"Food Service Establishment","establishment_status":"Open","review_frequency_days":"395","most_recent_license_date":"9/25/2019"}},"nearbyList":[{"establishmentid":"2015","name":"Motor City Coney & Grill","address":"3641 Grand River Ave","zipcode":"48208"},{"establishmentid":"4951","name":"Det. Delta Prep. Acad for Social Justice","address":"3550 John C Lodge","zipcode":"48201"},{"establishmentid":"966","name":"Edmonson Elementary School","address":"1300 W Canfield St","zipcode":"48201"},{"establishmentid":"5193","name":"Gus's Fried Chicken","address":"4101 Third Ave","zipcode":"48201"},{"establishmentid":"51623137","name":"Detroit Masala","address":"4154 Third St","zipcode":"48201"},{"establishmentid":"51622458","name":"Willis Show Bar","address":"4156 Third Ave","zipcode":"48201"},{"establishmentid":"5180","name":"Cinema Detroit","address":"4126 Third Ave","zipcode":"48201"},{"establishmentid":"5293","name":"Hot Dog Man","address":"3901 Grand River Ave","zipcode":"48208"},{"establishmentid":"436","name":"Jumbo's Bar","address":"3736 Third St","zipcode":"48201"},{"establishmentid":"51622834","name":"Awake Cafe Coffee and Conversation","address":"4224 Third Ave","zipcode":"48201"}],"inspectionsByEstablishmentidList":[]}],"maxInspectionDate":[{"inspectionDate":"2020-05-29T00:00:00"}]}},"pageContext":{"eid":"1865"}}