{"componentChunkName":"component---src-templates-establishment-page-js","path":"/establishment/4519","result":{"data":{"site":{"pathPrefix":"/restaurant-inspections"},"postgres":{"establishment":[{"establishmentid":"4519","name":"Steves Commissary ","address":"8974 Grand River","zipcode":"48204","owner":"Steve Radden","licenseNumber":"037101","licenseType":"Mobile Food Commissary","establishmentType":"Food Service Establishment","establishmentStatus":"Permanently Closed","riskCategory":null,"reviewFrequencyDays":"150","coords":"-83.12872,42.36495","geojson":{"id":"4519","type":"Feature","geometry":{"type":"Point","coordinates":[-83.128717039,42.364947723]},"properties":{"name":"Steves Commissary ","owner":"Steve Radden","address":"8974 Grand River","zipcode":"48204","license_type":"Mobile Food Commissary","risk_category":null,"license_number":"037101","establishmentid":"4519","establishment_type":"Food Service Establishment","establishment_status":"Permanently Closed","review_frequency_days":"150","most_recent_license_date":null}},"nearbyList":[{"establishmentid":"1218","name":"Capitol One Coney Island","address":"9104 Grand River","zipcode":"48204"},{"establishmentid":"5201","name":"Roy Allen Family Life Center","address":"4924 Joy Rd","zipcode":"48204"},{"establishmentid":"1266","name":"Chapel Hill Baptist Church","address":"4924 Joy Rd.","zipcode":"48204"},{"establishmentid":"1146","name":"Church's Fried Chicken #855","address":"9137 Grand River Ave. W.","zipcode":"48204"},{"establishmentid":"742","name":"Famous Pizzeria","address":"9247 Grand River Ave.","zipcode":"48204"},{"establishmentid":"1084","name":"Paradise Chop Suey","address":"9333 Grand River Ave.","zipcode":"48204"},{"establishmentid":"1270","name":"Ebenezer A.M.E Church","address":"5151 Chicago Ave. W.","zipcode":"48204"},{"establishmentid":"697","name":"Hero's Bar & Grill","address":"8755 Grand River Ave.","zipcode":"48204"},{"establishmentid":"793","name":"Trade Union Leadership Council","address":"8670 Grand River Ave.","zipcode":"48204"},{"establishmentid":"51623055","name":"Anna's Soul Food","address":"8560 Grand River","zipcode":"48204"}],"inspectionsByEstablishmentidList":[]}],"maxInspectionDate":[{"inspectionDate":"2023-04-25T00:00:00"}]}},"pageContext":{"eid":"4519"}},"staticQueryHashes":["3649515864","63159454"]}