{"data":{"site":{"pathPrefix":"/restaurant-inspections"},"postgres":{"establishment":[{"establishmentid":"3853","name":"Salvation Army #1","address":"3737 Lawton St","zipcode":"48208","owner":"Salvation Army","licenseNumber":"038005","licenseType":"Mobile Food Establishment","establishmentType":null,"establishmentStatus":"Seasonal","riskCategory":null,"reviewFrequencyDays":"210","coords":"-83.09026,42.33823","geojson":{"id":"3853","type":"Feature","geometry":{"type":"Point","coordinates":[-83.090262927,42.338228243]},"properties":{"name":"Salvation Army #1","owner":"Salvation Army","address":"3737 Lawton St","zipcode":"48208","license_type":"Mobile Food Establishment","risk_category":null,"license_number":"038005","establishmentid":"3853","establishment_type":null,"establishment_status":"Seasonal","review_frequency_days":"210","most_recent_license_date":"4/30/2019"}},"nearbyList":[{"establishmentid":"3854","name":"Salvation Army #2","address":"3737 Lawton St","zipcode":"48208"},{"establishmentid":"3855","name":"Salvation Army #3","address":"3737 Lawton St","zipcode":"48208"},{"establishmentid":"5064","name":"Salvation Army #12","address":"3737 Lawton St","zipcode":"48208"},{"establishmentid":"3856","name":"Salvation Army #4","address":"3737 Lawton St","zipcode":"48208"},{"establishmentid":"2727","name":"Salvation Army","address":"3737 Lawton St","zipcode":"48208"},{"establishmentid":"1527","name":"Ferguson Building","address":"2750 Selden St","zipcode":"48208"},{"establishmentid":"51622907","name":"Covenant House Academy-Central","address":"2959 Martin Luther King Blvd","zipcode":"48208"},{"establishmentid":"4673","name":"Covenant Central-Covenent House Michigan","address":"2959 Martin Luther King ","zipcode":"48208"},{"establishmentid":"1640","name":"University of Detroit Dental School","address":"2700 Martin L King Jr. Blvd","zipcode":"48208"},{"establishmentid":"595","name":"Hy-Grade Delicatessen Restaurant, Inc.","address":"3640 Michigan Ave","zipcode":"48216"}],"inspectionsByEstablishmentidList":[{"inspectionid":"41298","inspectionDate":"2018-01-17T00:00:00","inspectionType":"Routine Inspection","inCompliance":"No","violationsByInspectionidList":[{"violationCode":"3-501.16","violationDescription":"Except during preparation, cooking, or cooling, or when time is used as the public health control POTENTIALLY HAZARDOUS FOOD (TIME/TEMPERATURE CONTROL FOR SAFETY FOOD) shall be maintained:\r\n(A)  135ºF or above, except that roasts properly cooked and cooled may be held              at a temperature of 130ºF; or (P)\r\n(B)   At 41ºF or less (P)\r\n","violationType":"Priority","itemDescription":"Cold food item(s)","subItem":"","problemDescription":"Stored above 41 degrees F","subProblem":"","location":"TRUCK","subLocation":"Shelves","corrected":"No","daysToCorrect":"10","correctedDate":null,"correctionDescription":"Store below 41 degrees F."}]}]}],"maxInspectionDate":[{"inspectionDate":"2020-05-29T00:00:00"}]}},"pageContext":{"eid":"3853"}}