{"componentChunkName":"component---src-templates-establishment-page-js","path":"/establishment/51622622","result":{"data":{"site":{"pathPrefix":"/restaurant-inspections"},"postgres":{"establishment":[{"establishmentid":"51622622","name":"Prime + Proper- Cash Only","address":"1145 Griswold","zipcode":"48226","owner":"Qualita Primi, LLC","licenseNumber":"NKB91117","licenseType":"Fixed Establishment","establishmentType":"Food Service Establishment","establishmentStatus":"Plan Review","riskCategory":"High","reviewFrequencyDays":null,"coords":"-83.04925,42.33229","geojson":{"id":"51622622","type":"Feature","geometry":{"type":"Point","coordinates":[-83.049252543,42.332294575]},"properties":{"name":"Prime + Proper- Cash Only","owner":"Qualita Primi, LLC","address":"1145 Griswold","zipcode":"48226","license_type":"Fixed Establishment","risk_category":"High","license_number":"NKB91117","establishmentid":"51622622","establishment_type":"Food Service Establishment","establishment_status":"Plan Review","review_frequency_days":null,"most_recent_license_date":null}},"nearbyList":[{"establishmentid":"51622498","name":"Prime + Proper","address":"1145 Griswold","zipcode":"48226"},{"establishmentid":"51622574","name":"Juice & Fuel","address":"150 Michigan Ave.","zipcode":"48226"},{"establishmentid":"51623024","name":"Milk & Froth Inc.","address":"1117 Griswold","zipcode":"48226"},{"establishmentid":"51623277","name":"Cheers Detroit","address":"150 Michigan","zipcode":"48226"},{"establishmentid":"51622773","name":"Clementina Cocina & Libaciones- Mobile","address":"150 State St.","zipcode":"48226"},{"establishmentid":"51622771","name":"Clementina Cocina & Libaciones- Bar","address":"150 State St.","zipcode":"48226"},{"establishmentid":"4179","name":"Skybar and Lounge","address":"1150 Griswold","zipcode":"48226"},{"establishmentid":"2053","name":"Sweet Treats Vending-BSBP","address":"2810 Fort W.","zipcode":"48216"},{"establishmentid":"4911","name":"The Bureau of Services for Blind Persons","address":"2810 W. Fort","zipcode":"48216"},{"establishmentid":"51623873","name":"The Peach Cobbler Factory","address":"1300 Broadway St.","zipcode":"48226"}],"inspectionsByEstablishmentidList":[]}],"maxInspectionDate":[{"inspectionDate":"2023-04-13T00:00:00"}]}},"pageContext":{"eid":"51622622"}},"staticQueryHashes":["3649515864","63159454"]}