{"componentChunkName":"component---src-templates-establishment-page-js","path":"/establishment/4864","result":{"data":{"site":{"pathPrefix":"/restaurant-inspections"},"postgres":{"establishment":[{"establishmentid":"4864","name":"Dangerously Delicious Pies","address":"4626 Third","zipcode":"48201","owner":"Samuel Wood","licenseNumber":"DDP","licenseType":"Fixed Establishment","establishmentType":"Food Service Establishment","establishmentStatus":"Open","riskCategory":"High","reviewFrequencyDays":"150","coords":"-83.06958,42.35219","geojson":{"id":"4864","type":"Feature","geometry":{"type":"Point","coordinates":[-83.069582944,42.352186537]},"properties":{"name":"Dangerously Delicious Pies","owner":"Samuel Wood","address":"4626 Third","zipcode":"48201","license_type":"Fixed Establishment","risk_category":"High","license_number":"DDP","establishmentid":"4864","establishment_type":"Food Service Establishment","establishment_status":"Open","review_frequency_days":"150","most_recent_license_date":null}},"nearbyList":[{"establishmentid":"1715","name":"3rd Street Bar","address":"4626 Third Ave.","zipcode":"48201"},{"establishmentid":"51623156","name":"Street Beet Vegan","address":"4626 Third Ave.","zipcode":"48201"},{"establishmentid":"4392","name":"The Bottom Line Coffee House","address":"4474 Third Ave.","zipcode":"48201"},{"establishmentid":"1155","name":"Jolly Old Timers Club","address":"641 Forest Ave. W.","zipcode":"48201"},{"establishmentid":"4103","name":"Jayson & Stephanie's Hot Diggity Dogs","address":"648  Prentis","zipcode":"48201"},{"establishmentid":"4215","name":"Thistle Coffee House","address":"4445  Second Ave.","zipcode":"48201"},{"establishmentid":"4955","name":"Mid-Town Kabob House","address":"4445 Second Ave.","zipcode":"48201"},{"establishmentid":"3450","name":"Passport Pizza & Ribs Cafe","address":"4445 Second","zipcode":"48201"},{"establishmentid":"4573","name":"Shalimar Garden Rest. LLC","address":"4445 Second","zipcode":"48201"},{"establishmentid":"5036","name":"Maya's Indo-Pak Cuisine","address":"4445 Second Ave.","zipcode":"48201"}],"inspectionsByEstablishmentidList":[]}],"maxInspectionDate":[{"inspectionDate":"2023-04-25T00:00:00"}]}},"pageContext":{"eid":"4864"}},"staticQueryHashes":["3649515864","63159454"]}