{"componentChunkName":"component---src-templates-establishment-page-js","path":"/establishment/51623009","result":{"data":{"site":{"pathPrefix":"/restaurant-inspections"},"postgres":{"establishment":[{"establishmentid":"51623009","name":"Conner Creek/Adella's Cafe","address":"4777 Outer Dr. E.","zipcode":"48234","owner":"Diamond Hospitality LLC","licenseNumber":"PR19065E","licenseType":"Fixed Establishment","establishmentType":"Food Service Establishment","establishmentStatus":"Plan Review","riskCategory":null,"reviewFrequencyDays":null,"coords":"-83.01990,42.44227","geojson":{"id":"51623009","type":"Feature","geometry":{"type":"Point","coordinates":[-83.019896998,42.442270967]},"properties":{"name":"Conner Creek/Adella's Cafe","owner":"Diamond Hospitality LLC","address":"4777 Outer Dr. E.","zipcode":"48234","license_type":"Fixed Establishment","risk_category":null,"license_number":"PR19065E","establishmentid":"51623009","establishment_type":"Food Service Establishment","establishment_status":"Plan Review","review_frequency_days":null,"most_recent_license_date":null}},"nearbyList":[{"establishmentid":"2982","name":"Metro Vending","address":"4777 Outer Drive E.","zipcode":"48234"},{"establishmentid":"5010","name":"POI Vending Services LLC","address":"4777 Outer Drive E.","zipcode":"48234"},{"establishmentid":"51623008","name":"Mitten Hospitality","address":"4777 Outer Dr. E.","zipcode":"48234"},{"establishmentid":"2156","name":"Coffee Connection","address":"4777 Outer Drive E.","zipcode":"48234"},{"establishmentid":"1641","name":"ST. JOHN N.E. COMMUNITY HOS","address":"4777 Outer Dr. E.","zipcode":"48234"},{"establishmentid":"51622743","name":"Diamond Hospitality LLC","address":"4777 E. Outer Drive","zipcode":"48234"},{"establishmentid":"51623595","name":"Goods N Hood","address":"8167 Sirron","zipcode":"48234"},{"establishmentid":"2882","name":"AVI Foodsystems","address":"20000 Conner Ave. ","zipcode":"48234"},{"establishmentid":"2500","name":"Robinson Dairy Vending","address":"20000 Conner","zipcode":"48234"},{"establishmentid":"1856","name":"AVI Foodsystems","address":"20000 Conner Ave.","zipcode":"48234"}],"inspectionsByEstablishmentidList":[]}],"maxInspectionDate":[{"inspectionDate":"2022-07-25T00:00:00"}]}},"pageContext":{"eid":"51623009"}},"staticQueryHashes":["3649515864","63159454"]}