{"data":{"site":{"pathPrefix":"/restaurant-inspections"},"postgres":{"establishment":[{"establishmentid":"5327","name":"Detroit Water Ice Factory","address":"1014 Woodward Ave","zipcode":"48226","owner":"Mitch Albom","licenseNumber":"203658","licenseType":"Mobile Food Establishment","establishmentType":"LHD - Mobile Food Establishmen","establishmentStatus":"Seasonal","riskCategory":"Medium","reviewFrequencyDays":"395.0","coords":"-83.04668,42.33280","geojson":{"id":"5327","type":"Feature","geometry":{"type":"Point","coordinates":[-83.046682203,42.332796403]},"properties":{"name":"Detroit Water Ice Factory","owner":"Mitch Albom","address":"1014 Woodward Ave","zipcode":"48226","license_type":"Mobile Food Establishment","risk_category":"Medium","license_number":"203658","establishmentid":"5327","establishment_type":"LHD - Mobile Food Establishmen","establishment_status":"Seasonal","review_frequency_days":"395.0","most_recent_license_date":"4/28/2017"}},"nearbyList":[{"establishmentid":"4321","name":"Texas De Brazil","address":"1000 Woodward Ave","zipcode":"48226"},{"establishmentid":"5226","name":"Calexico","address":"1040 Woodward Ave","zipcode":"48226"},{"establishmentid":"5103","name":"Detroit Water Ice Factory ","address":"1014 Woodward Ave","zipcode":"48226"},{"establishmentid":"2728","name":"Hard Rock Cafe","address":"45 Monroe St","zipcode":"48226"},{"establishmentid":"5325","name":"Tim Hortons","address":"49 Monroe St","zipcode":"48226"},{"establishmentid":"2709","name":"Eurest Dining Services-Compuware","address":"1 Campus Martius","zipcode":"48226"},{"establishmentid":"4954","name":"Freshii ","address":"1001 Woodward","zipcode":"48226"},{"establishmentid":"5364","name":"Avalon Hearth and Soul Cafe","address":"1049 Woodward Ave","zipcode":"48226"},{"establishmentid":"4265","name":"Slices Pizza","address":"1043 Woodward Ave","zipcode":"48226"},{"establishmentid":"5392","name":"800 Parc","address":"800 Woodward Ave","zipcode":"48226"}],"inspectionsByEstablishmentidList":[{"inspectionid":"39261","inspectionDate":"2017-07-18T00:00:00","inspectionType":"Mobile Inspection","inCompliance":"Yes","violationsByInspectionidList":[]},{"inspectionid":"36056","inspectionDate":"2016-08-03T00:00:00","inspectionType":"Preopening/New","inCompliance":"Yes","violationsByInspectionidList":[]}]}],"maxInspectionDate":[{"inspectionDate":"2019-10-31T00:00:00"}]}},"pageContext":{"eid":"5327"}}