{"componentChunkName":"component---src-templates-establishment-page-js","path":"/establishment/3301","result":{"data":{"site":{"pathPrefix":"/restaurant-inspections"},"postgres":{"establishment":[{"establishmentid":"3301","name":"Chateau Cuisine","address":"12330 Chalmers Ave.","zipcode":"48205","owner":"Tembekile Nance","licenseNumber":"052315","licenseType":"Fixed Establishment","establishmentType":"Food Service Establishment","establishmentStatus":"Permanently Closed","riskCategory":null,"reviewFrequencyDays":"150","coords":"-82.97465,42.42117","geojson":{"id":"3301","type":"Feature","geometry":{"type":"Point","coordinates":[-82.974650897,42.421172437]},"properties":{"name":"Chateau Cuisine","owner":"Tembekile Nance","address":"12330 Chalmers Ave.","zipcode":"48205","license_type":"Fixed Establishment","risk_category":null,"license_number":"052315","establishmentid":"3301","establishment_type":"Food Service Establishment","establishment_status":"Permanently Closed","review_frequency_days":"150","most_recent_license_date":null}},"nearbyList":[{"establishmentid":"3386","name":"Houston Grill","address":"14299 Houston Whittier","zipcode":"48205"},{"establishmentid":"1059","name":"MAAT IM Hotel Tech Academy","address":"12700 Grover","zipcode":"48205"},{"establishmentid":"921","name":"Mt. Calvary Lutheran School","address":"17100 Chalmers  Ave.","zipcode":"48205"},{"establishmentid":"771","name":"Wheeler's","address":"18018 Chalmers","zipcode":"48205"},{"establishmentid":"1734","name":"Empire Lounge","address":"15000 Houston-Whittier","zipcode":"48205"},{"establishmentid":"51623341","name":"Blue Martini Sports Lounge","address":"15000 Houston Whittier","zipcode":"48205"},{"establishmentid":"1438","name":"Beulah C. Brewer Elementary","address":"12450 Hayes","zipcode":"48205"},{"establishmentid":"51623298","name":"Asian Fisheries ","address":"13516 Gratiot ","zipcode":"48205"},{"establishmentid":"51623675","name":"Buddy's Famous Fish and Chicken","address":"11415 Kelly Rd.","zipcode":"48212"},{"establishmentid":"51623059","name":"Shawerma Shack","address":"11415 Kelly Road","zipcode":"48224"}],"inspectionsByEstablishmentidList":[]}],"maxInspectionDate":[{"inspectionDate":"2023-04-13T00:00:00"}]}},"pageContext":{"eid":"3301"}},"staticQueryHashes":["3649515864","63159454"]}