{"data":{"postgres":{"establishment":[{"establishmentid":"506","name":"Carbon Athletics Club","address":"111 Gates St N","zipcode":"48209","owner":"CARBON ATHLETIC CLUB INC","licenseNumber":"034330","licenseType":"Fixed Establishment","establishmentType":"Food Service Establishment","establishmentStatus":"Open","riskCategory":null,"reviewFrequencyDays":"365.0","coords":"-83.13580,42.29057","geojson":{"id":"506","type":"Feature","geometry":{"type":"Point","coordinates":[-83.1357995939999,42.2905700600001]},"properties":{"name":"Carbon Athletics Club","owner":"CARBON ATHLETIC CLUB INC","address":"111 Gates St N","zipcode":"48209","license_type":"Fixed Establishment","risk_category":null,"license_number":"034330","establishmentid":"506","establishment_type":"Food Service Establishment","establishment_status":"Open","review_frequency_days":"365.0","most_recent_license_date":"4/27/2016"}},"nearbyList":[{"establishmentid":"1606","name":"Prelja's Ham Palace","address":"9405 Fort St W","zipcode":"48209"},{"establishmentid":"3931","name":"Blue Water Exploration Commissary","address":"13000 Denmark St","zipcode":"48217"},{"establishmentid":"1818","name":"Diamond Belle-Blue Water Exploration","address":"13000 Denmark St","zipcode":"48217"},{"establishmentid":"3115","name":"Diamond Queen-Blue Water Exploration","address":"13000 Denmark St","zipcode":"48217"},{"establishmentid":"1580","name":"Diamond Jack-Blue Water Exploration","address":"13000 Denmark St","zipcode":"48217"},{"establishmentid":"1021","name":"Giovanni's Ristorante","address":"330 Oakwood Blvd S","zipcode":"48217"},{"establishmentid":"51622764","name":"Tres Leches 'n Snacks","address":"1210 Lawndale Detroit MI 48209","zipcode":"48209"},{"establishmentid":"4234","name":"Mangonadas Del Barrio","address":"1210-14 Lawndale St","zipcode":"48209"},{"establishmentid":"370","name":"Los Compadres","address":"1132 Lawndale St","zipcode":"48209"},{"establishmentid":"5062","name":"Bag Of Bonez","address":"1250 S Beatrice St","zipcode":"48221"},{"establishmentid":"4960","name":"El Parian Commissary","address":"1633 Lawndale St","zipcode":"48209"},{"establishmentid":"5028","name":"Marisqueria El Emperio","address":"1633 Lawndale St","zipcode":"48209"},{"establishmentid":"51622674","name":"Google Detroit Cafe","address":"52 E Henry St","zipcode":"48218"},{"establishmentid":"4241","name":"Tacos El Toro #3","address":"8191 Chamberlain St","zipcode":"48209"},{"establishmentid":"51622804","name":"Mutiny Bar ","address":"4654 Vernor St","zipcode":"48209"},{"establishmentid":"2823","name":"Power Strip","address":"403 S Dix Ave. ","zipcode":"48217"},{"establishmentid":"469","name":"Puerto Rican Club","address":"8050 Fort St W","zipcode":"48209"},{"establishmentid":"3812","name":"Tacos El Caballo","address":"8084 Rathbone St","zipcode":"48209"},{"establishmentid":"51622762","name":"D's Coney Island","address":"2626 S Schaefer Hwy","zipcode":"48217"},{"establishmentid":"3397","name":"Patton Recreation Center","address":"2301 Woodmere St","zipcode":"48209"}],"inspectionsByEstablishmentidList":[{"inspectionid":"44879","inspectionDate":"2019-01-16T00:00:00","inspectionType":"Routine Inspection","inCompliance":"Yes","violationsByInspectionidList":[]},{"inspectionid":"41688","inspectionDate":"2018-01-18T00:00:00","inspectionType":"Routine Inspection","inCompliance":"Yes","violationsByInspectionidList":[]},{"inspectionid":"37635","inspectionDate":"2017-01-13T00:00:00","inspectionType":"Routine Inspection","inCompliance":"Yes","violationsByInspectionidList":[{"violationCode":"6-301.14","violationDescription":"A sign or poster that notifies FOOD EMPLOYEES to wash their hands shall be provided at all HANDWASHING SINKS used by FOOD EMPLOYEES and shall be clearly visible to FOOD EMPLOYEES.\r\n","violationType":"Core","itemDescription":null,"subItem":"","problemDescription":null,"subProblem":"","location":"BATHROOM","subLocation":"","corrected":"Not required","daysToCorrect":"30.0","correctedDate":null,"correctionDescription":null}]},{"inspectionid":"37636","inspectionDate":"2017-01-13T00:00:00","inspectionType":"Complaint","inCompliance":"Yes","violationsByInspectionidList":[]}]}]}},"pageContext":{"eid":"506"}}