{"componentChunkName":"component---src-templates-establishment-page-js","path":"/establishment/645","result":{"data":{"site":{"pathPrefix":"/restaurant-inspections"},"postgres":{"establishment":[{"establishmentid":"645","name":"Sun-Ya Restaurant","address":"18200 Grand River Ave.","zipcode":"48223","owner":"JIA YIN LIU","licenseNumber":"034560","licenseType":"Fixed Establishment","establishmentType":"Food Service Establishment","establishmentStatus":"Permanently Closed","riskCategory":null,"reviewFrequencyDays":"150","coords":"-83.21971,42.40157","geojson":{"id":"645","type":"Feature","geometry":{"type":"Point","coordinates":[-83.219705109,42.401571951]},"properties":{"name":"Sun-Ya Restaurant","owner":"JIA YIN LIU","address":"18200 Grand River Ave.","zipcode":"48223","license_type":"Fixed Establishment","risk_category":null,"license_number":"034560","establishmentid":"645","establishment_type":"Food Service Establishment","establishment_status":"Permanently Closed","review_frequency_days":"150","most_recent_license_date":"12/4/2006"}},"nearbyList":[{"establishmentid":"787","name":"Omega Grill","address":"18130 Fenkell Ave.","zipcode":"48223"},{"establishmentid":"51622635","name":"Mama DeLuca's ","address":"18284 Grand River","zipcode":"48223"},{"establishmentid":"2773","name":"44 Burritto","address":"18354  Fenkell Ave.","zipcode":"48223"},{"establishmentid":"5417","name":"Brooklyn Fish and Chicken","address":"18354 Fenkell Ave.","zipcode":"48223"},{"establishmentid":"2345","name":"Subway #11686/Mama Delucas","address":"18288 Grand River Ave.","zipcode":"48223"},{"establishmentid":"51623186","name":"McDonald's","address":"18403 Grand River Ave.","zipcode":"48223"},{"establishmentid":"2045","name":"McDonald's #567","address":"18403 Grand River Ave.","zipcode":"48223"},{"establishmentid":"2386","name":"Kentucky Fried Chicken F428107","address":"17750 Fenkell Ave.","zipcode":"48227"},{"establishmentid":"3162","name":"Dinner Thyme Catering","address":"18420 Grand River Ave.","zipcode":"48223"},{"establishmentid":"2649","name":"Subway #30489","address":"17776 Grand River Ave.","zipcode":"48227"}],"inspectionsByEstablishmentidList":[]}],"maxInspectionDate":[{"inspectionDate":"2022-07-25T00:00:00"}]}},"pageContext":{"eid":"645"}},"staticQueryHashes":["3649515864","63159454"]}