{"componentChunkName":"component---src-templates-establishment-page-js","path":"/establishment/3635","result":{"data":{"site":{"pathPrefix":"/restaurant-inspections"},"postgres":{"establishment":[{"establishmentid":"3635","name":"Holy Smoke BBQ","address":"2300 Schaefer S.","zipcode":"48217","owner":"NTTW Inc./Willie Norwood","licenseNumber":"060759","licenseType":"Fixed Establishment","establishmentType":"Food Service Establishment","establishmentStatus":"Open","riskCategory":null,"reviewFrequencyDays":"159","coords":"-83.15023,42.27455","geojson":{"id":"3635","type":"Feature","geometry":{"type":"Point","coordinates":[-83.150228119,42.274552001]},"properties":{"name":"Holy Smoke BBQ","owner":"NTTW Inc./Willie Norwood","address":"2300 Schaefer S.","zipcode":"48217","license_type":"Fixed Establishment","risk_category":null,"license_number":"060759","establishmentid":"3635","establishment_type":"Food Service Establishment","establishment_status":"Open","review_frequency_days":"159","most_recent_license_date":"6/12/2008"}},"nearbyList":[{"establishmentid":"1065","name":"Rollercade Roller Rink","address":"2130 Schaefer Hwy. S.","zipcode":"48217"},{"establishmentid":"5356","name":"BD's Soul Food","address":"2571 Schaefer","zipcode":"48217"},{"establishmentid":"51622762","name":"D's Coney Island","address":"2626 Schaefer S.","zipcode":"48217"},{"establishmentid":"1332","name":"Detroit Coney Island","address":"2626 Schaefer Hwy.S.","zipcode":"48217"},{"establishmentid":"51623548","name":"Crispy Station","address":"1781 S. Fort Street","zipcode":"48217"},{"establishmentid":"51622934","name":"Tacos Regios Mexican grill #2","address":"1781 Fort St. S","zipcode":"48217"},{"establishmentid":"2245","name":"Perfect Beat","address":"1941 Fort St. S.","zipcode":"48217"},{"establishmentid":"5062","name":"Bag Of Bonez","address":"1250 S. Beatrice","zipcode":"48221"},{"establishmentid":"3132","name":"Perfect Cafe","address":"2037  Fort St. S.","zipcode":"48217"},{"establishmentid":"5020","name":"Marathon Oil Refinery","address":"1300  S.FORT","zipcode":"48217"}],"inspectionsByEstablishmentidList":[]}],"maxInspectionDate":[{"inspectionDate":"2022-08-31T00:00:00"}]}},"pageContext":{"eid":"3635"}},"staticQueryHashes":["3649515864","63159454"]}