{"data":{"site":{"pathPrefix":"/restaurant-inspections"},"postgres":{"establishment":[{"establishmentid":"51623227","name":"Quais Truck ( Wayne Co.)","address":"7636 Gratiot Ave","zipcode":"48213","owner":"Omar Anani","licenseNumber":"039332","licenseType":"Special Transitory Food Unit","establishmentType":"LHD - Special Transitory Food","establishmentStatus":null,"riskCategory":null,"reviewFrequencyDays":"90.0","coords":"-83.01589,42.37627","geojson":{"id":"51623227","type":"Feature","geometry":{"type":"Point","coordinates":[-83.015893435,42.37627052]},"properties":{"name":"Quais Truck ( Wayne Co.)","owner":"Omar Anani","address":"7636 Gratiot Ave","zipcode":"48213","license_type":"Special Transitory Food Unit","risk_category":null,"license_number":"039332","establishmentid":"51623227","establishment_type":"LHD - Special Transitory Food","establishment_status":null,"review_frequency_days":"90.0","most_recent_license_date":null}},"nearbyList":[{"establishmentid":"1548","name":"Anani ","address":"7636 Gratiot Ave","zipcode":"48213"},{"establishmentid":"4017","name":"Little Caesars Pizza","address":"7447 Gratiot Ave","zipcode":"48213"},{"establishmentid":"2327","name":"Wendy's ","address":"7850 Gratiot Ave","zipcode":"48213"},{"establishmentid":"4294","name":"King Fish Market","address":"1167 E Grand Blvd","zipcode":"48211"},{"establishmentid":"932","name":"Brewer's Party Room","address":"8225 Gratiot Ave","zipcode":"48213"},{"establishmentid":"51622687","name":"House of BBQ","address":"8300 Gratiot Ave","zipcode":"48213"},{"establishmentid":"3555","name":"Friends of Detroit & Tri County","address":"8230 E Forest Ave","zipcode":"48214"},{"establishmentid":"1302","name":"Krystal's Korner","address":"5700 Canton St","zipcode":"48211"},{"establishmentid":"51622851","name":"Dilla's Delights LLC","address":"4731 Bellevue St","zipcode":"48207"},{"establishmentid":"51622484","name":"Avalon Commissary","address":"4731 Bellevue St","zipcode":"48207"}],"inspectionsByEstablishmentidList":[]}],"maxInspectionDate":[{"inspectionDate":"2020-05-29T00:00:00"}]}},"pageContext":{"eid":"51623227"}}