{"data":{"site":{"pathPrefix":"/restaurant-inspections"},"postgres":{"establishment":[{"establishmentid":"51622883","name":"El Molcajete","address":"4930 Livernois","zipcode":"4821","owner":"Madel R. Solis Soto","licenseNumber":"ps120518","licenseType":"Fixed Establishment","establishmentType":"Food Service Establishment","establishmentStatus":"Open","riskCategory":null,"reviewFrequencyDays":"90.0","coords":"-83.12357,42.33640","geojson":{"id":"51622883","type":"Feature","geometry":{"type":"Point","coordinates":[-83.123565715,42.3363952600001]},"properties":{"name":"El Molcajete","owner":"Madel R. Solis Soto","address":"4930 Livernois","zipcode":"4821","license_type":"Fixed Establishment","risk_category":null,"license_number":"ps120518","establishmentid":"51622883","establishment_type":"Food Service Establishment","establishment_status":"Open","review_frequency_days":"90.0","most_recent_license_date":null}},"nearbyList":[{"establishmentid":"2654","name":"Voyager Academy","address":"4321 N Military","zipcode":"4821"},{"establishmentid":"655","name":"PVT Kozdron Memorial  Home Assoc.","address":"2501 N Campell St","zipcode":"48209"},{"establishmentid":"4966","name":"Rincon Tropical","address":"6538 Michigan Ave","zipcode":"4821"},{"establishmentid":"950","name":"Kwong Village Chinese American","address":"6600 Michigan Ave","zipcode":"4821"},{"establishmentid":"4443","name":"Voyager Consortium","address":"4366 Military","zipcode":"4821"},{"establishmentid":"2953","name":"The Sting","address":"6609 Michigan Ave","zipcode":"4821"},{"establishmentid":"2308","name":"George's Famous Coney Island","address":"6362 Michigan Ave","zipcode":"4821"},{"establishmentid":"51622499","name":"Happys Southwest Detroit","address":"4220 Livernois Ave","zipcode":"4821"},{"establishmentid":"51622875","name":"Happy's Pizza #9","address":"4220 Livernois Ave","zipcode":"4821"},{"establishmentid":"434","name":"Dairy Queen #10216","address":"6677 Michigan Ave","zipcode":"4821"},{"establishmentid":"660","name":"Telway System","address":"6820 Michigan Ave","zipcode":"4821"},{"establishmentid":"1375","name":"McDonald's #7453","address":"6876 Michigan Ave","zipcode":"4821"},{"establishmentid":"546","name":"Hope of Detroit Academy","address":"4443 N Campbell St","zipcode":"4821"},{"establishmentid":"3553","name":"Adi's Coney Island ","address":"6171 Michigan Ave","zipcode":"4821"},{"establishmentid":"51622797","name":"Avdolli Adis Coney Island","address":"6171 Michigan Avenue","zipcode":"4821"},{"establishmentid":"2070","name":"Cesar Chavez Academy","address":"4100 Martin St","zipcode":"4821"},{"establishmentid":"5285","name":"Hope of Detroit Academy Mid/High School","address":"4444 35th Street","zipcode":"4821"},{"establishmentid":"968","name":"Escuela Avancemos/Logan Elementary","address":"3811 Cicotte St","zipcode":"48217"},{"establishmentid":"51622860","name":"Pietrzyk Pierogi","address":"3700 Gilbert Street","zipcode":"4821"},{"establishmentid":"5354","name":"Kaleidoscope Catering","address":"3700 Gilbert Street","zipcode":"4821"}],"inspectionsByEstablishmentidList":[]}]}},"pageContext":{"eid":"51622883"}}