{"componentChunkName":"component---src-templates-establishment-page-js","path":"/establishment/2275","result":{"data":{"site":{"pathPrefix":"/restaurant-inspections"},"postgres":{"establishment":[{"establishmentid":"2275","name":"Dugan's Hot Wings Corp.","address":"16700 Warren Ave. E.","zipcode":"48224","owner":"Dugan's Hot Wings Corp.","licenseNumber":"050730","licenseType":"Fixed Establishment","establishmentType":"Food Service Establishment","establishmentStatus":"Open","riskCategory":null,"reviewFrequencyDays":"150","coords":"-82.93383,42.40435","geojson":{"id":"2275","type":"Feature","geometry":{"type":"Point","coordinates":[-82.933834834,42.4043482]},"properties":{"name":"Dugan's Hot Wings Corp.","owner":"Dugan's Hot Wings Corp.","address":"16700 Warren Ave. E.","zipcode":"48224","license_type":"Fixed Establishment","risk_category":null,"license_number":"050730","establishmentid":"2275","establishment_type":"Food Service Establishment","establishment_status":"Open","review_frequency_days":"150","most_recent_license_date":"2008-08-18"}},"nearbyList":[{"establishmentid":"51622685","name":"House of BBQ","address":"16619 Warren E.","zipcode":"48224"},{"establishmentid":"2810","name":"Mamie's Fine Foods","address":"16619  Warren E.","zipcode":"48224"},{"establishmentid":"1014","name":"L. George's Restaurant Coney Island","address":"16835 Warren Ave. W.","zipcode":"48228"},{"establishmentid":"2466","name":"Pizza Hut #26290","address":"16835 Warren Ave. E.","zipcode":"48224"},{"establishmentid":"3492","name":"Brad's Hot Dogs","address":"16915 E. Warren Ave.","zipcode":"48224"},{"establishmentid":"418","name":"East English Village Bar & Grill","address":"16915 Warren Ave. E.","zipcode":"48224"},{"establishmentid":"1892","name":"Wine Basket","address":"16450 Warren Ave. E.","zipcode":"48224"},{"establishmentid":"226","name":"Olympic Coney Island","address":"17017 Warren Ave E.","zipcode":"48224"},{"establishmentid":"3519","name":"Four Brothers Restaurant","address":"17017 Warren Ave. E. ","zipcode":"48224"},{"establishmentid":"51622784","name":"York Sussex Partners","address":"17017 E. Warren","zipcode":"48224"}],"inspectionsByEstablishmentidList":[]}],"maxInspectionDate":[{"inspectionDate":"2023-04-25T00:00:00"}]}},"pageContext":{"eid":"2275"}},"staticQueryHashes":["3649515864","63159454"]}