{"data":{"site":{"pathPrefix":"/restaurant-inspections"},"postgres":{"establishment":[{"establishmentid":"734","name":"Verdell's Lounge","address":"14826 Plymouth Rd","zipcode":"48227","owner":"Willie Verdell","licenseNumber":"034710","licenseType":"Fixed Establishment","establishmentType":"Food Service Establishment","establishmentStatus":"Open","riskCategory":"Medium","reviewFrequencyDays":"365.0","coords":"-83.19056,42.37296","geojson":{"id":"734","type":"Feature","geometry":{"type":"Point","coordinates":[-83.190560658,42.372959854]},"properties":{"name":"Verdell's Lounge","owner":"Willie Verdell","address":"14826 Plymouth Rd","zipcode":"48227","license_type":"Fixed Establishment","risk_category":"Medium","license_number":"034710","establishmentid":"734","establishment_type":"Food Service Establishment","establishment_status":"Open","review_frequency_days":"365.0","most_recent_license_date":null}},"nearbyList":[{"establishmentid":"5065","name":"Johnson's Southern Bar And Grille","address":"14701 Plymouth Rd","zipcode":"48227"},{"establishmentid":"2454","name":"Happy's Pizza #6","address":"15128 Plymouth Rd","zipcode":"48227"},{"establishmentid":"722","name":"Club Celebrity","address":"14421 Plymouth Rd","zipcode":"48227"},{"establishmentid":"3431","name":"Checkers Hamburgers #6238","address":"11641 Greenfield Rd","zipcode":"48227"},{"establishmentid":"3535","name":"Front Page Deli","address":"14744 W Chicago","zipcode":"48228"},{"establishmentid":"1587","name":"McDonald's #12308","address":"15501 Plymouth Rd","zipcode":"48227"},{"establishmentid":"631","name":"Ice Night Club","address":"9933 Greenfield","zipcode":"48227"},{"establishmentid":"1560","name":"Mr. Steve's Pizza","address":"9911 Greenfield Ave","zipcode":"48227"},{"establishmentid":"1699","name":"Salvation Army-Detroit Grandale Corp.","address":"11325 Montrose Ave","zipcode":"48227"},{"establishmentid":"1075","name":"Omega Coney Island","address":"9500 Greenfield Rd","zipcode":"48227"},{"establishmentid":"3463","name":"Breithaupt Career/Technical Center","address":"9300 Hubbell Ave","zipcode":"48228"},{"establishmentid":"1162","name":"Church's Fried Chicken #868","address":"15525 W Chicago","zipcode":"48228"},{"establishmentid":"2647","name":"Captain Jay's Fish & Chicken #101","address":"9233 Greenfield Ave","zipcode":"48228"},{"establishmentid":"5215","name":"Showtime Ice Cream","address":"12874 Greenfield Rd","zipcode":"48227"},{"establishmentid":"1581","name":"Club Jovonnes","address":"9138 Greenfield Rd","zipcode":"48228"},{"establishmentid":"527","name":"Lon's Ham and Corned Beef","address":"13600 Chicago Ave W","zipcode":"48228"},{"establishmentid":"1190","name":"Popeye's Chicken & Biscuits","address":"8997 Greenfield Rd","zipcode":"48228"},{"establishmentid":"4992","name":"Glasshouse Bar and Grill","address":"14301 Grand River Ave","zipcode":"48227"},{"establishmentid":"5228","name":"All Star Fish & Seafood Inc.","address":"13585 Greenfield Rd","zipcode":"48227"},{"establishmentid":"892","name":"Henderson Jemison Academy PK-8","address":"16101 W Chicago Rd","zipcode":"48228"}],"inspectionsByEstablishmentidList":[{"inspectionid":"43222","inspectionDate":"2018-08-23T00:00:00","inspectionType":"Routine Inspection","inCompliance":"Yes","violationsByInspectionidList":[]},{"inspectionid":"39366","inspectionDate":"2017-07-25T00:00:00","inspectionType":"Routine Inspection","inCompliance":"Yes","violationsByInspectionidList":[]}]}]}},"pageContext":{"eid":"734"}}