{"componentChunkName":"component---src-templates-establishment-page-js","path":"/establishment/51623068","result":{"data":{"site":{"pathPrefix":"/restaurant-inspections"},"postgres":{"establishment":[{"establishmentid":"51623068","name":"Dr. Sushi","address":"323 Grand Blv. W.","zipcode":"48216","owner":"Nicholas George","licenseNumber":"19097-D","licenseType":"Special Transitory Food Unit","establishmentType":"Food Service Establishment","establishmentStatus":"Plan Review","riskCategory":null,"reviewFrequencyDays":null,"coords":"-83.08674,42.31875","geojson":{"id":"51623068","type":"Feature","geometry":{"type":"Point","coordinates":[-83.086743882,42.318753165]},"properties":{"name":"Dr. Sushi","owner":"Nicholas George","address":"323 Grand Blv. W.","zipcode":"48216","license_type":"Special Transitory Food Unit","risk_category":null,"license_number":"19097-D","establishmentid":"51623068","establishment_type":"Food Service Establishment","establishment_status":"Plan Review","review_frequency_days":null,"most_recent_license_date":null}},"nearbyList":[{"establishmentid":"51623477","name":"Covenant House Academy-Southwest","address":"1450 25th Street","zipcode":"48216"},{"establishmentid":"821","name":"Covenant House Academy-Southwest","address":"1450 25th St.","zipcode":"48216"},{"establishmentid":"5260","name":"Carne Asada y Tacos Dorados","address":"1538  Vinewood","zipcode":"48216"},{"establishmentid":"4176","name":"Amelia Earhart Elementary/Middle School","address":"1000 Scotten","zipcode":"48209"},{"establishmentid":"875","name":"Earhart Middle School","address":"1000 Scotten Ave.","zipcode":"48209"},{"establishmentid":"1454","name":"Mexican Town Restaurant","address":"3457 Bagley","zipcode":"48216"},{"establishmentid":"1632","name":"Taqueria Lupitas","address":"3443 Bagley","zipcode":"48216"},{"establishmentid":"1297","name":"Evie's Tamales","address":"3454 Bagley","zipcode":"48216"},{"establishmentid":"822","name":"Western Senior High School","address":"1500 Scotten Ave.","zipcode":"48209"},{"establishmentid":"820","name":"Giovanna's Lounge ","address":"3537 Vernor St. W.","zipcode":"48216"}],"inspectionsByEstablishmentidList":[]}],"maxInspectionDate":[{"inspectionDate":"2023-04-13T00:00:00"}]}},"pageContext":{"eid":"51623068"}},"staticQueryHashes":["3649515864","63159454"]}