{"data":{"postgres":{"establishment":[{"establishmentid":"550","name":"Pandora's Boxx, LLC","address":"6221 E Davison Ave","zipcode":"48212","owner":"Viola Mines","licenseNumber":"053571","licenseType":"Fixed Establishment","establishmentType":"Food Service Establishment","establishmentStatus":"Open","riskCategory":null,"reviewFrequencyDays":"365.0","coords":"-83.03932,42.42349","geojson":{"id":"550","type":"Feature","geometry":{"type":"Point","coordinates":[-83.0393177779999,42.4234897920001]},"properties":{"name":"Pandora's Boxx, LLC","owner":"Viola Mines","address":"6221 E Davison Ave","zipcode":"48212","license_type":"Fixed Establishment","risk_category":null,"license_number":"053571","establishmentid":"550","establishment_type":"Food Service Establishment","establishment_status":"Open","review_frequency_days":"365.0","most_recent_license_date":"5/15/2015"}},"nearbyList":[{"establishmentid":"605","name":"Two Way Inn","address":"17897 Mt Elliott St","zipcode":"48212"},{"establishmentid":"302","name":"Original Marcus Hamburger","address":"6349 E McNichols Rd","zipcode":"48212"},{"establishmentid":"560","name":"Tippin Inn, Inc.","address":"18430-34 Mt Elliott","zipcode":"48234"},{"establishmentid":"629","name":"V.F.W. Post #2233 James Europe","address":"18651 Mound Rd","zipcode":"48234"},{"establishmentid":"1724","name":"Cornerstone School","address":"6861 E Nevada St","zipcode":"48234"},{"establishmentid":"361","name":"Brandy's on 7","address":"6141 E Seven Mile Rd","zipcode":"48234"},{"establishmentid":"1213","name":"Chili Boys (Lou's Coney Island)","address":"19100 Mound Rd","zipcode":"48234"},{"establishmentid":"4987","name":"Playhouse Entertainment East","address":"7468 E Davison Ave","zipcode":"48212"},{"establishmentid":"1095","name":"Jons Coney Island","address":"5101 E McNichols Ave","zipcode":"48212"},{"establishmentid":"492","name":"Escape Lounge","address":"19404 Sherwood","zipcode":"48234"}],"inspectionsByEstablishmentidList":[{"inspectionid":"36221","inspectionDate":"2016-08-24T00:00:00","inspectionType":"Closed - Temporary","inCompliance":"Yes","violationsByInspectionidList":[]}]}]}},"pageContext":{"eid":"550"}}