{"componentChunkName":"component---src-templates-establishment-page-js","path":"/establishment/1590","result":{"data":{"site":{"pathPrefix":"/restaurant-inspections"},"postgres":{"establishment":[{"establishmentid":"1590","name":"Marvin L. Winans Academy (High School)","address":"7616 Nevada E.","zipcode":"48234","owner":"Detroit Board of Education","licenseNumber":"081179","licenseType":"Fixed Establishment","establishmentType":"Non-Public School","establishmentStatus":"Permanently Closed","riskCategory":null,"reviewFrequencyDays":"180","coords":"-83.02497,42.42645","geojson":{"id":"1590","type":"Feature","geometry":{"type":"Point","coordinates":[-83.024970395,42.426445393]},"properties":{"name":"Marvin L. Winans Academy (High School)","owner":"Detroit Board of Education","address":"7616 Nevada E.","zipcode":"48234","license_type":"Fixed Establishment","risk_category":null,"license_number":"081179","establishmentid":"1590","establishment_type":"Non-Public School","establishment_status":"Permanently Closed","review_frequency_days":"180","most_recent_license_date":"5/15/2015"}},"nearbyList":[{"establishmentid":"4742","name":"Perfecting Church","address":"7616  E. Nevada","zipcode":"48234"},{"establishmentid":"51623728","name":"O'quin's Stamps Surf & Turf","address":"18341 Van Dyke","zipcode":"48234"},{"establishmentid":"547","name":"Helen Diasons Lounge Inc.","address":"18341 Van Dyke Ave.","zipcode":"48234"},{"establishmentid":"4477","name":"Senior Community Exchange","address":"18341 Van Dyke Ave. ","zipcode":"48234"},{"establishmentid":"814","name":"Bev's Backstreet Lounge","address":"7468 Davison Ave. E.","zipcode":"48234"},{"establishmentid":"4987","name":"Playhouse Entertainment East","address":"7468 Davison E","zipcode":"48212"},{"establishmentid":"51623172","name":"Sexy Secrets","address":"7468 E. Davison","zipcode":"48212"},{"establishmentid":"810","name":"Grant Elementary","address":"7479 Stockton","zipcode":"48212"},{"establishmentid":"531","name":"Wing's Chop Suey","address":"18700 Van Dyke Ave.","zipcode":"48234"},{"establishmentid":"1724","name":"Jefferson Douglass Academy","address":"6861 Nevada E.","zipcode":"48234"}],"inspectionsByEstablishmentidList":[]}],"maxInspectionDate":[{"inspectionDate":"2022-07-25T00:00:00"}]}},"pageContext":{"eid":"1590"}},"staticQueryHashes":["3649515864","63159454"]}