{"componentChunkName":"component---src-templates-establishment-page-js","path":"/establishment/51623207","result":{"data":{"site":{"pathPrefix":"/restaurant-inspections"},"postgres":{"establishment":[{"establishmentid":"51623207","name":"DC Novelty Eats","address":"17188 Braile","zipcode":"48219","owner":"Dentri Clemons","licenseNumber":"260872","licenseType":"Mobile Food Establishment","establishmentType":"LHD - Mobile Food Establishmen","establishmentStatus":"Plan Review","riskCategory":null,"reviewFrequencyDays":null,"coords":"-83.24573,42.41627","geojson":{"id":"51623207","type":"Feature","geometry":{"type":"Point","coordinates":[-83.245729972,42.416265754]},"properties":{"name":"DC Novelty Eats","owner":"Dentri Clemons","address":"17188 Braile","zipcode":"48219","license_type":"Mobile Food Establishment","risk_category":null,"license_number":"260872","establishmentid":"51623207","establishment_type":"LHD - Mobile Food Establishmen","establishment_status":"Plan Review","review_frequency_days":null,"most_recent_license_date":null}},"nearbyList":[{"establishmentid":"1592","name":"Christ the King Grade School","address":"16800 Trinity ","zipcode":"48219"},{"establishmentid":"676","name":"J's Cafe LLC","address":"20853 Grand River Ave.","zipcode":"48219"},{"establishmentid":"2462","name":"Pizza Hut #407040","address":"20939 Grand River Ave.","zipcode":"48219"},{"establishmentid":"2217","name":"Ippissee","address":"20655 Grand River Ave.","zipcode":"48219"},{"establishmentid":"1186","name":"Taco Bell #1432","address":"20540 Grand River Ave.","zipcode":"48219"},{"establishmentid":"51624009","name":"Manhattan Fish &  Chicken ","address":"20540  Grand  River Ave ","zipcode":"48219"},{"establishmentid":"216","name":"Prince Pizza","address":"21227 Grand River Ave.","zipcode":"48219"},{"establishmentid":"1362","name":"Rono's Carry Out Restaurant","address":"20211 McNichols Rd. W.","zipcode":"48219"},{"establishmentid":"3144","name":"Blackberry Bar & Grill","address":"20551 Grand River Ave.","zipcode":"48219"},{"establishmentid":"51622583","name":"Chops Grill","address":"20551 Grand River","zipcode":"48219"}],"inspectionsByEstablishmentidList":[{"inspectionid":"59264","inspectionDate":"2021-07-07T00:00:00","inspectionType":"Preopening/New","inCompliance":"Yes","violationsByInspectionidList":[{"violationCode":"4-402.11","violationDescription":"EQUIPMENT that is fixed because it is not EASILY MOVABLE shall be installed so that it is spaced to allow access for cleaning along the sides, behind, and above the EQUIPMENT or sealed as required,  COUNTER-MOUNTED EQUIPMENT that is not EASILY MOVABLE shall be installed to allow cleaning of the EQUIPMENT and areas underneath and around the EQUIPMENT .\n","violationType":"Core","itemDescription":"Fixed equipment","subItem":"","problemDescription":"Not sealed to adjoining","subProblem":"","location":"FOOD TRUCK","subLocation":"","corrected":"False","daysToCorrect":"30","correctedDate":null,"correctionDescription":null}]}]}],"maxInspectionDate":[{"inspectionDate":"2023-04-13T00:00:00"}]}},"pageContext":{"eid":"51623207"}},"staticQueryHashes":["3649515864","63159454"]}