{"componentChunkName":"component---src-templates-establishment-page-js","path":"/establishment/51623317","result":{"data":{"site":{"pathPrefix":"/restaurant-inspections"},"postgres":{"establishment":[{"establishmentid":"51623317","name":"Tasty Fixins Catering LLC","address":"7450 Vaughan","zipcode":"48228","owner":"Carla Mason","licenseNumber":"262561","licenseType":"Special Transitory Food Unit","establishmentType":"LHD - Special Transitory Food","establishmentStatus":"Plan Review","riskCategory":"High","reviewFrequencyDays":null,"coords":"-83.23650,42.34667","geojson":{"id":"51623317","type":"Feature","geometry":{"type":"Point","coordinates":[-83.236504243,42.346667496]},"properties":{"name":"Tasty Fixins Catering LLC","owner":"Carla Mason","address":"7450 Vaughan","zipcode":"48228","license_type":"Special Transitory Food Unit","risk_category":"High","license_number":"262561","establishmentid":"51623317","establishment_type":"LHD - Special Transitory Food","establishment_status":"Plan Review","review_frequency_days":null,"most_recent_license_date":"2022-04-27"}},"nearbyList":[{"establishmentid":"3754","name":"Motown's Fresh Fish & Soul","address":"20106 Warren Ave. W.","zipcode":"48228"},{"establishmentid":"1443","name":"Pizza Way","address":"20039 Warren Ave. W.","zipcode":"48228"},{"establishmentid":"690","name":"Diamond Jim's Saloon","address":"19650 Warren Ave. W.","zipcode":"48228"},{"establishmentid":"599","name":"Big Joe's Sports Saloon","address":"20428 Warren Ave. W.","zipcode":"48228"},{"establishmentid":"1238","name":"Kosciusko Elementary School","address":"20220 Tireman","zipcode":"48228"},{"establishmentid":"4611","name":"Darna Pizzeria & Restaurant","address":"20510 Warren W.","zipcode":"48228"},{"establishmentid":"2410","name":"King Wah Chop Suey","address":"20510 Warren Ave. W.","zipcode":"48228"},{"establishmentid":"368","name":"Juan's Corned Beef","address":"19533 Warren Ave. W.","zipcode":"48228"},{"establishmentid":"4137","name":"Old Fashion Hamburger Company","address":"19533 Warren Ave. W","zipcode":"48228"},{"establishmentid":"1933","name":"Warrendale Academy","address":"19400 Sawyer","zipcode":"48228"}],"inspectionsByEstablishmentidList":[{"inspectionid":"54877","inspectionDate":"2021-04-29T00:00:00","inspectionType":"Preopening/New","inCompliance":"Yes","violationsByInspectionidList":[]}]}],"maxInspectionDate":[{"inspectionDate":"2023-04-25T00:00:00"}]}},"pageContext":{"eid":"51623317"}},"staticQueryHashes":["3649515864","63159454"]}