{"componentChunkName":"component---src-templates-establishment-page-js","path":"/establishment/4390","result":{"data":{"site":{"pathPrefix":"/restaurant-inspections"},"postgres":{"establishment":[{"establishmentid":"4390","name":"Full Belly Org / Natural Jazz Blues Cafe","address":"5041 Nevada St. E.","zipcode":"48234","owner":"Isabelle Gaddie","licenseNumber":"072451","licenseType":"Fixed Establishment","establishmentType":"Food Service Establishment","establishmentStatus":"Open","riskCategory":null,"reviewFrequencyDays":"150","coords":"-83.05213,42.42632","geojson":{"id":"4390","type":"Feature","geometry":{"type":"Point","coordinates":[-83.052127442,42.426315633]},"properties":{"name":"Full Belly Org / Natural Jazz Blues Cafe","owner":"Isabelle Gaddie","address":"5041 Nevada St. E.","zipcode":"48234","license_type":"Fixed Establishment","risk_category":null,"license_number":"072451","establishmentid":"4390","establishment_type":"Food Service Establishment","establishment_status":"Open","review_frequency_days":"150","most_recent_license_date":null}},"nearbyList":[{"establishmentid":"4128","name":"Legacy Charter Academy","address":"4900 Hildale St. E.","zipcode":"48234"},{"establishmentid":"896","name":"Atkinson Elementary","address":"4900 Hildale St. E.","zipcode":"48238"},{"establishmentid":"3223","name":"Millennium Hall","address":"5186 Davison Ave. E.","zipcode":"48212"},{"establishmentid":"1432","name":"Taylor Made Burgers","address":"4844 Seven Mile Rd. E.","zipcode":"48234"},{"establishmentid":"1935","name":"Kams Chop Suey","address":"5113 Seven Mile Rd. E.","zipcode":"48234"},{"establishmentid":"1446","name":"Blue Martini Lounge LLC.","address":"5444 Davison Ave. E.","zipcode":"48212"},{"establishmentid":"51623220","name":"Hillside Chicken & Waffles","address":"5101 E. McNichols","zipcode":"48212"},{"establishmentid":"1095","name":"Jons Coney Island","address":"5101 McNichols Ave. E.","zipcode":"48212"},{"establishmentid":"51622984","name":"Pits and Johnny's Coney Island","address":"5101 E. McNichols","zipcode":"48212"},{"establishmentid":"51623645","name":"Boostan Cafe Detroit","address":"5101 McNicols E.","zipcode":"48212"}],"inspectionsByEstablishmentidList":[]}],"maxInspectionDate":[{"inspectionDate":"2023-04-25T00:00:00"}]}},"pageContext":{"eid":"4390"}},"staticQueryHashes":["3649515864","63159454"]}