{"componentChunkName":"component---src-templates-establishment-page-js","path":"/establishment/903","result":{"data":{"site":{"pathPrefix":"/restaurant-inspections"},"postgres":{"establishment":[{"establishmentid":"903","name":"Burroughs Middle School","address":"8950 St. Cyril","zipcode":"48238","owner":"BOARD OF ED CITY OF DETROIT","licenseNumber":"034937","licenseType":"Fixed Establishment","establishmentType":"Public School","establishmentStatus":null,"riskCategory":null,"reviewFrequencyDays":"150","coords":"-83.02650,42.39411","geojson":{"id":"903","type":"Feature","geometry":{"type":"Point","coordinates":[-83.026496415,42.394108741]},"properties":{"name":"Burroughs Middle School","owner":"BOARD OF ED CITY OF DETROIT","address":"8950 St. Cyril","zipcode":"48238","license_type":"Fixed Establishment","risk_category":null,"license_number":"034937","establishmentid":"903","establishment_type":"Public School","establishment_status":null,"review_frequency_days":"150","most_recent_license_date":"12/4/2006"}},"nearbyList":[{"establishmentid":"2946","name":"Crockett Technical High School","address":"8950  St. Cyril","zipcode":"48211"},{"establishmentid":"5349","name":"Total Vending","address":"6836 Georgia St.","zipcode":"48211"},{"establishmentid":"809","name":"Cooper Elementary","address":"6836 Georgia St.","zipcode":"48212"},{"establishmentid":"51622665","name":"Van Dyke Coney Island","address":"9235 Van Dyke","zipcode":"48213"},{"establishmentid":"1971","name":"Mark's Motown Coney Island","address":"8528 Van Dyke Ave.","zipcode":"48213"},{"establishmentid":"2793","name":"Robinson Dairy Vending","address":"6425 Huber","zipcode":"48211"},{"establishmentid":"3021","name":"Robinson Dairy Vending","address":"6425 Huber","zipcode":"48211"},{"establishmentid":"2780","name":"Variety Vending","address":"6425 Huber","zipcode":"48211"},{"establishmentid":"3020","name":"Robinson Dairy Vending","address":"6425 Huber","zipcode":"48211"},{"establishmentid":"3064","name":"Variety Vending","address":"6425 Huber","zipcode":"48211"}],"inspectionsByEstablishmentidList":[]}],"maxInspectionDate":[{"inspectionDate":"2022-08-31T00:00:00"}]}},"pageContext":{"eid":"903"}},"staticQueryHashes":["3649515864","63159454"]}