{"componentChunkName":"component---src-templates-establishment-page-js","path":"/establishment/957","result":{"data":{"site":{"pathPrefix":"/restaurant-inspections"},"postgres":{"establishment":[{"establishmentid":"957","name":"Brooklyn Corn Beef Deli","address":"14228 Fenkell Ave.","zipcode":"48227","owner":"Gjoko Marniku","licenseNumber":"052314  ","licenseType":"Fixed Establishment","establishmentType":"Food Service Establishment","establishmentStatus":"Permanently Closed","riskCategory":null,"reviewFrequencyDays":"335","coords":"-83.18526,42.40209","geojson":{"id":"957","type":"Feature","geometry":{"type":"Point","coordinates":[-83.185258711,42.402088131]},"properties":{"name":"Brooklyn Corn Beef Deli","owner":"Gjoko Marniku","address":"14228 Fenkell Ave.","zipcode":"48227","license_type":"Fixed Establishment","risk_category":null,"license_number":"052314  ","establishmentid":"957","establishment_type":"Food Service Establishment","establishment_status":"Permanently Closed","review_frequency_days":"335","most_recent_license_date":null}},"nearbyList":[{"establishmentid":"4521","name":"Coney Castle LLC","address":"14228 Fenkell Ave.","zipcode":"48227"},{"establishmentid":"5153","name":"Davis Coney Island","address":"14228 Fenkell Ave.","zipcode":"48227"},{"establishmentid":"51623360","name":"5 Mile Grill","address":"14300 Fenkell","zipcode":"48227"},{"establishmentid":"51623546","name":"Urban Grill  ","address":"14501 Fenkell ","zipcode":"48227"},{"establishmentid":"4298","name":"Michigan Starz Dairy","address":"14501 Fenkell St.","zipcode":"48227"},{"establishmentid":"1866","name":"Lee's Texas Style Bar-B-Que","address":"14001 Fenkell","zipcode":"48227"},{"establishmentid":"4108","name":"Captain Crust II","address":"14535 Fenkell","zipcode":"48227"},{"establishmentid":"51622917","name":"Yoshi Hibachi Grille/Yum Yoshi LLC","address":"14535 Fenkell","zipcode":"48203"},{"establishmentid":"4144","name":"Lucky's Pizza","address":"14535 Fenkell St.","zipcode":"48227"},{"establishmentid":"5184","name":"Fats Pizza & Grill LLC","address":"14535 Fenkell Ave.","zipcode":"48227"}],"inspectionsByEstablishmentidList":[]}],"maxInspectionDate":[{"inspectionDate":"2023-04-25T00:00:00"}]}},"pageContext":{"eid":"957"}},"staticQueryHashes":["3649515864","63159454"]}