{"componentChunkName":"component---src-templates-establishment-page-js","path":"/establishment/4502","result":{"data":{"site":{"pathPrefix":"/restaurant-inspections"},"postgres":{"establishment":[{"establishmentid":"4502","name":"All Star Services","address":"3399 E. McNichols","zipcode":"48219","owner":"Jeffrey Smith","licenseNumber":"044698","licenseType":"Other","establishmentType":"LHD - Vending","establishmentStatus":null,"riskCategory":null,"reviewFrequencyDays":"500","coords":"-83.06691,42.41884","geojson":{"id":"4502","type":"Feature","geometry":{"type":"Point","coordinates":[-83.0669068,42.418839309]},"properties":{"name":"All Star Services","owner":"Jeffrey Smith","address":"3399 E. McNichols","zipcode":"48219","license_type":"Other","risk_category":null,"license_number":"044698","establishmentid":"4502","establishment_type":"LHD - Vending","establishment_status":null,"review_frequency_days":"500","most_recent_license_date":null}},"nearbyList":[{"establishmentid":"749","name":"Buddy's Rendezvous Pizza","address":"17125 Conant","zipcode":"48212"},{"establishmentid":"51622459","name":"Dearborn Dairy LLC","address":"17351 Conant","zipcode":"48212"},{"establishmentid":"745","name":"M & M Sports Bar","address":"13837 Conant","zipcode":"48212"},{"establishmentid":"577","name":"Man Dees Lounge","address":"17132 Conant","zipcode":"48234"},{"establishmentid":"464","name":"JoAnn's Bar-B-Q","address":"3139 Jerome ","zipcode":"48212"},{"establishmentid":"1363","name":"Evans Recreation Center","address":"13950 Joseph Campau","zipcode":"48207"},{"establishmentid":"4706","name":"Cruisin Cafe","address":"17375 Gallagher","zipcode":"48212"},{"establishmentid":"2206","name":"Owens Ventures","address":"17385 Ryan","zipcode":"48212"},{"establishmentid":"51623571","name":"Detroit Best Wings","address":"4128 McNichols E.","zipcode":"48212"},{"establishmentid":"2090","name":"Family Soft Ice Cream","address":"17853 Conant","zipcode":"48212"}],"inspectionsByEstablishmentidList":[]}],"maxInspectionDate":[{"inspectionDate":"2023-04-25T00:00:00"}]}},"pageContext":{"eid":"4502"}},"staticQueryHashes":["3649515864","63159454"]}