{"data":{"site":{"pathPrefix":"/restaurant-inspections"},"postgres":{"establishment":[{"establishmentid":"51623210","name":"Mystic Kettle (Oakland)","address":"12720 Talbot Ave","zipcode":"4807","owner":"Randy Lipman","licenseNumber":"039165","licenseType":"Special Transitory Food Unit","establishmentType":"LHD - Special Transitory Food","establishmentStatus":"Seasonal","riskCategory":null,"reviewFrequencyDays":"90.0","coords":"-83.05152,42.40662","geojson":{"id":"51623210","type":"Feature","geometry":{"type":"Point","coordinates":[-83.051523224,42.406624882]},"properties":{"name":"Mystic Kettle (Oakland)","owner":"Randy Lipman","address":"12720 Talbot Ave","zipcode":"4807","license_type":"Special Transitory Food Unit","risk_category":null,"license_number":"039165","establishmentid":"51623210","establishment_type":"LHD - Special Transitory Food","establishment_status":"Seasonal","review_frequency_days":"90.0","most_recent_license_date":null}},"nearbyList":[{"establishmentid":"5421","name":"Ali's Pizza","address":"11608 Conant St","zipcode":"48212"},{"establishmentid":"3373","name":"Reshmi Sweets & Cafe","address":"12170 Conant Ave","zipcode":"48212"},{"establishmentid":"917","name":"White Academy ","address":"5161 Charles St","zipcode":"48207"},{"establishmentid":"4809","name":"Moe's Ice Cream","address":"3833 Evaline St","zipcode":"48212"},{"establishmentid":"4047","name":"Omar's Soft Serve","address":"3833 Evaline St","zipcode":"48212"},{"establishmentid":"51622666","name":"New Al Baraka Restaurant LLC","address":"3611 Carpenter St Ste 1","zipcode":"48212"},{"establishmentid":"4115","name":"Al Baraka Restaurant","address":"3611 Carpenter St","zipcode":"48212"},{"establishmentid":"51622972","name":"Modhubann Sweet & Cafe ","address":"3611 Carpenter St ","zipcode":"48212"},{"establishmentid":"4949","name":"Frontier International Academy","address":"13200 Conant St","zipcode":"48212"},{"establishmentid":"4402","name":"Bridge Academy West","address":"3105 Carpenter St","zipcode":"48212"}],"inspectionsByEstablishmentidList":[]}],"maxInspectionDate":[{"inspectionDate":"2020-05-29T00:00:00"}]}},"pageContext":{"eid":"51623210"}}