{"componentChunkName":"component---src-templates-establishment-page-js","path":"/establishment/51623627","result":{"data":{"site":{"pathPrefix":"/restaurant-inspections"},"postgres":{"establishment":[{"establishmentid":"51623627","name":"Manhattan Crispy Fish & Chicken","address":"10715 Eight Mile","zipcode":"48212","owner":"Mohammed Al Halemi","licenseNumber":"PS011422","licenseType":"Fixed Establishment","establishmentType":"Food Service Establishment","establishmentStatus":null,"riskCategory":null,"reviewFrequencyDays":null,"coords":"-83.16958,42.44520","geojson":{"id":"51623627","type":"Feature","geometry":{"type":"Point","coordinates":[-83.169583103,42.445201763]},"properties":{"name":"Manhattan Crispy Fish & Chicken","owner":"Mohammed Al Halemi","address":"10715 Eight Mile","zipcode":"48212","license_type":"Fixed Establishment","risk_category":null,"license_number":"PS011422","establishmentid":"51623627","establishment_type":"Food Service Establishment","establishment_status":null,"review_frequency_days":null,"most_recent_license_date":null}},"nearbyList":[{"establishmentid":"51623550","name":"Reef Kitchens #09 (Fixed Trailer)","address":"10801 Eight Mile W.","zipcode":"48221"},{"establishmentid":"51623609","name":"U Cheffin Right LLC","address":"20515 Griggs","zipcode":"48221"},{"establishmentid":"3716","name":"Chik-N-Wings","address":"10145 Eight Mile Rd. W.","zipcode":"48221"},{"establishmentid":"588","name":"Hot Tamales","address":"13109 Eight Mile Rd. W.","zipcode":"48235"},{"establishmentid":"51623188","name":"Gridiron Taco","address":"19780 Meyers","zipcode":"48227"},{"establishmentid":"5084","name":"Word In Action Christian Center","address":"19780 Meyers","zipcode":"48227"},{"establishmentid":"1550","name":"Michigan Technical Academy/Meyers","address":"19780 Meyers Ave.","zipcode":"48235"},{"establishmentid":"51623556","name":"Wyoming Avenue Church of Christ","address":"20131 Wyoming","zipcode":"48221"},{"establishmentid":"825","name":"Bates Academy","address":"19701 Wyoming Ave.","zipcode":"48221"},{"establishmentid":"4343","name":"Subway","address":"13541  Eight Mile Rd. W.","zipcode":"48235"}],"inspectionsByEstablishmentidList":[]}],"maxInspectionDate":[{"inspectionDate":"2022-08-31T00:00:00"}]}},"pageContext":{"eid":"51623627"}},"staticQueryHashes":["3649515864","63159454"]}