{"data":{"site":{"pathPrefix":"/restaurant-inspections"},"postgres":{"establishment":[{"establishmentid":"51622594","name":"Albena- Taste Everything LLC","address":"1509 Broadway St","zipcode":"48226","owner":"Garrett Lipar","licenseNumber":"229298","licenseType":"Fixed Establishment","establishmentType":"Food Service Establishment","establishmentStatus":"Open","riskCategory":"High","reviewFrequencyDays":"180","coords":"-83.04865,42.33570","geojson":{"id":"51622594","type":"Feature","geometry":{"type":"Point","coordinates":[-83.048646503,42.335696301]},"properties":{"name":"Albena- Taste Everything LLC","owner":"Garrett Lipar","address":"1509 Broadway St","zipcode":"48226","license_type":"Fixed Establishment","risk_category":"High","license_number":"229298","establishmentid":"51622594","establishment_type":"Food Service Establishment","establishment_status":"Open","review_frequency_days":"180","most_recent_license_date":"4/26/2019"}},"nearbyList":[{"establishmentid":"51622842","name":"HMWW Food LLC dba Karl's The Siren ","address":"1509 Broadway St","zipcode":"48226"},{"establishmentid":"51622595","name":"The Wurlitzer MT DBA Candy Bar","address":"1509 Broadway St","zipcode":"48226"},{"establishmentid":"51622592","name":"1509 Populace LLC","address":"1509 Broadway St","zipcode":"48226"},{"establishmentid":"51622844","name":"Paramita Sound","address":"1515 Broadway Suite C","zipcode":"48226"},{"establishmentid":"51622822","name":"Sid Gold's Request Room","address":"1515 Broadway St","zipcode":"48226"},{"establishmentid":"4373","name":"Small Plates LLC","address":"1521 Broadway St","zipcode":"48226"},{"establishmentid":"2614","name":"Detroit Beer Co.","address":"1529 Broadway St","zipcode":"48226"},{"establishmentid":"51622965","name":"The Monarch Club","address":"33 John R","zipcode":"48226"},{"establishmentid":"51622878","name":"Element Detroit at the Metropolitan 1A","address":"33 John R Ave","zipcode":"48226"},{"establishmentid":"51622877","name":"Element Detroit at the Metro- Banquets","address":"33 John R Ave","zipcode":"48226"}],"inspectionsByEstablishmentidList":[{"inspectionid":"43295","inspectionDate":"2018-06-25T00:00:00","inspectionType":"Preopening/New","inCompliance":"Yes","violationsByInspectionidList":[{"violationCode":"6-201.13","violationDescription":"(A) In FOOD ESTABLISHMENTS in which cleaning methods other than water flushing are used for cleaning floors, the floor and wall junctures shall be coved and closed to no larger than one thirty-second inch.\r\n(B) The floors in FOOD ESTABLISHMENTS in which water flush cleaning methods are used shall be provided with drains and be graded to drain, and the floor and wall junctures shall be coved and SEALED.","violationType":"Core","itemDescription":"Floor(s)","subItem":"","problemDescription":"Not coved","subProblem":"","location":"COOK LINE AREA","subLocation":"","corrected":"Not required","daysToCorrect":"30","correctedDate":null,"correctionDescription":"Provide / install coved molding."}]}]}],"maxInspectionDate":[{"inspectionDate":"2020-05-29T00:00:00"}]}},"pageContext":{"eid":"51622594"}}