{"data":{"site":{"pathPrefix":"/restaurant-inspections"},"postgres":{"establishment":[{"establishmentid":"4239","name":"Matrix Human Services","address":"13560 E McNichols Ave","zipcode":"48205","owner":"Director/ Ken Brown","licenseNumber":"076508","licenseType":"Fixed Establishment","establishmentType":"Food Service Establishment","establishmentStatus":"Open","riskCategory":"Medium","reviewFrequencyDays":"365.0","coords":"-82.98448,42.42655","geojson":{"id":"4239","type":"Feature","geometry":{"type":"Point","coordinates":[-82.9844785609999,42.426549779]},"properties":{"name":"Matrix Human Services","owner":"Director/ Ken Brown","address":"13560 E McNichols Ave","zipcode":"48205","license_type":"Fixed Establishment","risk_category":"Medium","license_number":"076508","establishmentid":"4239","establishment_type":"Food Service Establishment","establishment_status":"Open","review_frequency_days":"365.0","most_recent_license_date":"4/27/2018"}},"nearbyList":[{"establishmentid":"1286","name":"Leong's Carry Out","address":"13330 Gratiot Ave","zipcode":"48205"},{"establishmentid":"51622581","name":"Gratiot Fish & Seafood","address":"13324 Gratiot Ave","zipcode":"48205"},{"establishmentid":"1355","name":"Domino's Pizza","address":"13250 Gratiot Ave","zipcode":"48224"},{"establishmentid":"5310","name":"Asian Corned Beef","address":"13240 Gratiot Ave","zipcode":"48205"},{"establishmentid":"51622627","name":"Antonio's Pizzeria & Grill","address":"12740 Gratiot Ave","zipcode":"48205"},{"establishmentid":"4822","name":"Captain Jay's Fish & Chicken #107","address":"14205 Gratiot Ave","zipcode":"48205"},{"establishmentid":"2049","name":"Popeye's Chicken & Biscuits","address":"14180 Gratiot Ave","zipcode":"48205"},{"establishmentid":"921","name":"Mt. Calvary Lutheran School","address":"17100 Chalmers  Ave","zipcode":"48205"},{"establishmentid":"1215","name":"Wendy's Old Fashioned Hamburgers","address":"12550 Gratiot Ave","zipcode":"48205"},{"establishmentid":"3497","name":"Prince Pizza Chicken & Ribs","address":"13000 E Seven Mile Rd","zipcode":"48205"}],"inspectionsByEstablishmentidList":[{"inspectionid":"42468","inspectionDate":"2018-05-29T00:00:00","inspectionType":"Routine Inspection","inCompliance":"Yes","violationsByInspectionidList":[]},{"inspectionid":"40621","inspectionDate":"2017-10-30T00:00:00","inspectionType":"Routine Inspection","inCompliance":"Yes","violationsByInspectionidList":[{"violationCode":"4-501.114","violationDescription":"A chemical SANITIZER used in a SANITIZING solution for a manual or\r\nmechanical operation shall meet these limits or as otherwise approved: (P)\r\n\tChlorine        ppm           pH<10             pH<8\r\n\t\t      25              120 F              120 F\r\n\t\t      50              100 F              75 F\r\n\t\t     100              55 F               55 F\r\n                 Iodine           a concentration of between 12.5 and 25 ppm and minimum temp of 75 F and pH of 5 or less or meets manufacturer's specifications. (P)\r\n\r\n                Quats            minimum temperature of 75 F, hardness of 500 ppm or less and meet manufacturers use directions. (P)\r\n","violationType":"Priority","itemDescription":"Chlorine solution concentration","subItem":"","problemDescription":"Below 25 ppm","subProblem":"","location":"DISHWASHING AREA","subLocation":"","corrected":"Yes","daysToCorrect":"10.0","correctedDate":"2017-10-30T00:00:00","correctionDescription":"Provide correct concentration as stated above.e"}]},{"inspectionid":"36852","inspectionDate":"2016-10-18T00:00:00","inspectionType":"Routine Inspection","inCompliance":"Yes","violationsByInspectionidList":[]}]}]}},"pageContext":{"eid":"4239"}}