{"data":{"site":{"pathPrefix":"/restaurant-inspections"},"postgres":{"establishment":[{"establishmentid":"751","name":"Dairy Queen of Redford","address":"24671 Grand River Ave","zipcode":"48219","owner":"D&T Confections,/David Eichen","licenseNumber":"034751","licenseType":"Fixed Establishment","establishmentType":"Food Service Establishment","establishmentStatus":"Seasonal","riskCategory":null,"reviewFrequencyDays":"365.0","coords":"-83.28541,42.42726","geojson":{"id":"751","type":"Feature","geometry":{"type":"Point","coordinates":[-83.285409284,42.4272598330001]},"properties":{"name":"Dairy Queen of Redford","owner":"D&T Confections,/David Eichen","address":"24671 Grand River Ave","zipcode":"48219","license_type":"Fixed Establishment","risk_category":null,"license_number":"034751","establishmentid":"751","establishment_type":"Food Service Establishment","establishment_status":"Seasonal","review_frequency_days":"365.0","most_recent_license_date":"4/27/2018"}},"nearbyList":[{"establishmentid":"929","name":"City Limits Bar and Grill","address":"24501 Grand River Ave","zipcode":"48219"},{"establishmentid":"4630","name":"Just Martinis Bar and Grill (DBA Demi's)","address":"24201 W Seven Mile Rd","zipcode":"48219"},{"establishmentid":"5231","name":"Detroit Fresh Fish & Seafood Co. Inc.","address":"19001 Telegraph Rd","zipcode":"48219"},{"establishmentid":"3885","name":"Ray's Pizza & Chicken","address":"19005 Telegraph Rd","zipcode":"48219"},{"establishmentid":"51622651","name":"Views Bar and Grill","address":"24200 Grand River","zipcode":"48219"},{"establishmentid":"1542","name":"Subway #6309","address":"19127 Telegraph Rd","zipcode":"48219"},{"establishmentid":"1575","name":"China 1 Chinese Restaurant","address":"19129 Telegraph Rd","zipcode":"48219"},{"establishmentid":"4318","name":"Nu Wave Fish & Chicken","address":"19125 Telegraph Rd","zipcode":"48219"},{"establishmentid":"4281","name":"Tai Ho","address":"23720 W Seven Mile Rd","zipcode":"48219"},{"establishmentid":"353","name":"Aurora Coney Island","address":"23671 W Seven Mile Rd","zipcode":"48219"},{"establishmentid":"2328","name":"DeAngelo's Soul Food Deli & More","address":"17425 Telegraph Rd","zipcode":"48219"},{"establishmentid":"328","name":"Duffy's Den","address":"24800 W McNichols Rd","zipcode":"48219"},{"establishmentid":"4289","name":"Old Redford Academy Middle School","address":"22122 W McNichols Rd","zipcode":"48219"},{"establishmentid":"2342","name":"Bookie's Ham & Soul ","address":"23636 Grand River Ave","zipcode":"48219"},{"establishmentid":"329","name":"Nite Cap Lounge Inc.","address":"24817 W McNichols Rd","zipcode":"48219"},{"establishmentid":"1086","name":"Rocky's Grill Coney Island","address":"24611 W McNichols Rd","zipcode":"48219"},{"establishmentid":"327","name":"Toy Box II Bar and Grill, Inc.","address":"24351 W McNichols Rd","zipcode":"48219"},{"establishmentid":"5115","name":"Farmer Kay Market","address":"24311 W McNichols Rd","zipcode":"48219"},{"establishmentid":"1875","name":"Greater Grace Temple","address":"23500 W Seven Mile Rd","zipcode":"48219"},{"establishmentid":"4267","name":"Opyum Lounge","address":"24587 W Eight Mile Rd","zipcode":"48219"}],"inspectionsByEstablishmentidList":[{"inspectionid":"43010","inspectionDate":"2018-07-24T00:00:00","inspectionType":"Routine Inspection","inCompliance":"Yes","violationsByInspectionidList":[]},{"inspectionid":"39200","inspectionDate":"2017-07-13T00:00:00","inspectionType":"Routine Inspection","inCompliance":"Yes","violationsByInspectionidList":[]}]}]}},"pageContext":{"eid":"751"}}