{"componentChunkName":"component---src-templates-establishment-page-js","path":"/establishment/4399","result":{"data":{"site":{"pathPrefix":"/restaurant-inspections"},"postgres":{"establishment":[{"establishmentid":"4399","name":"The Lunch Lady","address":"16100 Ashton","zipcode":"48219","owner":"Renetta Dobson","licenseNumber":"072658","licenseType":"Mobile Food Establishment","establishmentType":"LHD - Mobile Food Establishmen","establishmentStatus":"Open","riskCategory":null,"reviewFrequencyDays":"335","coords":"-83.21945,42.40850","geojson":{"id":"4399","type":"Feature","geometry":{"type":"Point","coordinates":[-83.219448059,42.408503254]},"properties":{"name":"The Lunch Lady","owner":"Renetta Dobson","address":"16100 Ashton","zipcode":"48219","license_type":"Mobile Food Establishment","risk_category":null,"license_number":"072658","establishmentid":"4399","establishment_type":"LHD - Mobile Food Establishmen","establishment_status":"Open","review_frequency_days":"335","most_recent_license_date":"4/10/2015"}},"nearbyList":[{"establishmentid":"4947","name":"Lunchlady (Oakland Co.)","address":"16100 Ashton Ave.","zipcode":"48219"},{"establishmentid":"51623424","name":"Little Icy's","address":"18445 Scarsdale St,","zipcode":"48223"},{"establishmentid":"51623445","name":"Kenny's 622 Trowbridge LLC ","address":"18445 Scarsdale ST ","zipcode":"48223"},{"establishmentid":"51623203","name":"Delectables by Design LLC ","address":"18445 Scarsdale","zipcode":"48223"},{"establishmentid":"51622918","name":"North Rosedale Park Civic Association","address":"18445 Scarsdale","zipcode":"48223"},{"establishmentid":"601","name":"North Rosedale Park Civic Association","address":"18445 Scarsdale ","zipcode":"48223"},{"establishmentid":"904","name":"Cooke Elementary","address":"18800 Puritan ","zipcode":"48219"},{"establishmentid":"3162","name":"Dinner Thyme Catering","address":"18420 Grand River Ave.","zipcode":"48223"},{"establishmentid":"51622635","name":"Mama DeLuca's ","address":"18284 Grand River","zipcode":"48223"},{"establishmentid":"5237","name":"Metro Fish & Seafood LLC","address":"18440 Grand River","zipcode":"48223"}],"inspectionsByEstablishmentidList":[]}],"maxInspectionDate":[{"inspectionDate":"2022-07-25T00:00:00"}]}},"pageContext":{"eid":"4399"}},"staticQueryHashes":["3649515864","63159454"]}