{"componentChunkName":"component---src-templates-establishment-page-js","path":"/establishment/1938","result":{"data":{"site":{"pathPrefix":"/restaurant-inspections"},"postgres":{"establishment":[{"establishmentid":"1938","name":"Linwood Grill","address":"13736 Linwood St.","zipcode":"48238","owner":"Lui","licenseNumber":"038051","licenseType":"Fixed Establishment","establishmentType":"Food Service Establishment","establishmentStatus":"Permanently Closed","riskCategory":null,"reviewFrequencyDays":"150","coords":"-83.12326,42.39526","geojson":{"id":"1938","type":"Feature","geometry":{"type":"Point","coordinates":[-83.123261141,42.395260807]},"properties":{"name":"Linwood Grill","owner":"Lui","address":"13736 Linwood St.","zipcode":"48238","license_type":"Fixed Establishment","risk_category":null,"license_number":"038051","establishmentid":"1938","establishment_type":"Food Service Establishment","establishment_status":"Permanently Closed","review_frequency_days":"150","most_recent_license_date":"4/17/2006"}},"nearbyList":[{"establishmentid":"4189","name":"Shabazz Grill, LLC","address":"13736  Linwood Ave.","zipcode":"48238"},{"establishmentid":"1627","name":"McDonald's #15873","address":"13500 Linwood Ave.","zipcode":"48238"},{"establishmentid":"2491","name":"Pyramid Ent.","address":"2505 Kendall","zipcode":"48238"},{"establishmentid":"2449","name":"Subway #24214","address":"2694 Davison W.","zipcode":"48238"},{"establishmentid":"2149","name":"Kentucky Fried Chicken (KFC)","address":"2601 Davison Ave. W.","zipcode":"48238"},{"establishmentid":"1480","name":"Legends Coney Island","address":"2525 Davison Ave. W.","zipcode":"48238"},{"establishmentid":"453","name":"White Castle #51","address":"2735 Davison Ave. W.","zipcode":"48238"},{"establishmentid":"1149","name":"Church's Fried Chicken #863","address":"2757 Davison Ave. W.","zipcode":"48238"},{"establishmentid":"51623498","name":"Chroma","address":"2938 Grand Blvd. E.","zipcode":"48202"},{"establishmentid":"2684","name":"Little Caesar's Pizza #157","address":"2918 Davison Ave. W.","zipcode":"48238"}],"inspectionsByEstablishmentidList":[]}],"maxInspectionDate":[{"inspectionDate":"2022-08-31T00:00:00"}]}},"pageContext":{"eid":"1938"}},"staticQueryHashes":["3649515864","63159454"]}