{"componentChunkName":"component---src-templates-establishment-page-js","path":"/establishment/51623856","result":{"data":{"site":{"pathPrefix":"/restaurant-inspections"},"postgres":{"establishment":[{"establishmentid":"51623856","name":"Tacos Hernandez","address":"5575 Devonshire","zipcode":"48224","owner":"Diana Gomez","licenseNumber":"266402","licenseType":"Special Transitory Food Unit","establishmentType":"LHD - Special Transitory Food","establishmentStatus":"Open","riskCategory":"High","reviewFrequencyDays":"150","coords":"-82.94498,42.40589","geojson":{"id":"51623856","type":"Feature","geometry":{"type":"Point","coordinates":[-82.944978968,42.405889061]},"properties":{"name":"Tacos Hernandez","owner":"Diana Gomez","address":"5575 Devonshire","zipcode":"48224","license_type":"Special Transitory Food Unit","risk_category":"High","license_number":"266402","establishmentid":"51623856","establishment_type":"LHD - Special Transitory Food","establishment_status":"Open","review_frequency_days":"150","most_recent_license_date":null}},"nearbyList":[{"establishmentid":"1686","name":"Brad's Hot Dog #1","address":"5535 Devonshire","zipcode":"48224"},{"establishmentid":"3941","name":"Flavor King","address":"5300 Three Mile drive","zipcode":"48224"},{"establishmentid":"4036","name":"Ronald Brown Academy (Annex)","address":"11530 E. Outer Drive","zipcode":"48224"},{"establishmentid":"1113","name":"Ronald Brown Academy (Main Bldg.)","address":"11450 Outer Dr. E.","zipcode":"48224"},{"establishmentid":"3391","name":"Bethany Lutheran Church","address":"11475 Outer Drive E.","zipcode":"48224"},{"establishmentid":"51623094","name":"Sunday Cakes & Plates","address":"5953 Courville","zipcode":"48235"},{"establishmentid":"3121","name":"Detroit Best Hot Dogs","address":"5760 Audubon","zipcode":"48224"},{"establishmentid":"3289","name":"Detroit Best Hot Dogs","address":"5760 Audubon","zipcode":"48224"},{"establishmentid":"3120","name":"Detroit Best Hot Dogs","address":"5760 Audubon","zipcode":"48224"},{"establishmentid":"252","name":"Krazy Louie's","address":"15811 Warren Ave. W.","zipcode":"48228"}],"inspectionsByEstablishmentidList":[]}],"maxInspectionDate":[{"inspectionDate":"2023-04-25T00:00:00"}]}},"pageContext":{"eid":"51623856"}},"staticQueryHashes":["3649515864","63159454"]}