{"data":{"site":{"pathPrefix":"/restaurant-inspections"},"postgres":{"establishment":[{"establishmentid":"4992","name":"Glasshouse Bar and Grill","address":"14301 Grand River Ave","zipcode":"48227","owner":"Ivan Vaughn","licenseNumber":"220231","licenseType":"Fixed Establishment","establishmentType":"Food Service Establishment","establishmentStatus":"Open","riskCategory":"High","reviewFrequencyDays":"180.0","coords":"-83.18514,42.38705","geojson":{"id":"4992","type":"Feature","geometry":{"type":"Point","coordinates":[-83.1851440199999,42.3870493430001]},"properties":{"name":"Glasshouse Bar and Grill","owner":"Ivan Vaughn","address":"14301 Grand River Ave","zipcode":"48227","license_type":"Fixed Establishment","risk_category":"High","license_number":"220231","establishmentid":"4992","establishment_type":"Food Service Establishment","establishment_status":"Open","review_frequency_days":"180.0","most_recent_license_date":"4/27/2018"}},"nearbyList":[{"establishmentid":"51622776","name":"Taco Palace","address":"14458 Grand River Ave","zipcode":"48227"},{"establishmentid":"4483","name":"Grand River Fuel LLC","address":"14458 Grand River Ave","zipcode":"48227"},{"establishmentid":"1495","name":"McDonald's #5456","address":"13676 Grand River Ave","zipcode":"48227"},{"establishmentid":"5362","name":"McDonalds","address":"13676 Grand River","zipcode":"48227"},{"establishmentid":"5234","name":"Fish & Chicken Stop Inc.","address":"13465 Schaefer Hwy","zipcode":"48227"},{"establishmentid":"51622832","name":"Fred's Fish & Chicken-Schaefer","address":"13465 Schaefer","zipcode":"48227"},{"establishmentid":"2280","name":"Mary's Grille","address":"13900 Schaefer Hwy","zipcode":"48227"},{"establishmentid":"2277","name":"Galaxy Coney Island","address":"13611 Grand River Ave","zipcode":"48227"},{"establishmentid":"870","name":"Burns Elementary- Middle School","address":"14350 Terry St","zipcode":"48227"},{"establishmentid":"4907","name":"Javon's Kitchen","address":"14445 Schaefer Hwy","zipcode":"48227"},{"establishmentid":"5215","name":"Showtime Ice Cream","address":"12874 Greenfield Rd","zipcode":"48227"},{"establishmentid":"5379","name":"Seven Days Fish & Grill Inc.","address":"15370 Grand River Ave","zipcode":"48227"},{"establishmentid":"5051","name":"Seven Days Fish and Chicken Inc.","address":"15370 Grand River Ave","zipcode":"48227"},{"establishmentid":"5228","name":"All Star Fish & Seafood Inc.","address":"13585 Greenfield Rd","zipcode":"48227"},{"establishmentid":"782","name":"Toya's Bar & Grill","address":"14906 Schaefer Hwy","zipcode":"48227"},{"establishmentid":"4801","name":"Hot Toppings","address":"15539 Schoolcraft","zipcode":"48227"},{"establishmentid":"51622464","name":"Burger Grille LLC","address":"15539 Schoolcraft","zipcode":"48227"},{"establishmentid":"1463","name":"Rikshaw House","address":"14135 Greenfield Rd","zipcode":"48227"},{"establishmentid":"5385","name":"Yum Yumz Snack Shack LLC","address":"15400 Grand River","zipcode":"48227"},{"establishmentid":"641","name":"Korner Coney Island ","address":"14253 Greenfield Rd","zipcode":"48227"}],"inspectionsByEstablishmentidList":[{"inspectionid":"44722","inspectionDate":"2019-01-04T00:00:00","inspectionType":"Routine Inspection","inCompliance":"Yes","violationsByInspectionidList":[]}]}]}},"pageContext":{"eid":"4992"}}