{"data":{"site":{"pathPrefix":"/restaurant-inspections"},"postgres":{"establishment":[{"establishmentid":"51622821","name":"Destination 1905","address":"8130 Kercheval Ave","zipcode":"48214","owner":"Petra Anthony","licenseNumber":"236362","licenseType":"Fixed Establishment","establishmentType":"Food Service Establishment","establishmentStatus":"Open","riskCategory":"High","reviewFrequencyDays":"180.0","coords":"-82.99782,42.35896","geojson":{"id":"51622821","type":"Feature","geometry":{"type":"Point","coordinates":[-82.997821013,42.3589574440001]},"properties":{"name":"Destination 1905","owner":"Petra Anthony","address":"8130 Kercheval Ave","zipcode":"48214","license_type":"Fixed Establishment","risk_category":"High","license_number":"236362","establishmentid":"51622821","establishment_type":"Food Service Establishment","establishment_status":"Open","review_frequency_days":"180.0","most_recent_license_date":"2/19/2019"}},"nearbyList":[{"establishmentid":"5284","name":"Conventional Missionary Baptist Church","address":"2255 Seminole","zipcode":"48214"},{"establishmentid":"1336","name":"Indian Village Tennis Club","address":"1502 Parker Ave","zipcode":"48214"},{"establishmentid":"51622619","name":"Detroit Prep","address":"2411 Iroquois St","zipcode":"48214"},{"establishmentid":"51622951","name":"Snack Camp","address":"1464 Van Dyke Ave","zipcode":"48214"},{"establishmentid":"833","name":"Marcus Garvey","address":"2301 Van Dyke Ave","zipcode":"48207"},{"establishmentid":"51622473","name":"Yum Village Food Truck Works Detroit","address":"1415 Parker St #867 ","zipcode":"48214"},{"establishmentid":"4817","name":"Craft Work","address":"8047 Agnes St","zipcode":"48214"},{"establishmentid":"4765","name":"Detroit Vegan Soul, LLC","address":"8029 Agnes St","zipcode":"48214"},{"establishmentid":"4953","name":"The Red Hook, Detroit, LLC","address":"8025 Agnes St","zipcode":"48214"},{"establishmentid":"1099","name":"Butzel Recreation Center","address":"7737 Kercheval Ave","zipcode":"48214"}],"inspectionsByEstablishmentidList":[{"inspectionid":"48184","inspectionDate":"2019-06-27T00:00:00","inspectionType":"Routine Inspection","inCompliance":"Yes","violationsByInspectionidList":[{"violationCode":"4-101.19","violationDescription":"NonFOOD-CONTACT SURFACES of EQUIPMENT that are exposed to splash, spillage, or other FOOD soiling or that require frequent cleaning shall be constructed of a CORROSION-RESISTANT, nonabsorbent, and SMOOTH material.\r\n","violationType":"Core","itemDescription":"Wood","subItem":"","problemDescription":null,"subProblem":"","location":"BASEMENT","subLocation":"On the surfaces of the Shelves- wood","corrected":"Not required","daysToCorrect":"30.0","correctedDate":null,"correctionDescription":null}]}]}],"maxInspectionDate":[{"inspectionDate":"2019-10-31T00:00:00"}]}},"pageContext":{"eid":"51622821"}}