{"componentChunkName":"component---src-templates-establishment-page-js","path":"/establishment/1642","result":{"data":{"site":{"pathPrefix":"/restaurant-inspections"},"postgres":{"establishment":[{"establishmentid":"1642","name":"Southeast Children and Family","address":"3975 Concord","zipcode":"48207","owner":"Joan Scales","licenseNumber":"035973","licenseType":"Fixed Establishment","establishmentType":"Food Service Establishment","establishmentStatus":"Open","riskCategory":null,"reviewFrequencyDays":"180","coords":"-83.01894,42.36650","geojson":{"id":"1642","type":"Feature","geometry":{"type":"Point","coordinates":[-83.018943866,42.36649577]},"properties":{"name":"Southeast Children and Family","owner":"Joan Scales","address":"3975 Concord","zipcode":"48207","license_type":"Fixed Establishment","risk_category":null,"license_number":"035973","establishmentid":"1642","establishment_type":"Food Service Establishment","establishment_status":"Open","review_frequency_days":"180","most_recent_license_date":"4/12/2006"}},"nearbyList":[{"establishmentid":"3189","name":"Sticky Fingers","address":"6800  Gratiot Ave.","zipcode":"48207"},{"establishmentid":"1872","name":"Terry's Casablanca","address":"6366 Gratiot Ave.","zipcode":"48207"},{"establishmentid":"51623837","name":"Quintero's Asian Fusion Grill LLC","address":"850 Grand River E.","zipcode":"48116"},{"establishmentid":"5366","name":"Avalon Bakehouse & Commissary","address":"4731 Bellevue","zipcode":"48207"},{"establishmentid":"51622484","name":"Avalon Commissary","address":"4731 Bellevue","zipcode":"48207"},{"establishmentid":"51622851","name":"Dilla's Delights LLC","address":"4731 Bellevue","zipcode":"48207"},{"establishmentid":"2634","name":"Doughboy Enterprises","address":"4700 Beaufait","zipcode":"48207"},{"establishmentid":"1350","name":"Kentucky Fried Chicken","address":"3785 Gratiot Ave.","zipcode":"48207"},{"establishmentid":"1578","name":"Grandy's Coney Island","address":"3570 Mt. Elliott","zipcode":"48207"},{"establishmentid":"541","name":"D Motown Deli","address":"3750 Gratiot","zipcode":"48207"}],"inspectionsByEstablishmentidList":[]}],"maxInspectionDate":[{"inspectionDate":"2023-04-13T00:00:00"}]}},"pageContext":{"eid":"1642"}},"staticQueryHashes":["3649515864","63159454"]}