{"componentChunkName":"component---src-templates-establishment-page-js","path":"/establishment/2456","result":{"data":{"site":{"pathPrefix":"/restaurant-inspections"},"postgres":{"establishment":[{"establishmentid":"2456","name":"Leke's Grandy's Coney Island","address":"22001 Fenkell Ave.","zipcode":"48223","owner":"Anton Nikollbibaj","licenseNumber":"070059","licenseType":"Fixed Establishment","establishmentType":"Food Service Establishment","establishmentStatus":"Open","riskCategory":null,"reviewFrequencyDays":"150","coords":"-83.25722,42.40010","geojson":{"id":"2456","type":"Feature","geometry":{"type":"Point","coordinates":[-83.257217518,42.4001014]},"properties":{"name":"Leke's Grandy's Coney Island","owner":"Anton Nikollbibaj","address":"22001 Fenkell Ave.","zipcode":"48223","license_type":"Fixed Establishment","risk_category":null,"license_number":"070059","establishmentid":"2456","establishment_type":"Food Service Establishment","establishment_status":"Open","review_frequency_days":"150","most_recent_license_date":"8/9/2011"}},"nearbyList":[{"establishmentid":"51622518","name":"New Grandy's","address":"22001 Fenkell","zipcode":"48223"},{"establishmentid":"4283","name":"New Grandy's ","address":"22001 Fenkell Ave.","zipcode":"48223"},{"establishmentid":"51623116","name":"AM Krispy Krunchy Chicken","address":"21740 Fenkell","zipcode":"48223"},{"establishmentid":"5269","name":"Habibi Fish & Chicken","address":"21740 Fenkell","zipcode":"48223"},{"establishmentid":"239","name":"Scotty Simpsons Fish and Chips","address":"22200 Fenkell Ave.","zipcode":"48223"},{"establishmentid":"1696","name":"Salvation Army/Detroit Brightmoor Corps","address":"15133 Burgess St.","zipcode":"48223"},{"establishmentid":"1710","name":"St. Christine's Community Soup Kitchen","address":"22261 Fenkell Ave.","zipcode":"48223"},{"establishmentid":"51622451","name":"F & R Eatery","address":"21451 Fenkell","zipcode":"48223"},{"establishmentid":"4462","name":"Slabbee's","address":"21451 Fenkell Ave.","zipcode":"48223"},{"establishmentid":"1706","name":"Far West Alternative Middle School","address":"15320 Lamphere ave.","zipcode":"48238"}],"inspectionsByEstablishmentidList":[]}],"maxInspectionDate":[{"inspectionDate":"2023-04-13T00:00:00"}]}},"pageContext":{"eid":"2456"}},"staticQueryHashes":["3649515864","63159454"]}