{"data":{"postgres":{"establishment":[{"establishmentid":"4958","name":"Don Bosco Hall/YouthVille Detroit","address":"7375 Woodward Ave","zipcode":"48202","owner":"Don Bosco Hall","licenseNumber":"079847","licenseType":"Fixed Establishment","establishmentType":"Other","establishmentStatus":"Open","riskCategory":null,"reviewFrequencyDays":"210.0","coords":"-83.07441,42.37096","geojson":{"id":"4958","type":"Feature","geometry":{"type":"Point","coordinates":[-83.074413787,42.3709585980001]},"properties":{"name":"Don Bosco Hall/YouthVille Detroit","owner":"Don Bosco Hall","address":"7375 Woodward Ave","zipcode":"48202","license_type":"Fixed Establishment","risk_category":null,"license_number":"079847","establishmentid":"4958","establishment_type":"Other","establishment_status":"Open","review_frequency_days":"210.0","most_recent_license_date":"5/12/2016"}},"nearbyList":[{"establishmentid":"3468","name":"Happy's Pizza ","address":"7450 Woodward Ave","zipcode":"48202"},{"establishmentid":"698","name":"New China Wang","address":"7414 Woodward Ave","zipcode":"48202"},{"establishmentid":"2165","name":"New Center Eatery","address":"3100 W Grand Blvd","zipcode":"48202"},{"establishmentid":"2241","name":"La Musique/Hotel St. Regis","address":"3071 W Grand Blvd","zipcode":"48202"},{"establishmentid":"51622711","name":"St. Regis Operating LLC","address":"3071 W Grand Blvd","zipcode":"48236"},{"establishmentid":"2616","name":"New Center-Rice Bowl","address":"3031 W Grand Blvd., Suite 230","zipcode":"48202"},{"establishmentid":"2287","name":"Lunchtime Neo LLC","address":"3031 W Grand Blvd. Suite 201","zipcode":"48202"},{"establishmentid":"2076","name":"The Coney Man","address":"3031 W Grand Blvd. ","zipcode":"48202"},{"establishmentid":"4748","name":"New Center Grill","address":"3031 W Grand Blvd., Suite 202","zipcode":"48202"},{"establishmentid":"1535","name":"Detroit Donuts","address":"3031 W Grand Blvd","zipcode":"48202"},{"establishmentid":"1683","name":"Coffee Master","address":"3031 W Grand Blvd. #206","zipcode":"48202"},{"establishmentid":"1722","name":"New Center Gourmet","address":"3031 W Grand Blvd. Ste 134","zipcode":"48202"},{"establishmentid":"1712","name":"JCE Acquisitions, LLC  DBA Subway ","address":"3044 W Grand Blvd","zipcode":"48202"},{"establishmentid":"3627","name":"The Coffee Shop & Deli","address":"3044 W Grand Blvd., Ste. 1429","zipcode":"48202"},{"establishmentid":"51622872","name":"Runabout Cafe","address":"3044 W Grand Blvd","zipcode":"48202"},{"establishmentid":"4119","name":"Motown Coney Island","address":"6501 Woodward Ave","zipcode":"48202"},{"establishmentid":"5183","name":"Atomic Chicken","address":"6500 Woodward Ave","zipcode":"48202"},{"establishmentid":"51622897","name":"Yum Village LLC","address":"6500 Woodward Ave","zipcode":"48202"},{"establishmentid":"529","name":"Woodward Cocktail Bar","address":"6426 Woodward Ave","zipcode":"48202"},{"establishmentid":"3899","name":"College for Creative Studies","address":"485 W Milwaukee Ave","zipcode":"48202"}],"inspectionsByEstablishmentidList":[{"inspectionid":"38890","inspectionDate":"2017-04-25T00:00:00","inspectionType":"Routine Inspection","inCompliance":"Yes","violationsByInspectionidList":[]},{"inspectionid":"38581","inspectionDate":"2017-04-25T00:00:00","inspectionType":"Routine Inspection","inCompliance":"Yes","violationsByInspectionidList":[]},{"inspectionid":"36360","inspectionDate":"2016-09-02T00:00:00","inspectionType":"Routine Inspection","inCompliance":"Yes","violationsByInspectionidList":[{"violationCode":"3-101.11","violationDescription":"FOOD shall be safe, unADULTERATED and honestly presented. (P)\r\n","violationType":"Priority","itemDescription":"Food","subItem":"","problemDescription":"Dishonestly presented","subProblem":"","location":"COOLER","subLocation":"","corrected":"Yes","daysToCorrect":"10.0","correctedDate":"2016-09-02T00:00:00","correctionDescription":"Discard"}]}]}]}},"pageContext":{"eid":"4958"}}