{"componentChunkName":"component---src-templates-establishment-page-js","path":"/establishment/51623206","result":{"data":{"site":{"pathPrefix":"/restaurant-inspections"},"postgres":{"establishment":[{"establishmentid":"51623206","name":"The Gripper Food Truck","address":"20504 Livernois","zipcode":"48221","owner":"Rytonie Durden","licenseNumber":"249312","licenseType":"Special Transitory Food Unit","establishmentType":"LHD - Special Transitory Food","establishmentStatus":"Open","riskCategory":null,"reviewFrequencyDays":"150","coords":"-83.14159,42.44527","geojson":{"id":"51623206","type":"Feature","geometry":{"type":"Point","coordinates":[-83.141592991,42.445266226]},"properties":{"name":"The Gripper Food Truck","owner":"Rytonie Durden","address":"20504 Livernois","zipcode":"48221","license_type":"Special Transitory Food Unit","risk_category":null,"license_number":"249312","establishmentid":"51623206","establishment_type":"LHD - Special Transitory Food","establishment_status":"Open","review_frequency_days":"150","most_recent_license_date":"3/9/2020"}},"nearbyList":[{"establishmentid":"4356","name":"We Will Cook For You","address":"20504 Livernois Ave.","zipcode":"48221"},{"establishmentid":"51622720","name":"Durdens Catering LLC","address":"20504 Livernois","zipcode":"48221"},{"establishmentid":"367","name":"Jackson's Five Star Catering","address":"20504 Livernois Ave.","zipcode":"48221"},{"establishmentid":"383","name":"Baker's Keyboard Lounge","address":"20510 Livernois Ave.","zipcode":"48221"},{"establishmentid":"1798","name":"Wendy's Old Fashioned Hamburgers #0820","address":"6333 Eight Mile Rd. W.","zipcode":"48221"},{"establishmentid":"51623667","name":"LYV Detroit","address":"20238 Livernois","zipcode":"48221"},{"establishmentid":"51623302","name":"Trap Vegan ","address":"20198 Livernois ","zipcode":"48221"},{"establishmentid":"51623505","name":"Reca Creations Food Truck LLC","address":"3931 Norfolk","zipcode":"48221"},{"establishmentid":"4266","name":"Baker's Keyboard Lounge","address":"20150 Livernois Ave.","zipcode":"48221"},{"establishmentid":"2110","name":"Hangover's Lounge","address":"20143 Livernois Ave.","zipcode":"48221"}],"inspectionsByEstablishmentidList":[{"inspectionid":"51107","inspectionDate":"2020-03-10T00:00:00","inspectionType":"Preopening/New","inCompliance":"No","violationsByInspectionidList":[{"violationCode":"4-204.112","violationDescription":"(A)  In a mechanically refrigerated or hot FOOD storage unit, the sensor of a TEMPERATURE MEASURING DEVICE shall be located to measure the air temperature in the warmest part of a mechanically refrigerated unit and in the coolest part of a hot FOOD storage unit.\n(B)  Cold or hot holding EQUIPMENT used for POTENTIALLY HAZARDOUS FOOD shall be designed to include and shall be equipped with at least one integral or permanently affixed TEMPERATURE MEASURING DEVICE that is located to allow easy viewing of the device's temperature display (EXCEPT, heat lamps, cold plates, steam tables, or other equipment where it is not practical).\n(C)  TEMPERATURE MEASURING DEVICES shall be designed to be easily readable.\n(D)  FOOD TEMPERATURE MEASURING DEVICES and water TEMPERATURE MEASURING DEVICES on WAREWASHING machines shall have a numerical scale, printed record, or digital readout in increments no greater than 1C or 2F in the intended range of use. (Pf)\n\n","violationType":"Core","itemDescription":"Thermometer(s)","subItem":null,"problemDescription":"Not provided","subProblem":null,"location":"COOLERS THROUGHOUT","subLocation":null,"corrected":"False","daysToCorrect":"10","correctedDate":null,"correctionDescription":null}]}]}],"maxInspectionDate":[{"inspectionDate":"2022-08-31T00:00:00"}]}},"pageContext":{"eid":"51623206"}},"staticQueryHashes":["3649515864","63159454"]}