{"data":{"site":{"pathPrefix":"/restaurant-inspections"},"postgres":{"establishment":[{"establishmentid":"51622587","name":"The River House Chicken & Waffles","address":"8900 E Jefferson","zipcode":"48214","owner":null,"licenseNumber":"220225","licenseType":"Fixed Establishment","establishmentType":"Food Service Establishment","establishmentStatus":"Permanently Closed","riskCategory":null,"reviewFrequencyDays":"90.0","coords":"-82.98496,42.35496","geojson":{"id":"51622587","type":"Feature","geometry":{"type":"Point","coordinates":[-82.984963678,42.3549592410001]},"properties":{"name":"The River House Chicken & Waffles","owner":null,"address":"8900 E Jefferson","zipcode":"48214","license_type":"Fixed Establishment","risk_category":null,"license_number":"220225","establishmentid":"51622587","establishment_type":"Food Service Establishment","establishment_status":"Permanently Closed","review_frequency_days":"90.0","most_recent_license_date":"8/14/2017"}},"nearbyList":[{"establishmentid":"2370","name":"McDonald's #2285","address":"8825 E Jefferson Ave","zipcode":"48214"},{"establishmentid":"1559","name":"Tai Hing Carry Out","address":"1114 Holcomb St","zipcode":"48214"},{"establishmentid":"51622626","name":"The Whittier Tower Bar","address":"415 Burns Drive","zipcode":"48217"},{"establishmentid":"51622516","name":"The In Les Place","address":"415 Burns","zipcode":"48214"},{"establishmentid":"2497","name":"8330 on the River","address":"8330 E Jefferson Ave","zipcode":"48214"},{"establishmentid":"3658","name":"Spiritual Israel Church","address":"9375 Amity St","zipcode":"48214"},{"establishmentid":"4984","name":"Four Seasons Catering LLC","address":"8000 E Jefferson","zipcode":"48214"},{"establishmentid":"4952","name":"Rose's Fine Food","address":"10551 E Jefferson Ave","zipcode":"48214"},{"establishmentid":"344","name":"Sindbads Inc.","address":"100 St Clair","zipcode":"48214"},{"establishmentid":"1870","name":"Belle Isle Pizza (fka) Garalino's Pizza","address":"7869 E Jefferson Ave","zipcode":"48214"}],"inspectionsByEstablishmentidList":[{"inspectionid":"39658","inspectionDate":"2017-08-22T00:00:00","inspectionType":"Routine Inspection","inCompliance":"Yes","violationsByInspectionidList":[{"violationCode":"4-501.11","violationDescription":"EQUIPMENT shall be maintained in a state of repair and condition that meets the requirements of the code.\r\n","violationType":"Core","itemDescription":"Equipment","subItem":"","problemDescription":"In poor repair","subProblem":"","location":"WALK-IN COOLER","subLocation":"Inside the WALK-IN COOLER","corrected":"Not required","daysToCorrect":"30.0","correctedDate":null,"correctionDescription":null}]}]}],"maxInspectionDate":[{"inspectionDate":"2019-01-31T00:00:00"}]}},"pageContext":{"eid":"51622587"}}