{"data":{"site":{"pathPrefix":"/restaurant-inspections"},"postgres":{"establishment":[{"establishmentid":"4876","name":"El Parian #3","address":"1064 London","zipcode":"48146","owner":"Ms. Diaz","licenseNumber":"208155","licenseType":"Mobile Food Establishment","establishmentType":"LHD - Mobile Food Establishmen","establishmentStatus":"Open","riskCategory":null,"reviewFrequencyDays":"395.0","coords":"-83.17814,42.23924","geojson":{"id":"4876","type":"Feature","geometry":{"type":"Point","coordinates":[-83.178140634,42.239235738]},"properties":{"name":"El Parian #3","owner":"Ms. Diaz","address":"1064 London","zipcode":"48146","license_type":"Mobile Food Establishment","risk_category":null,"license_number":"208155","establishmentid":"4876","establishment_type":"LHD - Mobile Food Establishmen","establishment_status":"Open","review_frequency_days":"395.0","most_recent_license_date":"4/19/2017"}},"nearbyList":[{"establishmentid":"3590","name":"Happy's Pizza","address":"3517 S Fort St","zipcode":"48217"},{"establishmentid":"5378","name":"Bobcat Bonnies","address":"1800 Michigan Ave","zipcode":"48216"},{"establishmentid":"1371","name":"The Works Bar & Grill","address":"1846 Michigan Ave","zipcode":"48216"},{"establishmentid":"2154","name":"White Castle #19","address":"1930-50  Michigan Ave","zipcode":"48216"},{"establishmentid":"51622746","name":"Tacos El Rodeo","address":"1949 Michigan Ave","zipcode":"48216"},{"establishmentid":"539","name":"Motor City Wine Bar","address":"1949 Michigan Ave","zipcode":"48216"},{"establishmentid":"592","name":"Gaelic League Irish American Club","address":"2066-68 Michigan Ave","zipcode":"48216"},{"establishmentid":"4904","name":"Gold Cash Gold","address":"2100 Michigan Ave","zipcode":"48216"},{"establishmentid":"4306","name":"Astro Coffee","address":"2124 Michigan Ave","zipcode":"48216"},{"establishmentid":"5222","name":"El Paisano ","address":"4370 6th Street","zipcode":"48229"},{"establishmentid":"885","name":"Mark Twain K-8","address":"12800 Visger St","zipcode":"48217"},{"establishmentid":"617","name":"New Paradigm College Prep School","address":"2450  S Beatrice St ","zipcode":"48217"},{"establishmentid":"2245","name":"Perfect Beat","address":"1941 Fort St S","zipcode":"48217"},{"establishmentid":"4979","name":"Pathway Academy","address":"11340-43 E Jefferson Ave","zipcode":"48214"},{"establishmentid":"51622742","name":"Lorent Coney Island","address":"601 S Schaefer Rd","zipcode":"48217"},{"establishmentid":"51622762","name":"D's Coney Island","address":"2626 S Schaefer Hwy","zipcode":"48217"},{"establishmentid":"51622557","name":"Takito Loko","address":"17966 Harman St","zipcode":"48122"},{"establishmentid":"1879","name":"First Congregational Church","address":"33 E Forest Ave","zipcode":"48201"},{"establishmentid":"51622624","name":"Operation ABLE of Michigan Site #2","address":"33 E Forest Ave","zipcode":"48201"},{"establishmentid":"2312","name":"Taqueria La Salsa Mexican Cuisine","address":"1310 Oakwood Blvd S","zipcode":"48217"}],"inspectionsByEstablishmentidList":[{"inspectionid":"42558","inspectionDate":"2018-06-13T00:00:00","inspectionType":"Routine Inspection","inCompliance":"Yes","violationsByInspectionidList":[]},{"inspectionid":"44709","inspectionDate":"2017-08-12T00:00:00","inspectionType":"Routine Inspection","inCompliance":"Yes","violationsByInspectionidList":[]},{"inspectionid":"39115","inspectionDate":"2017-05-16T00:00:00","inspectionType":"Routine Inspection","inCompliance":"Yes","violationsByInspectionidList":[]}]}]}},"pageContext":{"eid":"4876"}}