{"data":{"site":{"pathPrefix":"/restaurant-inspections"},"postgres":{"establishment":[{"establishmentid":"51622983","name":"Marygrove Conservancy","address":"8425 W McNichols Rd","zipcode":"48221","owner":"Margrove Conservatory","licenseNumber":"237165","licenseType":"Fixed Establishment","establishmentType":"Food Service Establishment","establishmentStatus":"Open","riskCategory":null,"reviewFrequencyDays":"365.0","coords":"-83.15874,42.41438","geojson":{"id":"51622983","type":"Feature","geometry":{"type":"Point","coordinates":[-83.158738903,42.414383898]},"properties":{"name":"Marygrove Conservancy","owner":"Margrove Conservatory","address":"8425 W McNichols Rd","zipcode":"48221","license_type":"Fixed Establishment","risk_category":null,"license_number":"237165","establishmentid":"51622983","establishment_type":"Food Service Establishment","establishment_status":"Open","review_frequency_days":"365.0","most_recent_license_date":"4/28/2019"}},"nearbyList":[{"establishmentid":"5334","name":"Marygrove College","address":"8425 W McNichols Rd","zipcode":"48221"},{"establishmentid":"51622953","name":"DPSCD (previously MaryGrove)","address":"8425 W McNichols Rd","zipcode":"48221"},{"establishmentid":"51622895","name":"Peggy's Place (COTS)","address":"16630 Wyoming Ave","zipcode":"48221"},{"establishmentid":"1379","name":"Oscar's Coney Island #6","address":"10000 W McNichols Rd","zipcode":"48221"},{"establishmentid":"4665","name":"Faustina's Creole and Soulfood","address":"16155 Wyoming Ave","zipcode":"48221"},{"establishmentid":"1868","name":"WE Care Senior Meal Program","address":"8720 Puritan ","zipcode":"48238"},{"establishmentid":"306","name":"Lou's Finer Deli, Inc.","address":"8224 W McNichols Rd","zipcode":"48221"},{"establishmentid":"4436","name":"Domino's Pizza","address":"10437 W McNichols Rd","zipcode":"48221"},{"establishmentid":"1160","name":"Caribbean Citchen","address":"10500 W McNichols Rd","zipcode":"48221"},{"establishmentid":"5340","name":"Spud HeadZ Food Truck","address":"10601 W McNichols Rd","zipcode":"48221"}],"inspectionsByEstablishmentidList":[{"inspectionid":"48992","inspectionDate":"2019-09-05T00:00:00","inspectionType":"Routine Inspection","inCompliance":"Yes","violationsByInspectionidList":[{"violationCode":"4-601.11","violationDescription":"(A) EQUIPMENT FOOD-CONTACT SURFACES and UTENSILS shall be clean to sight and touch. (Pf)\r\n(B) The FOOD-CONTACT SURFACES of cooking EQUIPMENT and pans shall be kept free of encrusted grease deposits and other soil accumulations. \r\n(C) NonFOOD-CONTACT SURFACES of EQUIPMENT shall be kept free of an accumulation of dust, dirt, FOOD residue, and other debris. \r\n","violationType":"Core","itemDescription":"Non-food contact surface(s)","subItem":"","problemDescription":"Not clean","subProblem":"","location":"ICE MACHINE","subLocation":"","corrected":"Not required","daysToCorrect":"10.0","correctedDate":null,"correctionDescription":null}]}]}],"maxInspectionDate":[{"inspectionDate":"2019-10-31T00:00:00"}]}},"pageContext":{"eid":"51622983"}}