{"componentChunkName":"component---src-templates-establishment-page-js","path":"/establishment/51623311","result":{"data":{"site":{"pathPrefix":"/restaurant-inspections"},"postgres":{"establishment":[{"establishmentid":"51623311","name":"Big Mama Pizzeria LLC","address":"5181 Grand River","zipcode":"48208","owner":"Randy Mio","licenseNumber":"262948","licenseType":"Fixed Establishment","establishmentType":"Food Service Establishment","establishmentStatus":null,"riskCategory":null,"reviewFrequencyDays":"150","coords":"-83.09252,42.34914","geojson":{"id":"51623311","type":"Feature","geometry":{"type":"Point","coordinates":[-83.092518486,42.3491395]},"properties":{"name":"Big Mama Pizzeria LLC","owner":"Randy Mio","address":"5181 Grand River","zipcode":"48208","license_type":"Fixed Establishment","risk_category":null,"license_number":"262948","establishmentid":"51623311","establishment_type":"Food Service Establishment","establishment_status":null,"review_frequency_days":"150","most_recent_license_date":"5/20/2022"}},"nearbyList":[{"establishmentid":"3865","name":"Monte Bello Pizzeria","address":"5181 Grand River Ave.","zipcode":"48208"},{"establishmentid":"4572","name":"Legends Grill","address":"5210 Grand River","zipcode":"48208"},{"establishmentid":"4459","name":"Legend's Coney Island","address":"5210 Grand River, W.","zipcode":"48208"},{"establishmentid":"1064","name":"J's Lounge","address":"2901 Warren W.","zipcode":"48208"},{"establishmentid":"2062","name":"Radio City Soul Food","address":"2907 Warren W.","zipcode":"48208"},{"establishmentid":"51623794","name":"Pope Francis Center-Bridge Housing Campu","address":"2915 Hancock St. W.","zipcode":"48208"},{"establishmentid":"51622649","name":"The Commissary","address":"4848 Grand River","zipcode":"48208"},{"establishmentid":"51622688","name":"Magnet","address":"4848 Grand River","zipcode":"48208"},{"establishmentid":"5205","name":"Motor City Coney & Grill","address":"4848 Grand river","zipcode":"48207"},{"establishmentid":"51623374","name":"Barda Detroit","address":"4842 Grand River","zipcode":"48208"}],"inspectionsByEstablishmentidList":[{"inspectionid":"52919","inspectionDate":"2020-10-01T00:00:00","inspectionType":"Change of Ownership","inCompliance":"Yes","violationsByInspectionidList":[]}]}],"maxInspectionDate":[{"inspectionDate":"2022-08-31T00:00:00"}]}},"pageContext":{"eid":"51623311"}},"staticQueryHashes":["3649515864","63159454"]}