{"data":{"site":{"pathPrefix":"/restaurant-inspections"},"postgres":{"establishment":[{"establishmentid":"51623003","name":"Dexter Grinds LLC","address":"12041 Dexter Ave","zipcode":"48206","owner":"Dexter Grinds LLC","licenseNumber":"238140","licenseType":"Fixed Establishment","establishmentType":"Food Service Establishment","establishmentStatus":"Open","riskCategory":"High","reviewFrequencyDays":"180","coords":"-83.12573,42.38141","geojson":{"id":"51623003","type":"Feature","geometry":{"type":"Point","coordinates":[-83.125727881,42.381405801]},"properties":{"name":"Dexter Grinds LLC","owner":"Dexter Grinds LLC","address":"12041 Dexter Ave","zipcode":"48206","license_type":"Fixed Establishment","risk_category":"High","license_number":"238140","establishmentid":"51623003","establishment_type":"Food Service Establishment","establishment_status":"Open","review_frequency_days":"180","most_recent_license_date":null}},"nearbyList":[{"establishmentid":"5294","name":"Eleo's Ministries, Inc.","address":"12041 Dexter Ave","zipcode":"48206"},{"establishmentid":"3808","name":"Get Back Up","address":"12305 Dexter Ave","zipcode":"48206"},{"establishmentid":"924","name":"Keidan Special Education Center","address":"4441 Collingwood St","zipcode":"48204"},{"establishmentid":"5328","name":"Detroit City Coney Island","address":"9910 Dexter St","zipcode":"48206"},{"establishmentid":"826","name":"Stewart Elementary- Middle School","address":"13120 Wildemere","zipcode":"48238"},{"establishmentid":"4923","name":"Nicky D's Coney Island ","address":"3357 West Davison St","zipcode":"48238"},{"establishmentid":"4806","name":"Hope Academy","address":"12121 Broadstreet Ave","zipcode":"48204"},{"establishmentid":"2310","name":"Salvation Army - Detroit Temple","address":"3729 W Chicago Ave","zipcode":"48206"},{"establishmentid":"1785","name":"Burger King ","address":"3200 W Davison Ave","zipcode":"48238"},{"establishmentid":"5352","name":"On The Go Cafe","address":"12815 Linwood St","zipcode":"48238"}],"inspectionsByEstablishmentidList":[{"inspectionid":"47817","inspectionDate":"2019-05-23T00:00:00","inspectionType":"Routine Inspection","inCompliance":"Yes","violationsByInspectionidList":[{"violationCode":"6-301.14","violationDescription":"A sign or poster that notifies FOOD EMPLOYEES to wash their hands shall be provided at all HANDWASHING SINKS used by FOOD EMPLOYEES and shall be clearly visible to FOOD EMPLOYEES.\r\n","violationType":"Core","itemDescription":"Handwashing signage","subItem":"","problemDescription":"Not provided","subProblem":"","location":"HANDSINK(S)","subLocation":"","corrected":"Not required","daysToCorrect":"30","correctedDate":null,"correctionDescription":null}]}]}],"maxInspectionDate":[{"inspectionDate":"2020-10-30T00:00:00"}]}},"pageContext":{"eid":"51623003"}}