{"data":{"site":{"pathPrefix":"/restaurant-inspections"},"postgres":{"establishment":[{"establishmentid":"51623073","name":"Gloria's Tacos Regios","address":"4930 Livernois Ave","zipcode":"48219","owner":"Gloria Hernadez","licenseNumber":"243178","licenseType":"Fixed Establishment","establishmentType":"Food Service Establishment","establishmentStatus":"Open","riskCategory":null,"reviewFrequencyDays":"90.0","coords":"-83.12357,42.33640","geojson":{"id":"51623073","type":"Feature","geometry":{"type":"Point","coordinates":[-83.123565715,42.3363952600001]},"properties":{"name":"Gloria's Tacos Regios","owner":"Gloria Hernadez","address":"4930 Livernois Ave","zipcode":"48219","license_type":"Fixed Establishment","risk_category":null,"license_number":"243178","establishmentid":"51623073","establishment_type":"Food Service Establishment","establishment_status":"Open","review_frequency_days":"90.0","most_recent_license_date":null}},"nearbyList":[{"establishmentid":"5090","name":"Subway","address":"4930 Livernois","zipcode":"4821"},{"establishmentid":"5089","name":"La Zacatecana","address":"4930 Livernois","zipcode":"4821"},{"establishmentid":"51622883","name":"El Molcajete","address":"4930 Livernois Ave","zipcode":"4821"},{"establishmentid":"2654","name":"Voyager Academy","address":"4321 N Military","zipcode":"4821"},{"establishmentid":"655","name":"PVT Kozdron Memorial  Home Assoc.","address":"2501 N Campell St","zipcode":"48209"},{"establishmentid":"4966","name":"Rincon Tropical","address":"6538 Michigan Ave","zipcode":"4821"},{"establishmentid":"950","name":"Kwong Village Chinese American","address":"6600 Michigan Ave","zipcode":"4821"},{"establishmentid":"4443","name":"Voyager Consortium","address":"4366 Military","zipcode":"4821"},{"establishmentid":"2953","name":"The Sting","address":"6609 Michigan Ave","zipcode":"4821"},{"establishmentid":"2308","name":"George's Famous Coney Island","address":"6362 Michigan Ave","zipcode":"4821"}],"inspectionsByEstablishmentidList":[{"inspectionid":"48645","inspectionDate":"2019-08-05T00:00:00","inspectionType":"Routine Inspection","inCompliance":"Yes","violationsByInspectionidList":[]}]}],"maxInspectionDate":[{"inspectionDate":"2019-10-31T00:00:00"}]}},"pageContext":{"eid":"51623073"}}