{"data":{"postgres":{"establishment":[{"establishmentid":"51622684","name":"Fun on the Run Soul Food Catering","address":"19841 Schoolcraft Rd","zipcode":"48223","owner":"Sherron L. Ellis","licenseNumber":"229257","licenseType":"Fixed Establishment","establishmentType":"Food Service Establishment","establishmentStatus":"Open","riskCategory":null,"reviewFrequencyDays":"180.0","coords":"-83.23616,42.38592","geojson":{"id":"51622684","type":"Feature","geometry":{"type":"Point","coordinates":[-83.236158642,42.385924688]},"properties":{"name":"Fun on the Run Soul Food Catering","owner":"Sherron L. Ellis","address":"19841 Schoolcraft Rd","zipcode":"48223","license_type":"Fixed Establishment","risk_category":null,"license_number":"229257","establishmentid":"51622684","establishment_type":"Food Service Establishment","establishment_status":"Open","review_frequency_days":"180.0","most_recent_license_date":null}},"nearbyList":[{"establishmentid":"362","name":"Sonny's Hamburgers","address":"20001 Schoolcraft Rd","zipcode":"48223"},{"establishmentid":"300","name":"Billy's Coney Island","address":"19441 Schoolcraft Rd","zipcode":"48223"},{"establishmentid":"4086","name":"Chevelle's Bar & Grill","address":"19339 Schoolcraft Rd","zipcode":"48223"},{"establishmentid":"351","name":"Haydays/Four Winds Bar","address":"19338 Schoolcraft Rd","zipcode":"48223"},{"establishmentid":"4823","name":"City Covenant Church","address":"13624 Stout","zipcode":"48223"},{"establishmentid":"2735","name":"Vickie's Bar & Grill","address":"19205 Schoolcraft Rd","zipcode":"48223"},{"establishmentid":"4309","name":"Pinky's Shuga Shack","address":"18929 Schoolcraft Rd","zipcode":"48223"},{"establishmentid":"3708","name":"Freeze Shop","address":"13590 Glastonbury","zipcode":"48223"},{"establishmentid":"4175","name":"Samuel Gompers Learning Academy PK-8","address":"14450 Burt Rd","zipcode":"48223"},{"establishmentid":"3447","name":"Detroit Community Schools","address":"12675 Burt Rd","zipcode":"48223"},{"establishmentid":"4288","name":"Yusef's Place 2","address":"18516 Schoolcraft","zipcode":"48223"},{"establishmentid":"977","name":"Olympia Coney Island","address":"20040 Plymouth Rd","zipcode":"48228"},{"establishmentid":"5299","name":"Plymouth Ocean Delight- Manhattan Fish","address":"20100 Plymouth Rd Suite B","zipcode":"48228"},{"establishmentid":"1786","name":"Burger King","address":"20240 Plymouth Rd","zipcode":"48228"},{"establishmentid":"5025","name":"New Bentley Lounge","address":"19631 Plymouth Rd","zipcode":"48228"},{"establishmentid":"2471","name":"Ply Produce and Deli","address":"19615 Plymouth Rd","zipcode":"48228"},{"establishmentid":"5176","name":"Mary's Grill #2","address":"20804 Plymouth","zipcode":"48228"},{"establishmentid":"991","name":"Rouge Park Golf Course","address":"11701 Burt Rd","zipcode":"48228"},{"establishmentid":"1521","name":"Mt. Vernon Missionary Baptist Church","address":"15125 Burt Rd","zipcode":"48223"},{"establishmentid":"1241","name":"Mann Elementary School","address":"19625 Elmira","zipcode":"48228"}],"inspectionsByEstablishmentidList":[{"inspectionid":"44825","inspectionDate":"2019-01-09T00:00:00","inspectionType":"Routine Inspection","inCompliance":"Yes","violationsByInspectionidList":[]},{"inspectionid":"42465","inspectionDate":"2018-06-08T00:00:00","inspectionType":"Routine Inspection","inCompliance":"Yes","violationsByInspectionidList":[{"violationCode":"3-302.11","violationDescription":"(A) FOOD shall be protected from cross contamination by:  \r\n(1) Except as specified in (1)(c) below, separating raw animal FOODS during         storage, preparation, holding, and display from:\r\n(a) Raw READY-TO-EAT FOOD including other raw animal FOOD such as FISH for sushi or MOLLUSCAN SHELLFISH, or other raw READY-TO-EAT FOOD such as fruits and vegetables,(P) and\r\n(b) Cooked READY-TO-EAT FOOD; (P)\r\n(c) Frozen, commercially processed and packaged raw animal FOOD may be          stored or displayed with or above frozen, commercially processed and           packaged, ready-to-eat food.\r\n(2) Except when combined as ingredients, separating types of raw animal FOODS    from each other such as beef, FISH, lamb, pork, and POULTRY during storage,        preparation, holding, and display by:\r\n(a) Using separate EQUIPMENT for each type, (P) or\r\n(b) Arranging each type of FOOD in EQUIPMENT so that cross contamination of one type with another is prevented, (P) and\r\n(c) Preparing each type of FOOD at different times or in separate areas; (P)\r\n","violationType":"Priority","itemDescription":"Raw animal product(s)","subItem":"","problemDescription":"Stored over/next to","subProblem":"","location":"WALK-IN COOLER","subLocation":"","corrected":"Yes","daysToCorrect":"10.0","correctedDate":"2018-06-08T00:00:00","correctionDescription":"Keep separate."}]}]}]}},"pageContext":{"eid":"51622684"}}