{"data":{"site":{"pathPrefix":"/restaurant-inspections"},"postgres":{"establishment":[{"establishmentid":"5406","name":"Norma G's Detroit","address":"14628 E Jefferson Ave","zipcode":"48215","owner":"Lester Gouvia","licenseNumber":"226565","licenseType":"Mobile Food Commissary","establishmentType":"Food Service Establishment","establishmentStatus":"Open","riskCategory":"High","reviewFrequencyDays":"180.0","coords":"-82.94141,42.37381","geojson":{"id":"5406","type":"Feature","geometry":{"type":"Point","coordinates":[-82.9414053209999,42.3738104940001]},"properties":{"name":"Norma G's Detroit","owner":"Lester Gouvia","address":"14628 E Jefferson Ave","zipcode":"48215","license_type":"Mobile Food Commissary","risk_category":"High","license_number":"226565","establishmentid":"5406","establishment_type":"Food Service Establishment","establishment_status":"Open","review_frequency_days":"180.0","most_recent_license_date":"11/12/2017"}},"nearbyList":[{"establishmentid":"282","name":"Marshalls Bar","address":"14716 E Jefferson Ave","zipcode":"48215"},{"establishmentid":"2317","name":"Detroit Merit Academy","address":"1091 Alter Rd","zipcode":"48215"},{"establishmentid":"4126","name":"My Dad's Bar","address":"14911 Kercheval Ave","zipcode":"48215"},{"establishmentid":"51622812","name":"Rich Man Poor Man","address":"14619 Kercheval Ave","zipcode":"48215"},{"establishmentid":"2676","name":"Texas Bar and Grill","address":"14619 Kercheval","zipcode":"48215"},{"establishmentid":"5148","name":"Detroits Finest Coney Island","address":"13337 E Jefferson Ave. ","zipcode":"48215"},{"establishmentid":"1711","name":"Dynasty Chinese","address":"13340 E Jefferson Ave","zipcode":"48215"},{"establishmentid":"3260","name":"St. John's Congregational Church","address":"14320 Kercheval Ave","zipcode":"48215"},{"establishmentid":"1961","name":"Subway 12011","address":"13222 E Jefferson Ave","zipcode":"48215"},{"establishmentid":"4927","name":"Davis Aerospace Tech High @ Golightly Te","address":"900 Dickerson Ave","zipcode":"48215"},{"establishmentid":"1388","name":"Golightly  Career Tech","address":"900 Dickerson Ave","zipcode":"48215"},{"establishmentid":"5408","name":"The French Cow (Crepes Shop)","address":"1349 Beaconsfield Ave","zipcode":"4823"},{"establishmentid":"1684","name":"Ye Olde Tap Room","address":"14915 Charlevoix","zipcode":"48215"},{"establishmentid":"1030","name":"Carstens at Remus Robinson School","address":"13000 Essex St","zipcode":"48215"},{"establishmentid":"4537","name":"Govinda's at the Fisher Mansion","address":"383 Lenox Ave","zipcode":"48215"},{"establishmentid":"4868","name":"D C's Alabama Style Chicken Fish & Ribs","address":"15401 Mack Ave","zipcode":"48224"},{"establishmentid":"51622760","name":"Lost River","address":"15421 Mack Ave","zipcode":"48224"},{"establishmentid":"5150","name":"Memories","address":"15421 Mack Ave","zipcode":"48224"},{"establishmentid":"51622630","name":"Veggininies Paradise Cafe","address":"15439 Mack Ave","zipcode":"48224"},{"establishmentid":"2002","name":"East Bar-Detroit","address":"15045 Mack Ave","zipcode":"48224"}],"inspectionsByEstablishmentidList":[{"inspectionid":"43080","inspectionDate":"2018-08-08T00:00:00","inspectionType":"Routine Inspection","inCompliance":"Yes","violationsByInspectionidList":[{"violationCode":"4-602.13","violationDescription":"NonFOOD-CONTACT SURFACES of EQUIPMENT shall be cleaned at a frequency necessary to preclude accumulation of soil residues.\r\n","violationType":"Core","itemDescription":"Nonfood contact surface(s)","subItem":"","problemDescription":"Soiled","subProblem":"","location":"BAR","subLocation":"On top of the Cooler (beer)","corrected":"Yes","daysToCorrect":"30.0","correctedDate":"2018-08-08T00:00:00","correctionDescription":"Keep clean."}]},{"inspectionid":"41963","inspectionDate":"2018-04-17T00:00:00","inspectionType":"Preopening/New","inCompliance":"Yes","violationsByInspectionidList":[]}]}]}},"pageContext":{"eid":"5406"}}