{"componentChunkName":"component---src-templates-establishment-page-js","path":"/establishment/2751","result":{"data":{"site":{"pathPrefix":"/restaurant-inspections"},"postgres":{"establishment":[{"establishmentid":"2751","name":"Love's Cool Breeze","address":"10040 McNichols Rd. W.","zipcode":"48221","owner":"Donnie M. Brown","licenseNumber":"063608","licenseType":"Fixed Establishment","establishmentType":"Food Service Establishment","establishmentStatus":"Permanently Closed","riskCategory":null,"reviewFrequencyDays":"335","coords":"-83.16133,42.41712","geojson":{"id":"2751","type":"Feature","geometry":{"type":"Point","coordinates":[-83.161330422,42.417120287]},"properties":{"name":"Love's Cool Breeze","owner":"Donnie M. Brown","address":"10040 McNichols Rd. W.","zipcode":"48221","license_type":"Fixed Establishment","risk_category":null,"license_number":"063608","establishmentid":"2751","establishment_type":"Food Service Establishment","establishment_status":"Permanently Closed","review_frequency_days":"335","most_recent_license_date":"4/30/2012"}},"nearbyList":[{"establishmentid":"1379","name":"Oscar's Coney Island #6","address":"10000 McNichols Rd. W.","zipcode":"48221"},{"establishmentid":"1367","name":"DOT & ETTA'S SHRIMP HUT","address":"10300 MCNICHOLS W.","zipcode":"48221"},{"establishmentid":"51622895","name":"Peggy's Place (COTS)","address":"16630 Wyoming","zipcode":"48221"},{"establishmentid":"51623710","name":"MBLS Pizza Management LLC-Domino's","address":"10437 McNichols W.","zipcode":"48221"},{"establishmentid":"4436","name":"Domino's Pizza","address":"10437  McNichols Rd. W","zipcode":"48221"},{"establishmentid":"1160","name":"Caribbean Citchen","address":"10500 McNichols Rd. W.","zipcode":"48221"},{"establishmentid":"911","name":"Mumford High School","address":"17525 Wyoming Ave.","zipcode":"48221"},{"establishmentid":"1567","name":"Bates Academy","address":"16661 Greenlawn","zipcode":"48221"},{"establishmentid":"5340","name":"Spud HeadZ Food Truck","address":"10601 W. McNichols","zipcode":"48221"},{"establishmentid":"51623584","name":"Lil' Chuck's Grubox LLC","address":"17338 Pinehurst","zipcode":"48221"}],"inspectionsByEstablishmentidList":[]}],"maxInspectionDate":[{"inspectionDate":"2022-07-25T00:00:00"}]}},"pageContext":{"eid":"2751"}},"staticQueryHashes":["3649515864","63159454"]}