{"componentChunkName":"component---src-templates-establishment-page-js","path":"/establishment/3348","result":{"data":{"site":{"pathPrefix":"/restaurant-inspections"},"postgres":{"establishment":[{"establishmentid":"3348","name":"Allen Academy","address":"8666 Quincy","zipcode":"48204","owner":"Allen Academy","licenseNumber":"054577","licenseType":"Fixed Establishment","establishmentType":"Non-Public School","establishmentStatus":"Permanently Closed","riskCategory":null,"reviewFrequencyDays":"180","coords":"-83.11975,42.36373","geojson":{"id":"3348","type":"Feature","geometry":{"type":"Point","coordinates":[-83.119754359,42.363725082]},"properties":{"name":"Allen Academy","owner":"Allen Academy","address":"8666 Quincy","zipcode":"48204","license_type":"Fixed Establishment","risk_category":null,"license_number":"054577","establishmentid":"3348","establishment_type":"Non-Public School","establishment_status":"Permanently Closed","review_frequency_days":"180","most_recent_license_date":"4/27/2016"}},"nearbyList":[{"establishmentid":"780","name":"Moonglow Lounge","address":"8434 Grand  River Ave.","zipcode":"48204"},{"establishmentid":"51623055","name":"Anna's Soul Food","address":"8560 Grand River","zipcode":"48204"},{"establishmentid":"793","name":"Trade Union Leadership Council","address":"8670 Grand River Ave.","zipcode":"48204"},{"establishmentid":"602","name":"Louie's Cocktail Lounge","address":"8053 Grand River Ave.","zipcode":"48204"},{"establishmentid":"697","name":"Hero's Bar & Grill","address":"8755 Grand River Ave.","zipcode":"48204"},{"establishmentid":"314","name":"Little Mary's River Inn","address":"7741 Grand River Ave.","zipcode":"48204"},{"establishmentid":"2820","name":"A Eagles Coney Island","address":"9122 Dexter Ave.","zipcode":"48206"},{"establishmentid":"2701","name":"Hook Fish & Chicken","address":"9200 Dexter Ave.","zipcode":"48238"},{"establishmentid":"5235","name":"Hook Fresh Fish & Chicken LLC","address":"9200 Dexter Ave.","zipcode":"48206"},{"establishmentid":"4023","name":"Albano Coney Island/DBA Apollo","address":"7635 Grand River Ave.","zipcode":"48204"}],"inspectionsByEstablishmentidList":[]}],"maxInspectionDate":[{"inspectionDate":"2022-08-31T00:00:00"}]}},"pageContext":{"eid":"3348"}},"staticQueryHashes":["3649515864","63159454"]}