{"data":{"site":{"pathPrefix":"/restaurant-inspections"},"postgres":{"establishment":[{"establishmentid":"4203","name":"Joe Louis Arena- Eastend Joes","address":"600 Civic Center Dr","zipcode":"48226","owner":"Olympia Entertainment","licenseNumber":"069251","licenseType":"Fixed Establishment","establishmentType":"Food Service Establishment","establishmentStatus":"Permanently Closed","riskCategory":null,"reviewFrequencyDays":"365.0","coords":"-83.05141,42.32519","geojson":{"id":"4203","type":"Feature","geometry":{"type":"Point","coordinates":[-83.051406129,42.325190385]},"properties":{"name":"Joe Louis Arena- Eastend Joes","owner":"Olympia Entertainment","address":"600 Civic Center Dr","zipcode":"48226","license_type":"Fixed Establishment","risk_category":null,"license_number":"069251","establishmentid":"4203","establishment_type":"Food Service Establishment","establishment_status":"Permanently Closed","review_frequency_days":"365.0","most_recent_license_date":"5/10/2017"}},"nearbyList":[{"establishmentid":"4200","name":"Joe Louis Arena-Suite Kitchen","address":"600 Civic Center Dr","zipcode":"48226"},{"establishmentid":"1193","name":"Joe Louis Sports Arena","address":"600 Civic Center Dr","zipcode":"48226"},{"establishmentid":"4206","name":"Joe Louis Arena- Concessions","address":"600 Civic Center Dr","zipcode":"48226"},{"establishmentid":"4204","name":"Joe Louis Arena- Little Ceasars","address":"600 Civic Center Dr","zipcode":"48226"},{"establishmentid":"4207","name":"Joe Louis Arena- Bars","address":"600 Civic Center Dr","zipcode":"48226"},{"establishmentid":"4201","name":"Joe Louis Arena-VIP Service Buffet","address":"600 Civic Center Dr","zipcode":"48226"},{"establishmentid":"4202","name":"Joe Louis Arena- Buffalo Wild Wings","address":"600 Civic Center Dr","zipcode":"48226"},{"establishmentid":"4644","name":"Joe Louis Arena Canadian Club/ Alumni Rm","address":"600 Civic Center Drive","zipcode":"48226"},{"establishmentid":"4208","name":"Joe Louis Arena - Beer Portables","address":"600 Civic Center Dr","zipcode":"48226"},{"establishmentid":"741","name":"Detroit Racquet Club","address":"626 Woodbridge St","zipcode":"48226"}],"inspectionsByEstablishmentidList":[{"inspectionid":"37990","inspectionDate":"2017-01-25T00:00:00","inspectionType":"Routine Inspection","inCompliance":"Yes","violationsByInspectionidList":[]}]}]}},"pageContext":{"eid":"4203"}}