{"data":{"site":{"pathPrefix":"/restaurant-inspections"},"postgres":{"establishment":[{"establishmentid":"5017","name":"Howard Dreams","address":"1260 W Boston Blvd","zipcode":"48202","owner":"Harlan Howard","licenseNumber":"039799","licenseType":"Special Transitory Food Unit","establishmentType":"LHD - Special Transitory Food","establishmentStatus":"Plan Review","riskCategory":null,"reviewFrequencyDays":"365.0","coords":"-83.09683,42.38364","geojson":{"id":"5017","type":"Feature","geometry":{"type":"Point","coordinates":[-83.0968268359999,42.3836359270001]},"properties":{"name":"Howard Dreams","owner":"Harlan Howard","address":"1260 W Boston Blvd","zipcode":"48202","license_type":"Special Transitory Food Unit","risk_category":null,"license_number":"039799","establishmentid":"5017","establishment_type":"LHD - Special Transitory Food","establishment_status":"Plan Review","review_frequency_days":"365.0","most_recent_license_date":null}},"nearbyList":[{"establishmentid":"4433","name":"Henry Ford Academy Elementary","address":"10225 Third St","zipcode":"48202"},{"establishmentid":"51622805","name":"Henry Ford Academy Elementary SCS","address":"10225 Third St","zipcode":"48202"},{"establishmentid":"3134","name":"Cass Community Social Services","address":"11850 Woodrow Wilson St","zipcode":"48206"},{"establishmentid":"3898","name":"Detroit Job Corps Center","address":"11801 Woodrow Wilson","zipcode":"48206"},{"establishmentid":"5187","name":"Fulin","address":"8677 Rosa Parks Blvd","zipcode":"48206"},{"establishmentid":"1738","name":"Genesis House III (WEST)","address":"2015 Webb St","zipcode":"48206"},{"establishmentid":"1044","name":"Church's Fried Chicken #452","address":"11501 Woodward Ave","zipcode":"48202"},{"establishmentid":"1344","name":"Williams Recreation Center","address":"8431 Rosa Parks Blvd","zipcode":"48206"},{"establishmentid":"51622840","name":"Toarminas Pizza","address":"2470 Collingwood St","zipcode":"48219"},{"establishmentid":"946","name":"Durfee  K-8","address":"2470 Collingwood","zipcode":"48206"},{"establishmentid":"2006","name":"Subway","address":"9320 Woodward Ave","zipcode":"48202"},{"establishmentid":"827","name":"Central Collegiate Academy 9-12","address":"2425 Tuxedo","zipcode":"48206"},{"establishmentid":"4881","name":"Cleary University","address":"8904 Woodward Ave","zipcode":"48202"},{"establishmentid":"865","name":"Thirkell Elementary","address":"7724 Fourteenth St","zipcode":"48206"},{"establishmentid":"949","name":"Detroit International Academy/ Northern","address":"9026 Woodward Ave","zipcode":"48202"},{"establishmentid":"1257","name":"Detroit Repertory Theater","address":"13103 Woodrow Wilson St","zipcode":"48238"},{"establishmentid":"4418","name":"Blue Fish and Chicken","address":"11611 Linwood Ave","zipcode":"48206"},{"establishmentid":"4409","name":"Biggby Coffee","address":"2799 W Grand Blvd","zipcode":"48202"},{"establishmentid":"1645","name":"Henry Ford Hospital Cafeteria","address":"2799 W Grand Blvd","zipcode":"48202"},{"establishmentid":"597","name":"Subway #53184","address":"2799 W Grand Blvd","zipcode":"48202"}],"inspectionsByEstablishmentidList":[]}]}},"pageContext":{"eid":"5017"}}