{"data":{"site":{"pathPrefix":"/restaurant-inspections"},"postgres":{"establishment":[{"establishmentid":"5123","name":"Superior Coney Island & Grill","address":"17032 W Warren Ave","zipcode":"48228","owner":"Raafat Mroveh","licenseNumber":"082264","licenseType":"Fixed Establishment","establishmentType":"Food Service Establishment","establishmentStatus":"Open","riskCategory":"High","reviewFrequencyDays":"180","coords":"-83.21334,42.34365","geojson":{"id":"5123","type":"Feature","geometry":{"type":"Point","coordinates":[-83.213338175,42.343647626]},"properties":{"name":"Superior Coney Island & Grill","owner":"Raafat Mroveh","address":"17032 W Warren Ave","zipcode":"48228","license_type":"Fixed Establishment","risk_category":"High","license_number":"082264","establishmentid":"5123","establishment_type":"Food Service Establishment","establishment_status":"Open","review_frequency_days":"180","most_recent_license_date":"4/27/2019"}},"nearbyList":[{"establishmentid":"51622496","name":"Amazing Grill LLC","address":"17044 W Warren Ave","zipcode":"48228"},{"establishmentid":"4983","name":"Iraqi Bakery and Carry Out","address":"17022 W Warren Ave","zipcode":"48228"},{"establishmentid":"5030","name":"Good Night Lounge","address":"17621 W Warren Ave","zipcode":"48228"},{"establishmentid":"1459","name":"Rob's Deli","address":"16956-58 E Warren Ave","zipcode":"48224"},{"establishmentid":"4134","name":"Subway #47233","address":"17720 W Warren Ave","zipcode":"48228"},{"establishmentid":"803","name":"Gigi's Birdcage","address":"16920 W Warren Ave","zipcode":"48228"},{"establishmentid":"1014","name":"L. George's Restaurant Coney Island","address":"16835 W Warren Ave","zipcode":"48228"},{"establishmentid":"5315","name":"Mr. Softy","address":"7262 Memorial St","zipcode":"48228"},{"establishmentid":"212","name":"Nick's Detroit","address":"16807 W Warren Ave","zipcode":"48228"},{"establishmentid":"5330","name":"Halal Pizza Box","address":"16645 W Warren","zipcode":"48228"}],"inspectionsByEstablishmentidList":[{"inspectionid":"38484","inspectionDate":"2017-04-11T00:00:00","inspectionType":"Routine Inspection","inCompliance":"Yes","violationsByInspectionidList":[{"violationCode":"MFL289.2129","violationDescription":"Sec. 2129. (1) All food establishments shall employ a minimum of 1 managerial employee as a food safety manager, who must be an individual who is currently certified under a personnel certification program accredited by the American National Standards Institute, utilizing the Conference for Food Protection standards:\r\n(2) Beginning January 14, 2017 and every 5 years thereafter, a certified  food safety manager who supervises the operations of a food service establishment shall have completed a food safety training program\r\ncontaining an allergen awareness  component that has been approved by  the department. A food service establishment shall retain records on the  site of the food service establishment documenting compliance of its  certified food safety managers with this subsection. ","violationType":"Core","itemDescription":"Person-in-charge","subItem":"","problemDescription":null,"subProblem":"","location":"ESTABLISHMENT","subLocation":"","corrected":"Not required","daysToCorrect":"30","correctedDate":null,"correctionDescription":null}]}]}],"maxInspectionDate":[{"inspectionDate":"2020-10-30T00:00:00"}]}},"pageContext":{"eid":"5123"}}