{"componentChunkName":"component---src-templates-establishment-page-js","path":"/establishment/3671","result":{"data":{"site":{"pathPrefix":"/restaurant-inspections"},"postgres":{"establishment":[{"establishmentid":"3671","name":"Subway","address":"8031  Gratiot Ave.","zipcode":"48213","owner":"Ibrahim Farah","licenseNumber":"060731","licenseType":"Fixed Establishment","establishmentType":"Food Service Establishment","establishmentStatus":"New Owner/Complete Reconstruct","riskCategory":null,"reviewFrequencyDays":"335","coords":"-83.01456,42.37961","geojson":{"id":"3671","type":"Feature","geometry":{"type":"Point","coordinates":[-83.014556687,42.379609319]},"properties":{"name":"Subway","owner":"Ibrahim Farah","address":"8031  Gratiot Ave.","zipcode":"48213","license_type":"Fixed Establishment","risk_category":null,"license_number":"060731","establishmentid":"3671","establishment_type":"Food Service Establishment","establishment_status":"New Owner/Complete Reconstruct","review_frequency_days":"335","most_recent_license_date":"2008-04-29"}},"nearbyList":[{"establishmentid":"3569","name":"Subway #40650","address":"8031 Gratiot Ave.","zipcode":"48213"},{"establishmentid":"2414","name":"NEW JO JOS CONEY ISLAND","address":"8043 GRATIOT","zipcode":"48213"},{"establishmentid":"2327","name":"Wendy's ","address":"7850 Gratiot Ave.","zipcode":"48213"},{"establishmentid":"3440","name":"Filterfresh","address":"7811 Gratiot","zipcode":null},{"establishmentid":"932","name":"Brewer's Party Room","address":"8225 Gratiot Ave.","zipcode":"48213"},{"establishmentid":"4875","name":"Big Walt's Southern Grill","address":"8300 Gratiot","zipcode":"48213"},{"establishmentid":"1316","name":"Tony's Shrimp House","address":"8300 Gratiot Ave.","zipcode":"48213"},{"establishmentid":"51622687","name":"House of BBQ","address":"8300 Gratiot","zipcode":"48213"},{"establishmentid":"5122","name":"Qais Truck LLC","address":"7650 Gratiot","zipcode":"48213"},{"establishmentid":"1548","name":"Anani ","address":"7636 Gratiot Ave.","zipcode":"48213"}],"inspectionsByEstablishmentidList":[]}],"maxInspectionDate":[{"inspectionDate":"2023-04-25T00:00:00"}]}},"pageContext":{"eid":"3671"}},"staticQueryHashes":["3649515864","63159454"]}