{"data":{"site":{"pathPrefix":"/restaurant-inspections"},"postgres":{"establishment":[{"establishmentid":"4150","name":"Grace Bible Chapel","address":"5440 Oakman Blvd","zipcode":"48204","owner":"GRACE BIBLE CHAPEL","licenseNumber":"069260","licenseType":"Fixed Establishment","establishmentType":"Food Service Establishment","establishmentStatus":"Open","riskCategory":"Medium","reviewFrequencyDays":"365","coords":"-83.16131,42.35939","geojson":{"id":"4150","type":"Feature","geometry":{"type":"Point","coordinates":[-83.161306836,42.359385204]},"properties":{"name":"Grace Bible Chapel","owner":"GRACE BIBLE CHAPEL","address":"5440 Oakman Blvd","zipcode":"48204","license_type":"Fixed Establishment","risk_category":"Medium","license_number":"069260","establishmentid":"4150","establishment_type":"Food Service Establishment","establishment_status":"Open","review_frequency_days":"365","most_recent_license_date":null}},"nearbyList":[{"establishmentid":"51623121","name":"Holy Temple","address":"8590 Esper Blvd","zipcode":"48204"},{"establishmentid":"5230","name":"Detroit Fresh Fish & Chicken Market inc.","address":"10515 Joy Rd","zipcode":"48204"},{"establishmentid":"51622892","name":"Dairy Queen","address":"9151 Wyoming Ave","zipcode":"48204"},{"establishmentid":"425","name":" Dairy Queen Inc.","address":"9151 Wyoming ","zipcode":"48204"},{"establishmentid":"505","name":"Blue Star Lounge","address":"10600 Joy Rd","zipcode":"48204"},{"establishmentid":"51623115","name":"Graham's (Oakland Co.)","address":"8223 Wyoming","zipcode":"48224"},{"establishmentid":"4337","name":"MacKenzie PK-8","address":"10147 W Chicago Ave","zipcode":"48208"},{"establishmentid":"4684","name":"Bate's Hot Dog's LLC","address":"1221 Bowers #1712","zipcode":"48012"},{"establishmentid":"4833","name":"GFFD Community Center Northwest","address":"8530 Joy Rd","zipcode":"48204"},{"establishmentid":"1067","name":"Barton Elementary","address":"8530 Joy Rd","zipcode":"48204"}],"inspectionsByEstablishmentidList":[]}],"maxInspectionDate":[{"inspectionDate":"2020-10-30T00:00:00"}]}},"pageContext":{"eid":"4150"}}