{"componentChunkName":"component---src-templates-establishment-page-js","path":"/establishment/3330","result":{"data":{"site":{"pathPrefix":"/restaurant-inspections"},"postgres":{"establishment":[{"establishmentid":"3330","name":"Dig-A-Dee Dogs","address":"5810 Cadillac","zipcode":"48213","owner":"Carlton R. Rule","licenseNumber":"037586","licenseType":"Mobile Food Establishment","establishmentType":"LHD - Mobile Food Establishmen","establishmentStatus":"Temporarily Closed","riskCategory":null,"reviewFrequencyDays":null,"coords":"-83.00097,42.38896","geojson":{"id":"3330","type":"Feature","geometry":{"type":"Point","coordinates":[-83.000970679,42.388955426]},"properties":{"name":"Dig-A-Dee Dogs","owner":"Carlton R. Rule","address":"5810 Cadillac","zipcode":"48213","license_type":"Mobile Food Establishment","risk_category":null,"license_number":"037586","establishmentid":"3330","establishment_type":"LHD - Mobile Food Establishmen","establishment_status":"Temporarily Closed","review_frequency_days":null,"most_recent_license_date":null}},"nearbyList":[{"establishmentid":"1436","name":"Blackwell Institute","address":"9330 Shoemaker","zipcode":"48213"},{"establishmentid":"4720","name":"Stick to Your Bones","address":"10310 Harper Rd.","zipcode":"48205"},{"establishmentid":"2148","name":"Operation Get Down","address":"10100 Harper Ave.","zipcode":"48213"},{"establishmentid":"3261","name":"Operation Get Down","address":"10100 Harper Ave.","zipcode":"48213"},{"establishmentid":"5398","name":"Captain Jay's #102","address":"9654 Gratiot","zipcode":"48213"},{"establishmentid":"1333","name":"Kentucky Fried Chicken H730217","address":"9654 Gratiot Ave.","zipcode":"48213"},{"establishmentid":"4945","name":"N. KuyKendall LLC","address":"5119 Cadillac","zipcode":"48213"},{"establishmentid":"4999","name":"Big A's Concessions","address":"5119 Cadillac","zipcode":"48213"},{"establishmentid":"1519","name":"Brenda's Rib Cage","address":"9992 Gratiot Ave.","zipcode":"48213"},{"establishmentid":"2811","name":"Captain Jay's Fish & Chicken","address":"9623 Gratiot Ave.","zipcode":"48213"}],"inspectionsByEstablishmentidList":[]}],"maxInspectionDate":[{"inspectionDate":"2022-07-25T00:00:00"}]}},"pageContext":{"eid":"3330"}},"staticQueryHashes":["3649515864","63159454"]}