{"data":{"site":{"pathPrefix":"/restaurant-inspections"},"postgres":{"establishment":[{"establishmentid":"51622473","name":"Yum Village Food Truck Works Detroit","address":"1415 Parker #867 ","zipcode":"48214","owner":"Godwin Ihentuge","licenseNumber":"s032017","licenseType":"Mobile Food Establishment","establishmentType":"LHD - Special Transitory Food","establishmentStatus":"Plan Review","riskCategory":null,"reviewFrequencyDays":"365.0","coords":"-82.99655,42.35554","geojson":{"id":"51622473","type":"Feature","geometry":{"type":"Point","coordinates":[-82.9965476249999,42.3555374100001]},"properties":{"name":"Yum Village Food Truck Works Detroit","owner":"Godwin Ihentuge","address":"1415 Parker #867 ","zipcode":"48214","license_type":"Mobile Food Establishment","risk_category":null,"license_number":"s032017","establishmentid":"51622473","establishment_type":"LHD - Special Transitory Food","establishment_status":"Plan Review","review_frequency_days":"365.0","most_recent_license_date":null}},"nearbyList":[{"establishmentid":"4817","name":"Craft Work","address":"8047 Agnes St","zipcode":"48214"},{"establishmentid":"4765","name":"Detroit Vegan Soul, LLC","address":"8029 Agnes St","zipcode":"48214"},{"establishmentid":"4953","name":"The Red Hook, Detroit, LLC","address":"8025 Agnes St","zipcode":"48214"},{"establishmentid":"1336","name":"Indian Village Tennis Club","address":"1502 Parker Ave","zipcode":"48214"},{"establishmentid":"1870","name":"Belle Isle Pizza (fka) Garalino's Pizza","address":"7869 E Jefferson Ave","zipcode":"48214"},{"establishmentid":"4233","name":"St. Charles","address":"1491 Baldwin","zipcode":"48214"},{"establishmentid":"5284","name":"Conventional Missionary Baptist Church","address":"2255 Seminole","zipcode":"48214"},{"establishmentid":"833","name":"Marcus Garvey","address":"2301 Van Dyke Ave","zipcode":"48207"},{"establishmentid":"2593","name":"Moses Field School","address":"1100 Sheridan","zipcode":"48214"},{"establishmentid":"4984","name":"Four Seasons Catering LLC","address":"8000 E Jefferson","zipcode":"48214"}],"inspectionsByEstablishmentidList":[]}],"maxInspectionDate":[{"inspectionDate":"2019-01-31T00:00:00"}]}},"pageContext":{"eid":"51622473"}}