{"componentChunkName":"component---src-templates-establishment-page-js","path":"/establishment/51623380","result":{"data":{"site":{"pathPrefix":"/restaurant-inspections"},"postgres":{"establishment":[{"establishmentid":"51623380","name":"Mary's Grill","address":"14401 Grand River","zipcode":"48227","owner":"Skinder Hodjic","licenseNumber":"262946","licenseType":"Fixed Establishment","establishmentType":"Food Service Establishment","establishmentStatus":"Plan Review","riskCategory":null,"reviewFrequencyDays":null,"coords":"-83.18693,42.38758","geojson":{"id":"51623380","type":"Feature","geometry":{"type":"Point","coordinates":[-83.186931402,42.387580195]},"properties":{"name":"Mary's Grill","owner":"Skinder Hodjic","address":"14401 Grand River","zipcode":"48227","license_type":"Fixed Establishment","risk_category":null,"license_number":"262946","establishmentid":"51623380","establishment_type":"Food Service Establishment","establishment_status":"Plan Review","review_frequency_days":null,"most_recent_license_date":"5/30/2022"}},"nearbyList":[{"establishmentid":"2372","name":"Kentucky Fried Chicken H730212","address":"14401 Grand River Ave.","zipcode":"48227"},{"establishmentid":"4078","name":"Subway #45152","address":"14458 Grand River Ave.","zipcode":"48227"},{"establishmentid":"51622776","name":"Taco Palace","address":"14458 Grandriver","zipcode":"48227"},{"establishmentid":"4483","name":"Grand River Fuel LLC","address":"14458 Grand River Ave.","zipcode":"48227"},{"establishmentid":"366","name":"White Castle #50","address":"14350 Grand River Ave.","zipcode":"48227"},{"establishmentid":"4992","name":"Glasshouse Bar and Grill","address":"14301 Grand River Ave.","zipcode":"48227"},{"establishmentid":"2453","name":"Spoon Creamery","address":"13910 Freeland","zipcode":"48227"},{"establishmentid":"5266","name":"Senork's Corn Roaster","address":"14020 Grand River","zipcode":"48227"},{"establishmentid":"2385","name":"GREEN TEA RESTAURANT","address":"13812 GRAND RIVER","zipcode":"48227"},{"establishmentid":"851","name":"Cadillac K-8","address":"15125 Schoolcraft","zipcode":"48227"}],"inspectionsByEstablishmentidList":[{"inspectionid":"54886","inspectionDate":"2021-05-14T00:00:00","inspectionType":"Pre-opening","inCompliance":"Yes","violationsByInspectionidList":[{"violationCode":"5-203.11","violationDescription":"(A)  A HANDWASHING SINK or an approved automatic handwashing unit shall be provided as necessary for their convenient use by EMPLOYEES in areas specified and not fewer than the number of HANDWASHING SINKS required by LAW shall be provided. (Pf)\n(B)  If APPROVED, when FOOD exposure is limited and HANDWASHING SINKS are not conveniently available, such as in some mobile or TEMPORARY FOOD ESTABLISHMENTS or at some VENDING MACHINE LOCATIONS, EMPLOYEES may use chemically treated towelettes for handwashing.\n","violationType":"Foundation","itemDescription":"Handwashing lavatories","subItem":null,"problemDescription":"Not provided","subProblem":null,"location":"COOKING AREA","subLocation":null,"corrected":"True","daysToCorrect":"10","correctedDate":"2021-05-18T00:00:00","correctionDescription":"Provide as required"}]}]}],"maxInspectionDate":[{"inspectionDate":"2022-08-31T00:00:00"}]}},"pageContext":{"eid":"51623380"}},"staticQueryHashes":["3649515864","63159454"]}