{"componentChunkName":"component---src-templates-establishment-page-js","path":"/establishment/975","result":{"data":{"site":{"pathPrefix":"/restaurant-inspections"},"postgres":{"establishment":[{"establishmentid":"975","name":"Burger King Restaurant #654","address":"16196 Telegraph Rd.","zipcode":"48219","owner":"V & J Foods of Michigan Inc.","licenseNumber":"035017","licenseType":"Fixed Establishment","establishmentType":"Food Service Establishment","establishmentStatus":"Permanently Closed","riskCategory":null,"reviewFrequencyDays":"335","coords":"-83.27640,42.40871","geojson":{"id":"975","type":"Feature","geometry":{"type":"Point","coordinates":[-83.276397441,42.408712223]},"properties":{"name":"Burger King Restaurant #654","owner":"V & J Foods of Michigan Inc.","address":"16196 Telegraph Rd.","zipcode":"48219","license_type":"Fixed Establishment","risk_category":null,"license_number":"035017","establishmentid":"975","establishment_type":"Food Service Establishment","establishment_status":"Permanently Closed","review_frequency_days":"335","most_recent_license_date":"4/30/2008"}},"nearbyList":[{"establishmentid":"523","name":"Chapeau Vert Lounge","address":"16550 Telegraph Rd.","zipcode":"48219"},{"establishmentid":"4767","name":"The Jazz Club","address":"16890 Telegraph Rd.","zipcode":"48219"},{"establishmentid":"3449","name":"The Harem Nightclub","address":"16890 Telegraph Rd.","zipcode":"48219"},{"establishmentid":"1610","name":"Sun China Restaurant","address":"16901 Telegraph Rd.","zipcode":"48219"},{"establishmentid":"1368","name":"Ridley's Real Food","address":"24311 McNichols Rd. W.","zipcode":"48219"},{"establishmentid":"5115","name":"Farmer Kay Market","address":"24311 McNichols W.","zipcode":"48219"},{"establishmentid":"327","name":"Toy Box II Bar and Grill, Inc.","address":"24351 McNichols Rd. W.","zipcode":"48219"},{"establishmentid":"3367","name":"Yost Academy","address":"16161 Winston Ave.","zipcode":"48219"},{"establishmentid":"5365","name":"Guy's Good Eat's Restaurant","address":"23850 Fenkell","zipcode":"48223"},{"establishmentid":"729","name":"Mak's Hamburgers","address":"23850 Fenkell Ave.","zipcode":"48223"}],"inspectionsByEstablishmentidList":[]}],"maxInspectionDate":[{"inspectionDate":"2022-07-25T00:00:00"}]}},"pageContext":{"eid":"975"}},"staticQueryHashes":["3649515864","63159454"]}