{"componentChunkName":"component---src-templates-establishment-page-js","path":"/establishment/51622790","result":{"data":{"site":{"pathPrefix":"/restaurant-inspections"},"postgres":{"establishment":[{"establishmentid":"51622790","name":"Spicy Sweet Cafe","address":"11936 Conant","zipcode":"48234","owner":"Sabbir Uddin","licenseNumber":"PR18067A","licenseType":"Fixed Establishment","establishmentType":"Food Service Establishment","establishmentStatus":"Plan Review","riskCategory":null,"reviewFrequencyDays":"150","coords":"-83.05520,42.40668","geojson":{"id":"51622790","type":"Feature","geometry":{"type":"Point","coordinates":[-83.055196969,42.406677753]},"properties":{"name":"Spicy Sweet Cafe","owner":"Sabbir Uddin","address":"11936 Conant","zipcode":"48234","license_type":"Fixed Establishment","risk_category":null,"license_number":"PR18067A","establishmentid":"51622790","establishment_type":"Food Service Establishment","establishment_status":"Plan Review","review_frequency_days":"150","most_recent_license_date":null}},"nearbyList":[{"establishmentid":"5421","name":"Ali's Pizza","address":"11608 Conant","zipcode":"48212"},{"establishmentid":"3960","name":"Amar Pizza","address":"11608 Conant","zipcode":"48212"},{"establishmentid":"637","name":"Genie's Wienies Coney Island","address":"11608 Conant","zipcode":"48212"},{"establishmentid":"3373","name":"Reshmi Sweets & Cafe","address":"12170 Conant Ave.","zipcode":"48212"},{"establishmentid":"717","name":"J & S Bar","address":"12208 Conant Ave.","zipcode":"48212"},{"establishmentid":"51622666","name":"New Al Baraka Restaurant LLC","address":"3611  Carpenter St. Ste 1","zipcode":"48212"},{"establishmentid":"4115","name":"Al Baraka Restaurant","address":"3611  Carpenter St.","zipcode":"48212"},{"establishmentid":"51622972","name":"Modhubann Sweet & Cafe ","address":"3611 Carpenter","zipcode":"48212"},{"establishmentid":"51623761","name":"Best Ice Cream ","address":"3886 Gravin ","zipcode":"48212"},{"establishmentid":"3589","name":"HRs Lounge","address":"12449 Conant","zipcode":"48212"}],"inspectionsByEstablishmentidList":[]}],"maxInspectionDate":[{"inspectionDate":"2023-04-25T00:00:00"}]}},"pageContext":{"eid":"51622790"}},"staticQueryHashes":["3649515864","63159454"]}