{"data":{"site":{"pathPrefix":"/restaurant-inspections"},"postgres":{"establishment":[{"establishmentid":"51622716","name":"Brown's Southern Kitchen","address":"14253 Greenfield rd","zipcode":"48227","owner":"Vaughn S. Brown","licenseNumber":"KT032918","licenseType":"Fixed Establishment","establishmentType":"Food Service Establishment","establishmentStatus":"Open","riskCategory":"High","reviewFrequencyDays":"180.0","coords":"-83.19860,42.39162","geojson":{"id":"51622716","type":"Feature","geometry":{"type":"Point","coordinates":[-83.198604782,42.3916156390001]},"properties":{"name":"Brown's Southern Kitchen","owner":"Vaughn S. Brown","address":"14253 Greenfield rd","zipcode":"48227","license_type":"Fixed Establishment","risk_category":"High","license_number":"KT032918","establishmentid":"51622716","establishment_type":"Food Service Establishment","establishment_status":"Open","review_frequency_days":"180.0","most_recent_license_date":null}},"nearbyList":[{"establishmentid":"641","name":"Korner Coney Island ","address":"14253 Greenfield Rd","zipcode":"48227"},{"establishmentid":"358","name":"Great Wall","address":"14307 Greenfield Rd","zipcode":"48227"},{"establishmentid":"340","name":"Little Caesar's Pizza #59","address":"14301 Greenfield Rd","zipcode":"48227"},{"establishmentid":"5385","name":"Yum Yumz Snack Shack LLC","address":"15400 Grand River","zipcode":"48227"},{"establishmentid":"4838","name":"Bread Basket Deli","address":"15603 Grand River Ave","zipcode":"48227"},{"establishmentid":"5051","name":"Seven Days Fish and Chicken Inc.","address":"15370 Grand River Ave","zipcode":"48227"},{"establishmentid":"5379","name":"Seven Days Fish & Grill Inc.","address":"15370 Grand River Ave","zipcode":"48227"},{"establishmentid":"1463","name":"Rikshaw House","address":"14135 Greenfield Rd","zipcode":"48227"},{"establishmentid":"5229","name":"Big Star Fish & Seafood Inc.","address":"15540 Grand River","zipcode":"48227"},{"establishmentid":"2393","name":"Cosmos Coney Island","address":"14551 Greenfield Rd","zipcode":"48227"}],"inspectionsByEstablishmentidList":[]}],"maxInspectionDate":[{"inspectionDate":"2019-04-30T00:00:00"}]}},"pageContext":{"eid":"51622716"}}