{"data":{"site":{"pathPrefix":"/restaurant-inspections"},"postgres":{"establishment":[{"establishmentid":"5327","name":"Detroit Water Ice Factory","address":"1014 Woodward Ave","zipcode":"48226","owner":"Mitch Albom","licenseNumber":"203658","licenseType":"Mobile Food Establishment","establishmentType":"LHD - Mobile Food Establishmen","establishmentStatus":"Open","riskCategory":"Medium","reviewFrequencyDays":"395.0","coords":"-83.04668,42.33280","geojson":{"id":"5327","type":"Feature","geometry":{"type":"Point","coordinates":[-83.046682203,42.332796403]},"properties":{"name":"Detroit Water Ice Factory","owner":"Mitch Albom","address":"1014 Woodward Ave","zipcode":"48226","license_type":"Mobile Food Establishment","risk_category":"Medium","license_number":"203658","establishmentid":"5327","establishment_type":"LHD - Mobile Food Establishmen","establishment_status":"Open","review_frequency_days":"395.0","most_recent_license_date":"4/28/2017"}},"nearbyList":[{"establishmentid":"2728","name":"Hard Rock Cafe","address":"45 Monroe St","zipcode":"48226"},{"establishmentid":"5325","name":"Tim Hortons","address":"49 Monroe St","zipcode":"48226"},{"establishmentid":"2709","name":"Eurest Dining Services-Compuware","address":"1 Campus Martius","zipcode":"48226"},{"establishmentid":"4954","name":"Freshii ","address":"1001 Woodward","zipcode":"48226"},{"establishmentid":"5364","name":"Avalon Hearth and Soul Cafe","address":"1049 Woodward Ave","zipcode":"48226"},{"establishmentid":"4265","name":"Slices Pizza","address":"1043 Woodward Ave","zipcode":"48226"},{"establishmentid":"5268","name":"The Fountain Detroit","address":"800 Woodward Ave","zipcode":"48226"},{"establishmentid":"5392","name":"800 Parc","address":"800 Woodward Ave","zipcode":"48226"},{"establishmentid":"4631","name":"Cottage Inn Pizza","address":"107 Monroe St","zipcode":"48226"},{"establishmentid":"3387","name":"Jimmy Johns","address":"95 Monroe St","zipcode":"48226"},{"establishmentid":"3269","name":"Orchid Thai","address":"115 Monroe St","zipcode":"48226"},{"establishmentid":"4146","name":"CK Mediterranean Grille","address":"119 Monroe St","zipcode":"48226"},{"establishmentid":"4869","name":"7 Greens","address":"1222 Library St","zipcode":"48226"},{"establishmentid":"5200","name":"The Skip","address":"1234 Library St","zipcode":"48226"},{"establishmentid":"5031","name":"Standby","address":"225 Gratiot Ave","zipcode":"48226"},{"establishmentid":"4779","name":"Potbelly Sandwich Shop","address":"777 Woodward Ave #150","zipcode":"48226"},{"establishmentid":"4812","name":"Starbucks #22169","address":"777 Woodward Ave","zipcode":"48226"},{"establishmentid":"3404","name":"Vicente's Cuban Cuisine","address":"1250 Library St","zipcode":"48226"},{"establishmentid":"4973","name":"Punch Bowl VIP","address":"1331 Broadway","zipcode":"48226"},{"establishmentid":"4972","name":"Punch Bowl 360 Bar","address":"1331 Broadway","zipcode":"48226"}],"inspectionsByEstablishmentidList":[{"inspectionid":"39261","inspectionDate":"2017-07-18T00:00:00","inspectionType":"Mobile Inspection","inCompliance":"Yes","violationsByInspectionidList":[]},{"inspectionid":"36056","inspectionDate":"2016-08-03T00:00:00","inspectionType":"Preopening/New","inCompliance":"Yes","violationsByInspectionidList":[]}]}]}},"pageContext":{"eid":"5327"}}