{"componentChunkName":"component---src-templates-establishment-page-js","path":"/establishment/51622462","result":{"data":{"site":{"pathPrefix":"/restaurant-inspections"},"postgres":{"establishment":[{"establishmentid":"51622462","name":"Better Woodman","address":"3700 Gilbert","zipcode":"48210","owner":"Geoffrey Woodman","licenseNumber":"229205","licenseType":"Fixed Establishment","establishmentType":"Food Service Establishment","establishmentStatus":null,"riskCategory":"Medium","reviewFrequencyDays":"335","coords":"-83.11965,42.32839","geojson":{"id":"51622462","type":"Feature","geometry":{"type":"Point","coordinates":[-83.119646406,42.328389929]},"properties":{"name":"Better Woodman","owner":"Geoffrey Woodman","address":"3700 Gilbert","zipcode":"48210","license_type":"Fixed Establishment","risk_category":"Medium","license_number":"229205","establishmentid":"51622462","establishment_type":"Food Service Establishment","establishment_status":null,"review_frequency_days":"335","most_recent_license_date":null}},"nearbyList":[{"establishmentid":"5096","name":"Mia D's Soul Food Cafe & Catering","address":"3700 Gilbert","zipcode":"48210"},{"establishmentid":"3526","name":"St. Peter & Paul Orthodox Cathedral","address":"3700  Gilbert St.","zipcode":"48210"},{"establishmentid":"51623231","name":"Community Center at 3700 Gilbert","address":"3700 Gilbert","zipcode":"48210"},{"establishmentid":"51622860","name":"Pietrzyk Pierogi","address":"3700 Gilbert St.","zipcode":"48210"},{"establishmentid":"4993","name":"Carribeansoul Cafe & Catering Company","address":"3700 Gilbert","zipcode":"48210"},{"establishmentid":"5354","name":"Kaleidoscope Catering","address":"3700 Gilbert","zipcode":"48210"},{"establishmentid":"4821","name":"Matrix Head Start ","address":"3810  Gilbert","zipcode":"48209"},{"establishmentid":"51623800","name":"Tacos El Rodeo","address":"3801 Livernois","zipcode":"48210"},{"establishmentid":"815","name":"Abicks Bar","address":"3500 Gilbert St.","zipcode":"48210"},{"establishmentid":"51623120","name":"Academy of the Americas Elementary","address":"3811 Cicotte St.","zipcode":"48217"}],"inspectionsByEstablishmentidList":[{"inspectionid":"40139","inspectionDate":"2017-09-22T00:00:00","inspectionType":"Preopening/New","inCompliance":"Yes","violationsByInspectionidList":[{"violationCode":"MFL289.2129","violationDescription":"Sec. 2129. (1) All food establishments shall employ a minimum of 1 managerial employee as a food safety manager, who must be an individual who is currently certified under a personnel certification program accredited by the American National Standards Institute, utilizing the Conference for Food Protection standards:\n(2) Beginning January 14, 2017 and every 5 years thereafter, a certified  food safety manager who supervises the operations of a food service establishment shall have completed a food safety training program\ncontaining an allergen awareness  component that has been approved by  the department. A food service establishment shall retain records on the  site of the food service establishment documenting compliance of its  certified food safety managers with this subsection. ","violationType":"Core","itemDescription":"Person-in-charge","subItem":null,"problemDescription":"Missing","subProblem":null,"location":"KITCHEN","subLocation":null,"corrected":"False","daysToCorrect":"30","correctedDate":null,"correctionDescription":"Provide."}]}]}],"maxInspectionDate":[{"inspectionDate":"2022-08-31T00:00:00"}]}},"pageContext":{"eid":"51622462"}},"staticQueryHashes":["3649515864","63159454"]}