{"data":{"site":{"pathPrefix":"/restaurant-inspections"},"postgres":{"establishment":[{"establishmentid":"1244","name":"Bethel Baptist Church East","address":"5715 Holcomb St","zipcode":"48213","owner":"Bethel Bapt Church, East","licenseNumber":"073157","licenseType":"Fixed Establishment","establishmentType":"Food Service Establishment","establishmentStatus":"Open","riskCategory":null,"reviewFrequencyDays":"530.0","coords":"-83.00640,42.38502","geojson":{"id":"1244","type":"Feature","geometry":{"type":"Point","coordinates":[-83.006402795,42.3850219990001]},"properties":{"name":"Bethel Baptist Church East","owner":"Bethel Bapt Church, East","address":"5715 Holcomb St","zipcode":"48213","license_type":"Fixed Establishment","risk_category":null,"license_number":"073157","establishmentid":"1244","establishment_type":"Food Service Establishment","establishment_status":"Open","review_frequency_days":"530.0","most_recent_license_date":"6/9/2017"}},"nearbyList":[{"establishmentid":"1436","name":"Blackwell Institute","address":"9330 Shoemaker St","zipcode":"48213"},{"establishmentid":"207","name":"Burger King ","address":"9239 Gratiot Ave","zipcode":"48213"},{"establishmentid":"51622687","name":"House of BBQ","address":"8300 Gratiot Ave","zipcode":"48213"},{"establishmentid":"2811","name":"Captain Jay's Fish & Chicken","address":"9623 Gratiot Ave","zipcode":"48213"},{"establishmentid":"5398","name":"Captain Jay's #102","address":"9654 Gratiot Ave","zipcode":"48213"},{"establishmentid":"3633","name":"Subway #26842","address":"9655 Gratiot Ave","zipcode":"48213"},{"establishmentid":"3511","name":"Ross Catering","address":"9628 Harper Ave","zipcode":"48213"},{"establishmentid":"932","name":"Brewer's Party Room","address":"8225 Gratiot Ave","zipcode":"48213"},{"establishmentid":"4999","name":"Big A's Concessions","address":"5119 Cadillac","zipcode":"48213"},{"establishmentid":"2148","name":"Operation Get Down","address":"10100 Harper Ave","zipcode":"48213"},{"establishmentid":"3632","name":"Hollywood Coney Island","address":"9951 Gratiot Ave","zipcode":"48213"},{"establishmentid":"3555","name":"Friends of Detroit & Tri County","address":"8230 E Forest Ave","zipcode":"48214"},{"establishmentid":"2327","name":"Wendy's ","address":"7850 Gratiot Ave","zipcode":"48213"},{"establishmentid":"1985","name":"Food Exchange (Harvey's Fabulous Foods)","address":"8451 Harper Ave ","zipcode":"48205"},{"establishmentid":"3821","name":"Shabazz East Restaurant","address":"4712-16 Cadillac Blvd","zipcode":"48214"},{"establishmentid":"1548","name":"Anani ","address":"7650 Gratiot Ave","zipcode":"48213"},{"establishmentid":"1643","name":"A. L. Holmes Elementary","address":"8950 Crane St","zipcode":"48213"},{"establishmentid":"1037","name":"Detroit Lions Academy","address":"10101 E Canfield","zipcode":"48214"},{"establishmentid":"4831","name":"Cesar Chavez Academy - East","address":"4130 Maxwell","zipcode":"48214"},{"establishmentid":"4017","name":"Little Caesars Pizza","address":"7447 Gratiot Ave","zipcode":"48213"}],"inspectionsByEstablishmentidList":[{"inspectionid":"44094","inspectionDate":"2018-11-14T00:00:00","inspectionType":"Routine Inspection","inCompliance":"Yes","violationsByInspectionidList":[]},{"inspectionid":"38985","inspectionDate":"2017-06-12T00:00:00","inspectionType":"Routine Inspection","inCompliance":"Yes","violationsByInspectionidList":[]},{"inspectionid":"36285","inspectionDate":"2016-08-30T00:00:00","inspectionType":"Routine Inspection","inCompliance":"Yes","violationsByInspectionidList":[]}]}]}},"pageContext":{"eid":"1244"}}