{"componentChunkName":"component---src-templates-establishment-page-js","path":"/establishment/51623823","result":{"data":{"site":{"pathPrefix":"/restaurant-inspections"},"postgres":{"establishment":[{"establishmentid":"51623823","name":"El Campanario Taco Truck","address":"7620 Vernor W.","zipcode":"48209","owner":"Esequiel Martinez-Rameriz","licenseNumber":"PR22115D","licenseType":"Special Transitory Food Unit","establishmentType":"LHD - Special Transitory Food","establishmentStatus":"Plan Review","riskCategory":null,"reviewFrequencyDays":null,"coords":"-83.12414,42.31305","geojson":{"id":"51623823","type":"Feature","geometry":{"type":"Point","coordinates":[-83.124139883,42.313052425]},"properties":{"name":"El Campanario Taco Truck","owner":"Esequiel Martinez-Rameriz","address":"7620 Vernor W.","zipcode":"48209","license_type":"Special Transitory Food Unit","risk_category":null,"license_number":"PR22115D","establishmentid":"51623823","establishment_type":"LHD - Special Transitory Food","establishment_status":"Plan Review","review_frequency_days":null,"most_recent_license_date":null}},"nearbyList":[{"establishmentid":"51623681","name":"Taqueria Nuestra Familia","address":"7620 Vernor W.","zipcode":"48209"},{"establishmentid":"1342","name":"Restaurant Nuestra Familia","address":"7620 Vernor St. W.","zipcode":"48209"},{"establishmentid":"3399","name":"Sweet Maria's","address":"7647 Vernor W. ","zipcode":"48209"},{"establishmentid":"279","name":"Pauls Pizzeria","address":"7635 Vernor St. W.","zipcode":"48209"},{"establishmentid":"51623382","name":"Utila Juices","address":"7600 Vernor W.","zipcode":"48209"},{"establishmentid":"857","name":"Sherry Lee's Place","address":"7631 Vernor St.W.","zipcode":"48209"},{"establishmentid":"51623784","name":"La Casa Ice Cream ","address":"7615 W. Vernor Hwy","zipcode":"48209"},{"establishmentid":"4358","name":"Domino's Pizza","address":"7603 Vernor W.","zipcode":"48209"},{"establishmentid":"3255","name":"West Vernor Subway","address":"7431 Vernor St.W.","zipcode":"48209"},{"establishmentid":"5007","name":"Famous Tasty Chicken","address":"7431  Vernor W.","zipcode":"48209"}],"inspectionsByEstablishmentidList":[]}],"maxInspectionDate":[{"inspectionDate":"2022-08-31T00:00:00"}]}},"pageContext":{"eid":"51623823"}},"staticQueryHashes":["3649515864","63159454"]}