{"componentChunkName":"component---src-templates-establishment-page-js","path":"/establishment/1921","result":{"data":{"site":{"pathPrefix":"/restaurant-inspections"},"postgres":{"establishment":[{"establishmentid":"1921","name":"Envy","address":"234 Larned W.","zipcode":"48226","owner":"James Williams","licenseNumber":"sj234","licenseType":"Fixed Establishment","establishmentType":"Food Service Establishment","establishmentStatus":"Open","riskCategory":null,"reviewFrequencyDays":"500","coords":"-83.04821,42.32842","geojson":{"id":"1921","type":"Feature","geometry":{"type":"Point","coordinates":[-83.04820528,42.328416391]},"properties":{"name":"Envy","owner":"James Williams","address":"234 Larned W.","zipcode":"48226","license_type":"Fixed Establishment","risk_category":null,"license_number":"sj234","establishmentid":"1921","establishment_type":"Food Service Establishment","establishment_status":"Open","review_frequency_days":"500","most_recent_license_date":"11/9/2009"}},"nearbyList":[{"establishmentid":"5396","name":"Foundation Hotel- Apparatus Room","address":"250 Larned W.","zipcode":"48226"},{"establishmentid":"51622491","name":"Foundation Hotel- Banquet","address":"250 Larned W.","zipcode":"48226"},{"establishmentid":"51623054","name":"Detroit Foundation Hotel Butcher Shop","address":"250 Larned W.","zipcode":"48207"},{"establishmentid":"51622490","name":"Foundation Hotel- Chef's Table","address":"250 Larned W.","zipcode":"48226"},{"establishmentid":"51622489","name":"Foundation Hotel- Employee Dining","address":"250 Larned W.","zipcode":"48226"},{"establishmentid":"3970","name":"Reed 211 ","address":"211 Congress","zipcode":"48226"},{"establishmentid":"3214","name":"Congress Restaurant","address":"211 Congress W.","zipcode":"48226"},{"establishmentid":"3649","name":"Rock City Bar & Grill","address":"211 W. Congress","zipcode":"48226"},{"establishmentid":"5149","name":"Epitome Lounge","address":"205 W. Congress","zipcode":"48226"},{"establishmentid":"4064","name":"Chrome Night Club","address":"205 Congress W.","zipcode":"48226"}],"inspectionsByEstablishmentidList":[]}],"maxInspectionDate":[{"inspectionDate":"2022-08-31T00:00:00"}]}},"pageContext":{"eid":"1921"}},"staticQueryHashes":["3649515864","63159454"]}