{"data":{"site":{"pathPrefix":"/restaurant-inspections"},"postgres":{"establishment":[{"establishmentid":"51622974","name":"Jacoby's","address":"624 Brush","zipcode":"48226","owner":"1904 Enterprise, LLC","licenseNumber":null,"licenseType":"Fixed Establishment","establishmentType":"Food Service Establishment","establishmentStatus":"Open","riskCategory":"High","reviewFrequencyDays":"180.0","coords":"-83.04208,42.33229","geojson":{"id":"51622974","type":"Feature","geometry":{"type":"Point","coordinates":[-83.0420849939999,42.332293496]},"properties":{"name":"Jacoby's","owner":"1904 Enterprise, LLC","address":"624 Brush","zipcode":"48226","license_type":"Fixed Establishment","risk_category":"High","license_number":null,"establishmentid":"51622974","establishment_type":"Food Service Establishment","establishment_status":"Open","review_frequency_days":"180.0","most_recent_license_date":null}},"nearbyList":[{"establishmentid":"579","name":"Jacoby's German Biergarten","address":"624 Brush St","zipcode":"48226"},{"establishmentid":"5275","name":"Legends Gentleman's Club - PEMC LLC","address":"415 E Congress St","zipcode":"48226"},{"establishmentid":"2323","name":"Saint Andrews Hall","address":"431 E Congress St","zipcode":"48236"},{"establishmentid":"51622569","name":"Elephant Room","address":"439 Congress","zipcode":"48226"},{"establishmentid":"2216","name":"Sweetwater Tavern","address":"400 E Congress St","zipcode":"48226"},{"establishmentid":"5430","name":"Ready Player One","address":"407 E Fort St. ","zipcode":"48226"},{"establishmentid":"3862","name":"Good People Popcorn","address":"633 Beaubien St","zipcode":"48226"},{"establishmentid":"4183","name":"Mix Bricktown","address":"641 Beaubien St","zipcode":"48226"},{"establishmentid":"704","name":"Detroiter Bar","address":"655 Beaubien St","zipcode":"48226"},{"establishmentid":"1191","name":"Niki's Pizzeria","address":"735-37 Beaubien St","zipcode":"48226"}],"inspectionsByEstablishmentidList":[]}],"maxInspectionDate":[{"inspectionDate":"2019-03-31T00:00:00"}]}},"pageContext":{"eid":"51622974"}}