{"data":{"postgres":{"establishment":[{"establishmentid":"4920","name":"Right Production Catering","address":"16676 James Couzens ","zipcode":"48228","owner":"Keith Garrett","licenseNumber":"2210138","licenseType":"Mobile Food Establishment","establishmentType":"LHD - Mobile Food Establishmen","establishmentStatus":"Open","riskCategory":null,"reviewFrequencyDays":"395.0","coords":"-83.16907,42.41405","geojson":{"id":"4920","type":"Feature","geometry":{"type":"Point","coordinates":[-83.16907172,42.4140515730001]},"properties":{"name":"Right Production Catering","owner":"Keith Garrett","address":"16676 James Couzens ","zipcode":"48228","license_type":"Mobile Food Establishment","risk_category":null,"license_number":"2210138","establishmentid":"4920","establishment_type":"LHD - Mobile Food Establishmen","establishment_status":"Open","review_frequency_days":"395.0","most_recent_license_date":null}},"nearbyList":[{"establishmentid":"1304","name":"Popeye's Chicken & Biscuits","address":"16920 Meyers","zipcode":"48235"},{"establishmentid":"4374","name":"Captain Jay's Fish & Chicken #112","address":"16907 Meyers","zipcode":"48235"},{"establishmentid":"1998","name":"MLK, Jr. Education Center","address":"16827 Appoline","zipcode":"48235"},{"establishmentid":"1228","name":"Lon's Coney Island","address":"10741 W McNichols Rd","zipcode":"48221"},{"establishmentid":"5340","name":"Spud HeadZ Food Truck","address":"10601 W McNichols","zipcode":"48221"},{"establishmentid":"1160","name":"Caribbean Citchen","address":"10500 W McNichols Rd","zipcode":"48221"},{"establishmentid":"4436","name":"Domino's Pizza","address":"10437 W McNichols Rd","zipcode":"48221"},{"establishmentid":"2405","name":"Mark's A. Eagles #4 Coney Island","address":"12701 Puritan Ave","zipcode":"48227"},{"establishmentid":"5391","name":"Desmond's Elegant Affairs","address":"12924 Puritan Ave","zipcode":"48227"},{"establishmentid":"1406","name":"Christland Missionary Baptist Church","address":"12901 Puritan Ave","zipcode":"48227"}],"inspectionsByEstablishmentidList":[{"inspectionid":"39362","inspectionDate":"2017-07-26T00:00:00","inspectionType":"Mobile Inspection","inCompliance":"Yes","violationsByInspectionidList":[{"violationCode":"MFL289.6135","violationDescription":"Sec. 6135. (1) The name and address of the business operating a mobile food establishment shall be affixed to each side of the exterior of the vehicle in letters not less than 3 inches high and 3/8 of an inch wide and shall be in contrast to the vehicle background color. When more than 1 mobile food service establishment is operated by the same person, the director shall assign a number to each establishment.  (2) A copy of limitations attached to the license of a mobile food service establishment shall be carried on the mobile food service establishment at all times.  (3) If a mobile food establishment is operating on a regularly scheduled route, the director may require the license holder to provide a copy of the route schedule when the license is approved and every time the route schedule is changed.  (4) The director or the operator in the presence of the director shall affix 2 decals provided by the department on the mobile food establishment when the license is issued. The decals shall be conspicuously displayed on each side of the mobile food establishment so as to be visible when in transit and while serving the public.","violationType":"Core","itemDescription":null,"subItem":"","problemDescription":null,"subProblem":"","location":"HOT DOG CART","subLocation":"Missing SIGNAGE","corrected":"Not required","daysToCorrect":"30.0","correctedDate":null,"correctionDescription":null}]}]}]}},"pageContext":{"eid":"4920"}}