{"componentChunkName":"component---src-templates-establishment-page-js","path":"/establishment/2852","result":{"data":{"site":{"pathPrefix":"/restaurant-inspections"},"postgres":{"establishment":[{"establishmentid":"2852","name":"Don's Vending Service","address":"105 Bethune E.","zipcode":"48202","owner":"Don Hesse","licenseNumber":"033974","licenseType":"Other","establishmentType":"LHD - Vending","establishmentStatus":"Open","riskCategory":null,"reviewFrequencyDays":null,"coords":"-83.07321,42.37323","geojson":{"id":"2852","type":"Feature","geometry":{"type":"Point","coordinates":[-83.07321098,42.373231442]},"properties":{"name":"Don's Vending Service","owner":"Don Hesse","address":"105 Bethune E.","zipcode":"48202","license_type":"Other","risk_category":null,"license_number":"033974","establishmentid":"2852","establishment_type":"LHD - Vending","establishment_status":"Open","review_frequency_days":null,"most_recent_license_date":null}},"nearbyList":[{"establishmentid":"1758","name":"Don's Vending Service","address":"105 BETHUNE E.","zipcode":"48202"},{"establishmentid":"585","name":"E's Deli","address":"105 Bethune E.","zipcode":"48202"},{"establishmentid":"51623843","name":"Tropical Smoothie Cafe","address":"7450 Woodward","zipcode":"48234"},{"establishmentid":"3468","name":"Happy's Pizza #16","address":"7450 Woodward Ave.","zipcode":"48202"},{"establishmentid":"698","name":"New China Wang","address":"7414 Woodward Ave.","zipcode":"48202"},{"establishmentid":"51623466","name":"Happy's Pizza ","address":"7451 Woodward Ave","zipcode":"48202"},{"establishmentid":"51623448","name":"Reef Kitchens #05 (Fixed Trailer)","address":"7451 Woodward Ave. ","zipcode":"48202"},{"establishmentid":"51623610","name":"Reef Kitchens Food Truck #2","address":"7451 Woodward","zipcode":"48202"},{"establishmentid":"51623038","name":"See You Tomorrow","address":"7740 Woodward Ave.","zipcode":"48202"},{"establishmentid":"51622452","name":"Matrix Human Services","address":"7375 Woodward Ave.","zipcode":"48202"}],"inspectionsByEstablishmentidList":[]}],"maxInspectionDate":[{"inspectionDate":"2022-08-31T00:00:00"}]}},"pageContext":{"eid":"2852"}},"staticQueryHashes":["3649515864","63159454"]}