{"data":{"postgres":{"establishment":[{"establishmentid":"5287","name":"Mary Lee's Carryout","address":"14901 E 7mile","zipcode":"48205","owner":"Terence Brown","licenseNumber":"200082","licenseType":"Fixed Establishment","establishmentType":"Food Service Establishment","establishmentStatus":"Permanently Closed","riskCategory":null,"reviewFrequencyDays":"90.0","coords":"-82.96843,42.43548","geojson":{"id":"5287","type":"Feature","geometry":{"type":"Point","coordinates":[-82.968426532,42.435482005]},"properties":{"name":"Mary Lee's Carryout","owner":"Terence Brown","address":"14901 E 7mile","zipcode":"48205","license_type":"Fixed Establishment","risk_category":null,"license_number":"200082","establishmentid":"5287","establishment_type":"Food Service Establishment","establishment_status":"Permanently Closed","review_frequency_days":"90.0","most_recent_license_date":"5/9/2016"}},"nearbyList":[{"establishmentid":"1088","name":"Koney Time Restaurant","address":"15098 E Seven Mile Rd","zipcode":"48205"},{"establishmentid":"4989","name":"Lape Soul Food","address":"15236 E Seven Mile Rd","zipcode":"48205"},{"establishmentid":"2125","name":"Jet's Pizza","address":"15235 E Seven Mile Rd","zipcode":"48205"},{"establishmentid":"5239","name":"Paradise Fish & Chicken Market","address":"15251 W Seven Mile Rd","zipcode":"48235"},{"establishmentid":"3737","name":"Fisher Middle School (Upper)","address":"15491 Maddelein St","zipcode":"48205"},{"establishmentid":"308","name":"Capers","address":"14726 Gratiot Ave","zipcode":"48205"},{"establishmentid":"1083","name":"Chan's  Chinese Restaurant","address":"14537 Gratiot Ave","zipcode":"48205"},{"establishmentid":"701","name":"Peking Chinese Restaurant","address":"14855 Gratiot Ave","zipcode":"48205"},{"establishmentid":"845","name":"Brewer Elementary (K-8)","address":"18025 Brock St","zipcode":"48205"},{"establishmentid":"5166","name":"Detroit Blues Cafe","address":"14493 Gratiot","zipcode":"48205"}],"inspectionsByEstablishmentidList":[{"inspectionid":"36291","inspectionDate":"2016-08-11T00:00:00","inspectionType":"Routine Inspection","inCompliance":"Yes","violationsByInspectionidList":[{"violationCode":"3-302.11","violationDescription":"(A) FOOD shall be protected from cross contamination by:  \r\n(1) Except as specified in (1)(c) below, separating raw animal FOODS during         storage, preparation, holding, and display from:\r\n(a) Raw READY-TO-EAT FOOD including other raw animal FOOD such as FISH for sushi or MOLLUSCAN SHELLFISH, or other raw READY-TO-EAT FOOD such as fruits and vegetables,(P) and\r\n(b) Cooked READY-TO-EAT FOOD; (P)\r\n(c) Frozen, commercially processed and packaged raw animal FOOD may be          stored or displayed with or above frozen, commercially processed and           packaged, ready-to-eat food.\r\n(2) Except when combined as ingredients, separating types of raw animal FOODS    from each other such as beef, FISH, lamb, pork, and POULTRY during storage,        preparation, holding, and display by:\r\n(a) Using separate EQUIPMENT for each type, (P) or\r\n(b) Arranging each type of FOOD in EQUIPMENT so that cross contamination of one type with another is prevented, (P) and\r\n(c) Preparing each type of FOOD at different times or in separate areas; (P)\r\n","violationType":"Priority","itemDescription":"Raw animal food(s)","subItem":"","problemDescription":"Stored over/next to","subProblem":"","location":"COOLER","subLocation":"","corrected":"Yes","daysToCorrect":"10.0","correctedDate":"2016-08-11T00:00:00","correctionDescription":"Store raw animal foods below and away from foods needing little or no further prep."}]}]}]}},"pageContext":{"eid":"5287"}}