{"data":{"site":{"pathPrefix":"/restaurant-inspections"},"postgres":{"establishment":[{"establishmentid":"4947","name":"Lunch Lady (Oakland Co.)","address":"16100 Ashton Ave","zipcode":"48219","owner":"Renetta Dobson","licenseNumber":"204389","licenseType":"Special Transitory Food Unit","establishmentType":"LHD - Special Transitory Food","establishmentStatus":"Open","riskCategory":null,"reviewFrequencyDays":"90.0","coords":"-83.21946,42.40850","geojson":{"id":"4947","type":"Feature","geometry":{"type":"Point","coordinates":[-83.219456385,42.408504916]},"properties":{"name":"Lunch Lady (Oakland Co.)","owner":"Renetta Dobson","address":"16100 Ashton Ave","zipcode":"48219","license_type":"Special Transitory Food Unit","risk_category":null,"license_number":"204389","establishmentid":"4947","establishment_type":"LHD - Special Transitory Food","establishment_status":"Open","review_frequency_days":"90.0","most_recent_license_date":null}},"nearbyList":[{"establishmentid":"601","name":"North Rosedale Park Civic Association","address":"18445 Scarsdale St","zipcode":"48223"},{"establishmentid":"904","name":"Cooke Elementary","address":"18800 Puritan Ave","zipcode":"48219"},{"establishmentid":"51622571","name":"River Bistro Detroit","address":"18456 Grand River Ave","zipcode":"48223"},{"establishmentid":"5237","name":"Metro Fish & Seafood LLC","address":"18440 Grand River","zipcode":"48223"},{"establishmentid":"2345","name":"Subway #11686/Mama Delucas","address":"18288 Grand River Ave","zipcode":"48223"},{"establishmentid":"4959","name":"Cheng's Garden","address":"18205 W McNichols Rd","zipcode":"48219"},{"establishmentid":"5238","name":"Mr. C Fish Market Inc.","address":"18203 W McNichols Rd","zipcode":"48219"},{"establishmentid":"2045","name":"McDonald's #567","address":"18403 Grand River Ave","zipcode":"48223"},{"establishmentid":"2386","name":"Kentucky Fried Chicken F428107","address":"17750 Fenkell Ave","zipcode":"48227"},{"establishmentid":"787","name":"Omega Grill","address":"18130 Fenkell Ave","zipcode":"48223"}],"inspectionsByEstablishmentidList":[]}],"maxInspectionDate":[{"inspectionDate":"2020-10-30T00:00:00"}]}},"pageContext":{"eid":"4947"}}