{"data":{"site":{"pathPrefix":"/restaurant-inspections"},"postgres":{"establishment":[{"establishmentid":"2823","name":"Power Strip","address":"403 S Dix Ave. ","zipcode":"48217","owner":"Richard Skinner","licenseNumber":"203413","licenseType":"Fixed Establishment","establishmentType":"Food Service Establishment","establishmentStatus":"Open","riskCategory":null,"reviewFrequencyDays":"365.0","coords":"-83.15321,42.29397","geojson":{"id":"2823","type":"Feature","geometry":{"type":"Point","coordinates":[-83.153210616,42.2939694130001]},"properties":{"name":"Power Strip","owner":"Richard Skinner","address":"403 S Dix Ave. ","zipcode":"48217","license_type":"Fixed Establishment","risk_category":null,"license_number":"203413","establishmentid":"2823","establishment_type":"Food Service Establishment","establishment_status":"Open","review_frequency_days":"365.0","most_recent_license_date":null}},"nearbyList":[{"establishmentid":"51622922","name":"Charmed","address":"403 S Dix St","zipcode":"48217"},{"establishmentid":"1021","name":"Giovanni's Ristorante","address":"330 Oakwood Blvd S","zipcode":"48217"},{"establishmentid":"3931","name":"Blue Water Exploration Commissary","address":"13000 Denmark St","zipcode":"48217"},{"establishmentid":"1580","name":"Diamond Jack-Blue Water Exploration","address":"13000 Denmark St","zipcode":"48217"},{"establishmentid":"3115","name":"Diamond Queen-Blue Water Exploration","address":"13000 Denmark St","zipcode":"48217"},{"establishmentid":"1818","name":"Diamond Belle-Blue Water Exploration","address":"13000 Denmark St","zipcode":"48217"},{"establishmentid":"51622804","name":"Mutiny Bar ","address":"4654 Vernor St","zipcode":"48209"},{"establishmentid":"5409","name":"PizzaPlex","address":"4454-58 Vernor Rd","zipcode":"48214"},{"establishmentid":"2312","name":"Taqueria La Salsa Mexican Cuisine","address":"1310 Oakwood Blvd S","zipcode":"48217"},{"establishmentid":"51622742","name":"Lorent Coney Island","address":"601 S Schaefer Rd","zipcode":"48217"}],"inspectionsByEstablishmentidList":[{"inspectionid":"42789","inspectionDate":"2018-07-03T00:00:00","inspectionType":"Routine Inspection","inCompliance":"Yes","violationsByInspectionidList":[{"violationCode":"6-301.14","violationDescription":"A sign or poster that notifies FOOD EMPLOYEES to wash their hands shall be provided at all HANDWASHING SINKS used by FOOD EMPLOYEES and shall be clearly visible to FOOD EMPLOYEES.\r\n","violationType":"Core","itemDescription":"Handwashing signage","subItem":"","problemDescription":"Not provided","subProblem":"","location":"BATHROOM","subLocation":"","corrected":"Not required","daysToCorrect":"30.0","correctedDate":null,"correctionDescription":"Provide."}]}]}],"maxInspectionDate":[{"inspectionDate":"2019-05-31T00:00:00"}]}},"pageContext":{"eid":"2823"}}