{"data":{"site":{"pathPrefix":"/restaurant-inspections"},"postgres":{"establishment":[{"establishmentid":"51623102","name":"Detroit Riverwalk Cafe LLC (Valade Park)","address":"2670 Atwater Street","zipcode":"48207","owner":"Detroit Riverfront Conservancy","licenseNumber":"249622","licenseType":"Fixed Establishment","establishmentType":"Food Service Establishment","establishmentStatus":"Open","riskCategory":"High","reviewFrequencyDays":"365","coords":"-83.01906,42.33513","geojson":{"id":"51623102","type":"Feature","geometry":{"type":"Point","coordinates":[-83.019063194,42.335127817]},"properties":{"name":"Detroit Riverwalk Cafe LLC (Valade Park)","owner":"Detroit Riverfront Conservancy","address":"2670 Atwater Street","zipcode":"48207","license_type":"Fixed Establishment","risk_category":"High","license_number":"249622","establishmentid":"51623102","establishment_type":"Food Service Establishment","establishment_status":"Open","review_frequency_days":"365","most_recent_license_date":"6/26/2020"}},"nearbyList":[{"establishmentid":"1247","name":"Andrew's on the Corner","address":"201 Joseph Campau Ave","zipcode":"48207"},{"establishmentid":"2620","name":"The Aretha Franklin Amphiteatre","address":"2600 Atwater St","zipcode":"48207"},{"establishmentid":"51623027","name":"The Aretha Franklin-Concession","address":"2600 Atwater St","zipcode":"48207"},{"establishmentid":"51623028","name":"The Aretha Franklin-Bars","address":"2600 Atwater St","zipcode":"48207"},{"establishmentid":"5143","name":"Atwater Brewery","address":"237 Joseph Campau St","zipcode":"48207"},{"establishmentid":"3974","name":"River Place Bar & Grill","address":"225 Joseph Campau","zipcode":"48201"},{"establishmentid":"4100","name":"University Prep Science & Math High ","address":"2664 Franklin St","zipcode":"48226"},{"establishmentid":"4389","name":"Snake Bites","address":"300 River Place","zipcode":"48207"},{"establishmentid":"1450","name":"Rattlesnake Club","address":"300 River Place","zipcode":"48207"},{"establishmentid":"3425","name":"They Say/Dunco Holding LLC","address":"267 Joseph Campau Ave","zipcode":"48207"}],"inspectionsByEstablishmentidList":[{"inspectionid":"51888","inspectionDate":"2020-06-26T00:00:00","inspectionType":"Preopening/New","inCompliance":"Yes","violationsByInspectionidList":[{"violationCode":"6-301.14","violationDescription":"A sign or poster that notifies FOOD EMPLOYEES to wash their hands shall be provided at all HANDWASHING SINKS used by FOOD EMPLOYEES and shall be clearly visible to FOOD EMPLOYEES.\r\n","violationType":"Core","itemDescription":"Handwashing signage","subItem":"","problemDescription":"Not provided","subProblem":"","location":"HANDSINK(S)","subLocation":"Outdoor grilling area","corrected":"Not required","daysToCorrect":"30","correctedDate":null,"correctionDescription":null}]}]}],"maxInspectionDate":[{"inspectionDate":"2020-10-30T00:00:00"}]}},"pageContext":{"eid":"51623102"}}