{"componentChunkName":"component---src-templates-establishment-page-js","path":"/establishment/447","result":{"data":{"site":{"pathPrefix":"/restaurant-inspections"},"postgres":{"establishment":[{"establishmentid":"447","name":"Revolution Lounge","address":"1601 Springwells Ave.","zipcode":"48209","owner":"Joe Borkowski","licenseNumber":"075713","licenseType":"Fixed Establishment","establishmentType":"Food Service Establishment","establishmentStatus":"New Owner/Complete Reconstruct","riskCategory":null,"reviewFrequencyDays":"335","coords":"-83.12410,42.30679","geojson":{"id":"447","type":"Feature","geometry":{"type":"Point","coordinates":[-83.124100842,42.306786047]},"properties":{"name":"Revolution Lounge","owner":"Joe Borkowski","address":"1601 Springwells Ave.","zipcode":"48209","license_type":"Fixed Establishment","risk_category":null,"license_number":"075713","establishmentid":"447","establishment_type":"Food Service Establishment","establishment_status":"New Owner/Complete Reconstruct","review_frequency_days":"335","most_recent_license_date":"2015-04-30"}},"nearbyList":[{"establishmentid":"51622563","name":"La Pasada","address":"1601 Springwells","zipcode":"48209"},{"establishmentid":"51622985","name":"Tacos El Guero","address":"1513 Springwells","zipcode":"48209"},{"establishmentid":"413","name":"Charlie's Bar","address":"1503 Springwells Ave.","zipcode":"48209"},{"establishmentid":"51623896","name":"El Agave Loncheria","address":"1718 Springwells St.","zipcode":"48209"},{"establishmentid":"4050","name":"My Spot","address":"1801 Springwells","zipcode":"48209"},{"establishmentid":"674","name":"Stankos Bar","address":"1550 Mullane St","zipcode":"48209"},{"establishmentid":"1353","name":"Vince's Italian Rest & Pizzeria","address":"1341 Springwells Ave.","zipcode":"48209"},{"establishmentid":"866","name":"Phoenix Multicultural School","address":"7735 Lane","zipcode":"48209"},{"establishmentid":"2224","name":"El Asador","address":"1312 Springwells Ave.","zipcode":"48209"},{"establishmentid":"3812","name":"Tacos El Caballo","address":"8084 Rathbone","zipcode":"48209"}],"inspectionsByEstablishmentidList":[]}],"maxInspectionDate":[{"inspectionDate":"2023-04-25T00:00:00"}]}},"pageContext":{"eid":"447"}},"staticQueryHashes":["3649515864","63159454"]}