{"componentChunkName":"component---src-templates-establishment-page-js","path":"/establishment/51623691","result":{"data":{"site":{"pathPrefix":"/restaurant-inspections"},"postgres":{"establishment":[{"establishmentid":"51623691","name":"Considine Little Rock Family Life Center","address":"8904 Woodward Ave.","zipcode":"48202","owner":"Rev. Dr. Jim Holley","licenseNumber":"PS040522","licenseType":"Fixed Establishment","establishmentType":"Food Service Establishment","establishmentStatus":"Open","riskCategory":"Medium","reviewFrequencyDays":"335","coords":"-83.08026,42.38164","geojson":{"id":"51623691","type":"Feature","geometry":{"type":"Point","coordinates":[-83.08026361,42.38163896]},"properties":{"name":"Considine Little Rock Family Life Center","owner":"Rev. Dr. Jim Holley","address":"8904 Woodward Ave.","zipcode":"48202","license_type":"Fixed Establishment","risk_category":"Medium","license_number":"PS040522","establishmentid":"51623691","establishment_type":"Food Service Establishment","establishment_status":"Open","review_frequency_days":"335","most_recent_license_date":null}},"nearbyList":[{"establishmentid":"1279","name":"Considine Recreation Center","address":"8904 Woodward","zipcode":"48202"},{"establishmentid":"51623690","name":"North End Village Non-Profit","address":"8904 Woodward Ave.","zipcode":"48202"},{"establishmentid":"4881","name":"Cleary University","address":"8904 Woodward Ave.","zipcode":"48202"},{"establishmentid":"51623564","name":"Michigan International Prep School","address":"8904 Woodward","zipcode":"48202"},{"establishmentid":"51622931","name":"Jim Holly International Banquet Hall","address":"8904 Woodward Ave.","zipcode":"48202"},{"establishmentid":"51624030","name":"Northern High School","address":"9026 Woodward","zipcode":"48202"},{"establishmentid":"949","name":"DIA (Northern) Detroit Int Academy","address":"9026 Woodward Ave.","zipcode":"48202"},{"establishmentid":"4142","name":"Riverside Prep Academy","address":"8801  Woodward Ave.","zipcode":"48202"},{"establishmentid":"51623581","name":"Catholic Charities of Southeast Michigan","address":"8642 Woodward Ave.","zipcode":"48202"},{"establishmentid":"4721","name":"People's Community Church","address":"8601 Woodward","zipcode":"48202"}],"inspectionsByEstablishmentidList":[{"inspectionid":"59505","inspectionDate":"2022-05-31T00:00:00","inspectionType":"Routine Inspection","inCompliance":"No","violationsByInspectionidList":[{"violationCode":"5-205.15","violationDescription":"A PLUMBING SYSTEM shall be:\n(A) Repaired according to LAW; (P) and\n(B) Maintained in good repair.\n","violationType":"Core","itemDescription":"Plumbing system","subItem":"","problemDescription":"Not maintained","subProblem":"","location":"KITCHEN","subLocation":"Three compartment sink","corrected":"True","daysToCorrect":"10","correctedDate":"0001-01-01T00:00:00","correctionDescription":"Maintain in good repair"}]}]}],"maxInspectionDate":[{"inspectionDate":"2023-04-13T00:00:00"}]}},"pageContext":{"eid":"51623691"}},"staticQueryHashes":["3649515864","63159454"]}