{"componentChunkName":"component---src-templates-establishment-page-js","path":"/establishment/3790","result":{"data":{"site":{"pathPrefix":"/restaurant-inspections"},"postgres":{"establishment":[{"establishmentid":"3790","name":"Splash Bar","address":"24587 Eight Mile Rd. W.","zipcode":"48219","owner":"Patel Ent., L.L.C./Anand Patel","licenseNumber":"063618","licenseType":"Fixed Establishment","establishmentType":"Food Service Establishment","establishmentStatus":"Temporarily Closed","riskCategory":null,"reviewFrequencyDays":"335","coords":"-83.28499,42.44229","geojson":{"id":"3790","type":"Feature","geometry":{"type":"Point","coordinates":[-83.284994733,42.44228619]},"properties":{"name":"Splash Bar","owner":"Patel Ent., L.L.C./Anand Patel","address":"24587 Eight Mile Rd. W.","zipcode":"48219","license_type":"Fixed Establishment","risk_category":null,"license_number":"063618","establishmentid":"3790","establishment_type":"Food Service Establishment","establishment_status":"Temporarily Closed","review_frequency_days":"335","most_recent_license_date":"20/4/2010"}},"nearbyList":[{"establishmentid":"4267","name":"Opyum Lounge","address":"24587 Eight Mile Rd. W.","zipcode":"48219"},{"establishmentid":"1288","name":"Cactus Lounge","address":"24587 Eight Mile Rd. W.","zipcode":"48219"},{"establishmentid":"4209","name":"Enjoy In & Out Southern Cooking","address":"24737 Eight Mile Rd. W.","zipcode":"48219"},{"establishmentid":"51623587","name":"Culture Soul ","address":"24737 E 8 Mile ","zipcode":"48219"},{"establishmentid":"51623700","name":"Culture Soul (Food Truck) ","address":"24737 W 8 Mile ","zipcode":"48219"},{"establishmentid":"221","name":"8 Mile Pita and Grill","address":"24737 Eight Mile Rd. W.","zipcode":"48219"},{"establishmentid":"5291","name":"Cosmic Burrito LLC","address":"24806 Frisbee ","zipcode":"48219"},{"establishmentid":"1220","name":"Detroit Open K-8","address":"24601 Frisbee","zipcode":"48219"},{"establishmentid":"4745","name":"S & G Vending LLC","address":"19480 Five Points St.","zipcode":"48342"},{"establishmentid":"3047","name":"Total Vending","address":"24760 Seven Mile Rd. W.","zipcode":"48219"}],"inspectionsByEstablishmentidList":[]}],"maxInspectionDate":[{"inspectionDate":"2023-04-13T00:00:00"}]}},"pageContext":{"eid":"3790"}},"staticQueryHashes":["3649515864","63159454"]}