{"componentChunkName":"component---src-templates-establishment-page-js","path":"/establishment/2849","result":{"data":{"site":{"pathPrefix":"/restaurant-inspections"},"postgres":{"establishment":[{"establishmentid":"2849","name":"Subway","address":"4030 Eight Mile Rd. E.","zipcode":"49234","owner":"Samir Mohammad","licenseNumber":"40300AG","licenseType":"Fixed Establishment","establishmentType":"Food Service Establishment","establishmentStatus":"Permanently Closed","riskCategory":null,"reviewFrequencyDays":"335","coords":"-83.06413,42.44698","geojson":{"id":"2849","type":"Feature","geometry":{"type":"Point","coordinates":[-83.064131808,42.446983367]},"properties":{"name":"Subway","owner":"Samir Mohammad","address":"4030 Eight Mile Rd. E.","zipcode":"49234","license_type":"Fixed Establishment","risk_category":null,"license_number":"40300AG","establishmentid":"2849","establishment_type":"Food Service Establishment","establishment_status":"Permanently Closed","review_frequency_days":"335","most_recent_license_date":"2006-12-04"}},"nearbyList":[{"establishmentid":"3510","name":"Checkers #6239","address":"4030  Eight Mile Rd. E.","zipcode":"48234"},{"establishmentid":"2129","name":"Kwicky Bar","address":"4130 Eight Mile Rd. E.","zipcode":"48234"},{"establishmentid":"406","name":"Sugarbakers","address":"3800 Eight Mile Rd. E.","zipcode":"48234"},{"establishmentid":"51622449","name":"Ocean Fish & Chicken","address":"3732 Eight Mile E.","zipcode":"48234"},{"establishmentid":"567","name":"Olympic Coney Island","address":"3732 Eight Mile Rd. E.","zipcode":"48234"},{"establishmentid":"4932","name":"Dove Academy of Detroit","address":"20001 Wexford St.","zipcode":"48234"},{"establishmentid":"761","name":"St. Bartholomew's School","address":"20001 Wexford St.","zipcode":"48234"},{"establishmentid":"3574","name":"Farwell Community Center ","address":"2711  Outer Drive E.","zipcode":"48234"},{"establishmentid":"1164","name":"Kwong Tung Inn","address":"3040 Eight Mile Rd. E.","zipcode":"48234"},{"establishmentid":"51623628","name":"Kwong Tung Inn","address":"3040 Eight Mile E.","zipcode":"48234"}],"inspectionsByEstablishmentidList":[]}],"maxInspectionDate":[{"inspectionDate":"2023-04-25T00:00:00"}]}},"pageContext":{"eid":"2849"}},"staticQueryHashes":["3649515864","63159454"]}