{"componentChunkName":"component---src-templates-establishment-page-js","path":"/establishment/51623631","result":{"data":{"site":{"pathPrefix":"/restaurant-inspections"},"postgres":{"establishment":[{"establishmentid":"51623631","name":"Kwench Juice","address":"719 Griswold","zipcode":"48226","owner":"Robert Lawson","licenseNumber":"260472","licenseType":"Fixed Establishment","establishmentType":"Food Service Establishment","establishmentStatus":"Open","riskCategory":"High","reviewFrequencyDays":"335","coords":"-83.04799,42.33078","geojson":{"id":"51623631","type":"Feature","geometry":{"type":"Point","coordinates":[-83.047985679,42.330782806]},"properties":{"name":"Kwench Juice","owner":"Robert Lawson","address":"719 Griswold","zipcode":"48226","license_type":"Fixed Establishment","risk_category":"High","license_number":"260472","establishmentid":"51623631","establishment_type":"Food Service Establishment","establishment_status":"Open","review_frequency_days":"335","most_recent_license_date":"4/11/2022"}},"nearbyList":[{"establishmentid":"2511","name":"Robinson Dairy Vending","address":"719 Griswold","zipcode":"48226"},{"establishmentid":"51623307","name":"Griswold ","address":"719 Griswold ","zipcode":"48226"},{"establishmentid":"5039","name":"Mikes Kabob Grille","address":"719 Griswold","zipcode":"48226"},{"establishmentid":"4866","name":"Dime Store","address":"719 Griswold","zipcode":"48226"},{"establishmentid":"2192","name":"Rio Wraps of Griswold, LLC","address":"719 Griswold","zipcode":"48226"},{"establishmentid":"51622853","name":"Kwench Juice Cafe'","address":"719 Griswold","zipcode":"48226"},{"establishmentid":"3512","name":"The Coffee Cafe","address":"719  Griswold St.","zipcode":"48226"},{"establishmentid":"3767","name":"Birmingham Deli","address":"719 Griswold","zipcode":"48226"},{"establishmentid":"2584","name":"Black Gold Coffee","address":"719 Grisworld St.  Ste 110","zipcode":"48226"},{"establishmentid":"4629","name":"Athens Souvlaki ","address":"645 Griswold","zipcode":"48226"}],"inspectionsByEstablishmentidList":[{"inspectionid":"57259","inspectionDate":"2022-02-16T00:00:00","inspectionType":"Routine Inspection","inCompliance":"No","violationsByInspectionidList":[{"violationCode":"4-302.14","violationDescription":"A test kit or other device that accurately measures the concentration in mg/L of SANITIZING solutions shall be provided. (Pf)\n","violationType":"Foundation","itemDescription":"Sanitizer test kit","subItem":"quaternary ammonia","problemDescription":"Not provided","subProblem":null,"location":"FACILITY","subLocation":null,"corrected":"False","daysToCorrect":"10","correctedDate":null,"correctionDescription":"Provide."}]}]}],"maxInspectionDate":[{"inspectionDate":"2022-08-31T00:00:00"}]}},"pageContext":{"eid":"51623631"}},"staticQueryHashes":["3649515864","63159454"]}