{"componentChunkName":"component---src-templates-establishment-page-js","path":"/establishment/51622680","result":{"data":{"site":{"pathPrefix":"/restaurant-inspections"},"postgres":{"establishment":[{"establishmentid":"51622680","name":"Lousiana Creole Gumbo #2","address":"2051 Gratiot","zipcode":"48207","owner":"LCG Foods Inc","licenseNumber":"229333","licenseType":"Mobile Food Establishment","establishmentType":"LHD - Mobile Food Establishmen","establishmentStatus":"Plan Review","riskCategory":null,"reviewFrequencyDays":"180","coords":"-83.03468,42.34933","geojson":{"id":"51622680","type":"Feature","geometry":{"type":"Point","coordinates":[-83.034679339,42.349330657]},"properties":{"name":"Lousiana Creole Gumbo #2","owner":"LCG Foods Inc","address":"2051 Gratiot","zipcode":"48207","license_type":"Mobile Food Establishment","risk_category":null,"license_number":"229333","establishmentid":"51622680","establishment_type":"LHD - Mobile Food Establishmen","establishment_status":"Plan Review","review_frequency_days":"180","most_recent_license_date":"4/24/2019"}},"nearbyList":[{"establishmentid":"538","name":"Louisiana Creole Gumbo","address":"2051 Gratiot Ave.","zipcode":"48207"},{"establishmentid":"51622488","name":"Louisiana Creole Gumbo/Mobile #1","address":"2051 Gratiot","zipcode":"48207"},{"establishmentid":"2425","name":"Louisiana Creole Gumbo/L.C.G. Catering","address":"2051 Gratiot Ave.","zipcode":"48207"},{"establishmentid":"1005","name":"Burger King #1009","address":"2155 Gratiot Ave.","zipcode":"48207"},{"establishmentid":"1178","name":"Cutters Bar And Grill","address":"2638 Orleans","zipcode":"48207"},{"establishmentid":"3183","name":"Detroit Edison Public School Academy","address":"1903 Wilkins","zipcode":"48207"},{"establishmentid":"228","name":"Times Square Deli","address":"2431 Orleans Ave.","zipcode":"48146"},{"establishmentid":"4614","name":"University Prep Science & Math Elem","address":"2251  Antietam Ave.","zipcode":"48207"},{"establishmentid":"51623106","name":"Flow Inc. (Proper Edge)","address":"2315 Orleans","zipcode":"48207"},{"establishmentid":"2163","name":"Eastern Market Catering","address":"1562 Alfred","zipcode":"48207"}],"inspectionsByEstablishmentidList":[{"inspectionid":"42319","inspectionDate":"2018-05-10T00:00:00","inspectionType":"Plan Review/Pre-Open","inCompliance":"Yes","violationsByInspectionidList":[]}]}],"maxInspectionDate":[{"inspectionDate":"2022-07-25T00:00:00"}]}},"pageContext":{"eid":"51622680"}},"staticQueryHashes":["3649515864","63159454"]}