{"componentChunkName":"component---src-templates-establishment-page-js","path":"/establishment/3113","result":{"data":{"site":{"pathPrefix":"/restaurant-inspections"},"postgres":{"establishment":[{"establishmentid":"3113","name":"Uhuru Softee","address":"12900 Greenfield Rd.","zipcode":"48227","owner":"Samuel Odoemelam","licenseNumber":"037458","licenseType":"Mobile Food Establishment","establishmentType":"LHD - Mobile Food Establishmen","establishmentStatus":"Open","riskCategory":null,"reviewFrequencyDays":null,"coords":"-83.19767,42.38364","geojson":{"id":"3113","type":"Feature","geometry":{"type":"Point","coordinates":[-83.197673458,42.383635731]},"properties":{"name":"Uhuru Softee","owner":"Samuel Odoemelam","address":"12900 Greenfield Rd.","zipcode":"48227","license_type":"Mobile Food Establishment","risk_category":null,"license_number":"037458","establishmentid":"3113","establishment_type":"LHD - Mobile Food Establishmen","establishment_status":"Open","review_frequency_days":null,"most_recent_license_date":"12/4/2006"}},"nearbyList":[{"establishmentid":"2484","name":"MISTER SOFTY TREAT #3","address":"12900 Greenfield Rd.","zipcode":"48227"},{"establishmentid":"2182","name":"KAHEE PLUS...","address":"12900 Greenfield Ave.","zipcode":"48227"},{"establishmentid":"2229","name":"Eats & Treats","address":"12900 Greenfield Rd.","zipcode":"48227"},{"establishmentid":"3326","name":"Jazeera","address":"12900 Greenfield Rd.","zipcode":"48212"},{"establishmentid":"2177","name":"My Man Ice Cream","address":"12900 Greenfield Rd.","zipcode":"48227"},{"establishmentid":"2490","name":"C B R","address":"12900 Greenfield Rd.","zipcode":"48227"},{"establishmentid":"2168","name":"THREE SCOOPS ICE CREAM","address":"12900 Greenfield Rd.","zipcode":"48209"},{"establishmentid":"2492","name":"HIREY ICE CREAM","address":"12874 Greenfield Rd.","zipcode":"48227"},{"establishmentid":"2302","name":"Love Joys","address":"12874 Greenfield Rd.","zipcode":"48227"},{"establishmentid":"2482","name":"YUMMY TRUCK","address":"12874 Greenfield Rd.","zipcode":"48235"}],"inspectionsByEstablishmentidList":[]}],"maxInspectionDate":[{"inspectionDate":"2022-07-25T00:00:00"}]}},"pageContext":{"eid":"3113"}},"staticQueryHashes":["3649515864","63159454"]}