{"componentChunkName":"component---src-templates-establishment-page-js","path":"/establishment/5261","result":{"data":{"site":{"pathPrefix":"/restaurant-inspections"},"postgres":{"establishment":[{"establishmentid":"5261","name":"Total Vending","address":"8211 Decatur","zipcode":"48228","owner":"Total Vending","licenseNumber":"TW4-29","licenseType":"Other","establishmentType":"LHD - Vending","establishmentStatus":"Open","riskCategory":null,"reviewFrequencyDays":null,"coords":"-83.18099,42.35416","geojson":{"id":"5261","type":"Feature","geometry":{"type":"Point","coordinates":[-83.180993612,42.354161696]},"properties":{"name":"Total Vending","owner":"Total Vending","address":"8211 Decatur","zipcode":"48228","license_type":"Other","risk_category":null,"license_number":"TW4-29","establishmentid":"5261","establishment_type":"LHD - Vending","establishment_status":"Open","review_frequency_days":null,"most_recent_license_date":"29/4/2016"}},"nearbyList":[{"establishmentid":"2996","name":"Modern Vending","address":"14300 Tireman","zipcode":"48228"},{"establishmentid":"51622924","name":"Tireman Flea Market (ILLEGAL OPERATION)","address":"14300 Tireman","zipcode":"48228"},{"establishmentid":"51623263","name":"Awtar Lounge","address":"13750 Tireman","zipcode":"48222"},{"establishmentid":"51622497","name":"Islamic Center of Detroit","address":"14350 Tireman","zipcode":"48228"},{"establishmentid":"51623855","name":"B & F Krispy Krunchy","address":"8000 Schaefer","zipcode":"48228"},{"establishmentid":"3976","name":"Manhattan Fish and Chicken","address":"8712 Schaefer Ave. ","zipcode":"48228"},{"establishmentid":"2077","name":"Superior Coney Island","address":"14501 Joy Rd.","zipcode":"48228"},{"establishmentid":"3360","name":"Grinderz","address":"14746 Tireman","zipcode":"48228"},{"establishmentid":"930","name":"McFarlane Elementary","address":"8900 Cheyenne","zipcode":"48238"},{"establishmentid":"2116","name":"Total Vending","address":"13881 Chicago W.","zipcode":"48228"}],"inspectionsByEstablishmentidList":[]}],"maxInspectionDate":[{"inspectionDate":"2023-04-13T00:00:00"}]}},"pageContext":{"eid":"5261"}},"staticQueryHashes":["3649515864","63159454"]}