{"componentChunkName":"component---src-templates-establishment-page-js","path":"/establishment/3993","result":{"data":{"site":{"pathPrefix":"/restaurant-inspections"},"postgres":{"establishment":[{"establishmentid":"3993","name":"River Walk Cafe","address":"1340 Atwater E.","zipcode":"48207","owner":"Diamond Hospitality","licenseNumber":"064093","licenseType":"Fixed Establishment","establishmentType":"Food Service Establishment","establishmentStatus":"Permanently Closed","riskCategory":null,"reviewFrequencyDays":"335","coords":"-83.03197,42.33040","geojson":{"id":"3993","type":"Feature","geometry":{"type":"Point","coordinates":[-83.031969542,42.330396176]},"properties":{"name":"River Walk Cafe","owner":"Diamond Hospitality","address":"1340 Atwater E.","zipcode":"48207","license_type":"Fixed Establishment","risk_category":null,"license_number":"064093","establishmentid":"3993","establishment_type":"Food Service Establishment","establishment_status":"Permanently Closed","review_frequency_days":"335","most_recent_license_date":"5/7/2014"}},"nearbyList":[{"establishmentid":"5199","name":"Riverwalk Cafe Carousel","address":"1340 E. Atwater","zipcode":"48207"},{"establishmentid":"2688","name":"Filterfresh","address":"1000 Woodbridge","zipcode":"48207"},{"establishmentid":"2357","name":"Steve's Soul Food Det/The Key Club","address":"1440 Franklin","zipcode":"48207"},{"establishmentid":"51623685","name":"The Breakfast Loft Inc ","address":"1440 Franklin St Suit 300","zipcode":"48207"},{"establishmentid":"51623274","name":"Steve's World of Food--FOOD TRUCK","address":"1440 Franklin","zipcode":"48207"},{"establishmentid":"51623275","name":"Steve's World of Food #2 SEMI","address":"1440 Franklin","zipcode":"48207"},{"establishmentid":"2623","name":"Alabama Style Chicken & Fish","address":"1404 Jefferson Ave. E.","zipcode":"48207"},{"establishmentid":"4450","name":"Happy's Pizza #99","address":"1404 Jefferson Ave E.","zipcode":"48207"},{"establishmentid":"449","name":"Clique Restaurant","address":"1326 Jefferson Ave. E.","zipcode":"48207"},{"establishmentid":"774","name":"Disabled American Veterans","address":"1360 Jefferson E.","zipcode":"48207"}],"inspectionsByEstablishmentidList":[]}],"maxInspectionDate":[{"inspectionDate":"2022-07-25T00:00:00"}]}},"pageContext":{"eid":"3993"}},"staticQueryHashes":["3649515864","63159454"]}