{"data":{"site":{"pathPrefix":"/restaurant-inspections"},"postgres":{"establishment":[{"establishmentid":"2811","name":"Captain Jay's Fish & Chicken","address":"9623 Gratiot Ave","zipcode":"48213","owner":"Amana Foods","licenseNumber":"054635","licenseType":"Fixed Establishment","establishmentType":"Food Service Establishment","establishmentStatus":"Permanently Closed","riskCategory":null,"reviewFrequencyDays":"180.0","coords":"-83.00632,42.39232","geojson":{"id":"2811","type":"Feature","geometry":{"type":"Point","coordinates":[-83.006316735,42.392321827]},"properties":{"name":"Captain Jay's Fish & Chicken","owner":"Amana Foods","address":"9623 Gratiot Ave","zipcode":"48213","license_type":"Fixed Establishment","risk_category":null,"license_number":"054635","establishmentid":"2811","establishment_type":"Food Service Establishment","establishment_status":"Permanently Closed","review_frequency_days":"180.0","most_recent_license_date":"4/22/2016"}},"nearbyList":[{"establishmentid":"3633","name":"Subway #26842","address":"9655 Gratiot Ave","zipcode":"48213"},{"establishmentid":"5398","name":"Captain Jay's #102","address":"9654 Gratiot Ave","zipcode":"48213"},{"establishmentid":"3511","name":"Ross Catering","address":"9628 Harper Ave","zipcode":"48213"},{"establishmentid":"3632","name":"Hollywood Coney Island","address":"9951 Gratiot Ave","zipcode":"48213"},{"establishmentid":"207","name":"Burger King ","address":"9239 Gratiot Ave","zipcode":"48213"},{"establishmentid":"2148","name":"Operation Get Down","address":"10100 Harper Ave","zipcode":"48213"},{"establishmentid":"1436","name":"Blackwell Institute","address":"9330 Shoemaker St","zipcode":"48213"},{"establishmentid":"1244","name":"Bethel Baptist Church East","address":"5715 Holcomb St","zipcode":"48213"},{"establishmentid":"1643","name":"A. L. Holmes Elementary","address":"8950 Crane St","zipcode":"48213"},{"establishmentid":"1071","name":"McDonald's #2527","address":"10400 Gratiot Ave","zipcode":"48213"}],"inspectionsByEstablishmentidList":[{"inspectionid":"36267","inspectionDate":"2016-08-02T00:00:00","inspectionType":"Routine Inspection","inCompliance":"Yes","violationsByInspectionidList":[{"violationCode":"4-602.13","violationDescription":"NonFOOD-CONTACT SURFACES of EQUIPMENT shall be cleaned at a frequency necessary to preclude accumulation of soil residues.\r\n","violationType":"Core","itemDescription":"Nonfood contact surface(s)","subItem":"","problemDescription":"With accumulation of debris","subProblem":"","location":"KITCHEN (FRONT AREA)","subLocation":"","corrected":"Not required","daysToCorrect":"30.0","correctedDate":null,"correctionDescription":"Keep clean."}]}]}],"maxInspectionDate":[{"inspectionDate":"2019-03-31T00:00:00"}]}},"pageContext":{"eid":"2811"}}