{"data":{"postgres":{"establishment":[{"establishmentid":"51622872","name":"Runabout Cafe","address":"3044 W Grand Blvd","zipcode":"48202","owner":"Jeff's Over the Top Catering","licenseNumber":"233731","licenseType":"Fixed Establishment","establishmentType":"Food Service Establishment","establishmentStatus":"Plan Review","riskCategory":"High","reviewFrequencyDays":"180.0","coords":"-83.07536,42.36875","geojson":{"id":"51622872","type":"Feature","geometry":{"type":"Point","coordinates":[-83.075361098,42.3687541410001]},"properties":{"name":"Runabout Cafe","owner":"Jeff's Over the Top Catering","address":"3044 W Grand Blvd","zipcode":"48202","license_type":"Fixed Establishment","risk_category":"High","license_number":"233731","establishmentid":"51622872","establishment_type":"Food Service Establishment","establishment_status":"Plan Review","review_frequency_days":"180.0","most_recent_license_date":"11/8/2018"}},"nearbyList":[{"establishmentid":"51622642","name":"Henry Ford High School at CCS","address":"485 W Milwaukee Ave","zipcode":"48202"},{"establishmentid":"4148","name":"College for Creative Studies- Tim Horton","address":"485 W Milwaukee Ave","zipcode":"48202"},{"establishmentid":"3899","name":"College for Creative Studies","address":"485 W Milwaukee Ave","zipcode":"48202"},{"establishmentid":"51622796","name":"Tim Hortons / Continental","address":"485 W Milwaukee Ave","zipcode":"48202"},{"establishmentid":"51622806","name":"Henry Ford Academy CCS","address":"485 W Milwaukee Ave","zipcode":"48202"},{"establishmentid":"2241","name":"La Musique/Hotel St. Regis","address":"3071 W Grand Blvd","zipcode":"48202"},{"establishmentid":"51622711","name":"St. Regis Operating LLC","address":"3071 W Grand Blvd","zipcode":"48236"},{"establishmentid":"2165","name":"New Center Eatery","address":"3100 W Grand Blvd","zipcode":"48202"},{"establishmentid":"1683","name":"Coffee Master","address":"3031 W Grand Blvd. #206","zipcode":"48202"},{"establishmentid":"4748","name":"New Center Grill","address":"3031 W Grand Blvd., Suite 202","zipcode":"48202"},{"establishmentid":"2287","name":"Lunchtime Neo LLC","address":"3031 W Grand Blvd. Suite 201","zipcode":"48202"},{"establishmentid":"2616","name":"New Center-Rice Bowl","address":"3031 W Grand Blvd., Suite 230","zipcode":"48202"},{"establishmentid":"2076","name":"The Coney Man","address":"3031 W Grand Blvd. ","zipcode":"48202"},{"establishmentid":"1722","name":"New Center Gourmet","address":"3031 W Grand Blvd. Ste 134","zipcode":"48202"},{"establishmentid":"1535","name":"Detroit Donuts","address":"3031 W Grand Blvd","zipcode":"48202"},{"establishmentid":"4170","name":"New Center Park","address":"2998 W Grand Blvd","zipcode":"48202"},{"establishmentid":"51622570","name":"Avalon Cafe and Biscuit Bar","address":"2990 W Grand Blvd","zipcode":"48202"},{"establishmentid":"4878","name":"Cafe Con Leche - Nord","address":"2990 W Grand Blvd","zipcode":"48202"},{"establishmentid":"662","name":"Northern Lights Lounge","address":"660 W Baltimore St","zipcode":"48202"},{"establishmentid":"4958","name":"Don Bosco Hall/YouthVille Detroit","address":"7375 Woodward Ave","zipcode":"48202"}],"inspectionsByEstablishmentidList":[{"inspectionid":"44398","inspectionDate":"2018-12-07T00:00:00","inspectionType":"Preopening/Other","inCompliance":"Yes","violationsByInspectionidList":[]}]}]}},"pageContext":{"eid":"51622872"}}