{"data":{"postgres":{"establishment":[{"establishmentid":"1243","name":"Pasteur Elementary School","address":"19811 Stoepel St","zipcode":"48221","owner":"Detroit Board of Education","licenseNumber":"035344","licenseType":"Fixed Establishment","establishmentType":"Public School","establishmentStatus":"Open","riskCategory":null,"reviewFrequencyDays":"210.0","coords":"-83.14327,42.43819","geojson":{"id":"1243","type":"Feature","geometry":{"type":"Point","coordinates":[-83.143274052,42.438194626]},"properties":{"name":"Pasteur Elementary School","owner":"Detroit Board of Education","address":"19811 Stoepel St","zipcode":"48221","license_type":"Fixed Establishment","risk_category":null,"license_number":"035344","establishmentid":"1243","establishment_type":"Public School","establishment_status":"Open","review_frequency_days":"210.0","most_recent_license_date":"4/30/2018"}},"nearbyList":[{"establishmentid":"4245","name":"New Prospect Missionary Baptist Church","address":"6330 Pembroke St","zipcode":"48221"},{"establishmentid":"1469","name":"Noni's Sherwood Grille","address":"19700 Livernois Ave","zipcode":"48221"},{"establishmentid":"51622487","name":"Bucharest Grill","address":"19492 Livernois","zipcode":"48221"},{"establishmentid":"3928","name":"1917 American Bistro","address":"19416 Livernois","zipcode":"48221"},{"establishmentid":"2110","name":"Hangover's Lounge","address":"20143 Livernois Ave","zipcode":"48221"},{"establishmentid":"4617","name":"Kuzzo's Chicken & Waffles LLC","address":"19345 Livernois Ave","zipcode":"48221"},{"establishmentid":"51622453","name":"Narrow Way Cafe LLC","address":"19331 Livernois Ave","zipcode":"48221"},{"establishmentid":"5190","name":"D and D Cuisine LLC","address":"17521 Livernois Ave","zipcode":"48221"},{"establishmentid":"51622833","name":"Legends Pizza on the Ave","address":"19163 Livernois Ave","zipcode":"48221"},{"establishmentid":"5208","name":"The Avenue \"An International Kitchen\"","address":"19163 Livernois Ave","zipcode":"48221"},{"establishmentid":"5301","name":"Mr. Fofo's Deli","address":"19166 Livernois","zipcode":"48221"},{"establishmentid":"5428","name":"BabyBack's Open Pit","address":"7108 W Seven Mile Rd","zipcode":"48221"},{"establishmentid":"5078","name":"Papa's Pizza - JNL Pizzaria, Inc.","address":"7410 W Seven Mile Rd","zipcode":"48221"},{"establishmentid":"51622720","name":"Durdens Catering LLC","address":"20504 Livernois","zipcode":"48221"},{"establishmentid":"4356","name":"We Will Cook For You","address":"20504 Livernois Ave","zipcode":"48221"},{"establishmentid":"4266","name":"Baker's Keyboard Lounge","address":"20510 Livernois Ave","zipcode":"48221"},{"establishmentid":"1798","name":"Wendy's Old Fashioned Hamburgers #0820","address":"6333 W Eight Mile Rd","zipcode":"48221"},{"establishmentid":"51622673","name":"Biggby Coffee","address":"18685 Livernois","zipcode":"48221"},{"establishmentid":"1656","name":"Boston Market #976","address":"18610 Livernois Ave","zipcode":"48221"},{"establishmentid":"4452","name":"Happy's Pizza #100","address":"7731 E Seven Mile Rd","zipcode":"48234"}],"inspectionsByEstablishmentidList":[{"inspectionid":"44385","inspectionDate":"2018-12-07T00:00:00","inspectionType":"Routine Inspection","inCompliance":"Yes","violationsByInspectionidList":[{"violationCode":"6-303.11","violationDescription":"Light of the proper intensity shall be provided as specified.\r\n","violationType":"Core","itemDescription":"Lighting intensity","subItem":"","problemDescription":"Not maintained","subProblem":"","location":"KITCHEN (FRONT AREA)","subLocation":"Inside the Freezer(s)","corrected":"Not required","daysToCorrect":"30.0","correctedDate":null,"correctionDescription":"Maintain in good repair"}]},{"inspectionid":"42653","inspectionDate":"2018-06-21T00:00:00","inspectionType":"Routine Inspection","inCompliance":"Yes","violationsByInspectionidList":[]},{"inspectionid":"40819","inspectionDate":"2017-11-16T00:00:00","inspectionType":"Routine Inspection","inCompliance":"Yes","violationsByInspectionidList":[]},{"inspectionid":"38850","inspectionDate":"2017-05-24T00:00:00","inspectionType":"Routine Inspection","inCompliance":"Yes","violationsByInspectionidList":[]},{"inspectionid":"36861","inspectionDate":"2016-10-18T00:00:00","inspectionType":"Routine Inspection","inCompliance":"Yes","violationsByInspectionidList":[]}]}]}},"pageContext":{"eid":"1243"}}