{"data":{"postgres":{"establishment":[{"establishmentid":"2811","name":"Captain Jay's Fish & Chicken","address":"9623 Gratiot Ave","zipcode":"48213","owner":"Amana Foods","licenseNumber":"054635","licenseType":"Fixed Establishment","establishmentType":"Food Service Establishment","establishmentStatus":"Permanently Closed","riskCategory":null,"reviewFrequencyDays":"180.0","coords":"-83.00632,42.39232","geojson":{"id":"2811","type":"Feature","geometry":{"type":"Point","coordinates":[-83.006316735,42.392321827]},"properties":{"name":"Captain Jay's Fish & Chicken","owner":"Amana Foods","address":"9623 Gratiot Ave","zipcode":"48213","license_type":"Fixed Establishment","risk_category":null,"license_number":"054635","establishmentid":"2811","establishment_type":"Food Service Establishment","establishment_status":"Permanently Closed","review_frequency_days":"180.0","most_recent_license_date":"4/22/2016"}},"nearbyList":[{"establishmentid":"3633","name":"Subway #26842","address":"9655 Gratiot Ave","zipcode":"48213"},{"establishmentid":"5398","name":"Captain Jay's #102","address":"9654 Gratiot Ave","zipcode":"48213"},{"establishmentid":"3511","name":"Ross Catering","address":"9628 Harper Ave","zipcode":"48213"},{"establishmentid":"3632","name":"Hollywood Coney Island","address":"9951 Gratiot Ave","zipcode":"48213"},{"establishmentid":"207","name":"Burger King ","address":"9239 Gratiot Ave","zipcode":"48213"},{"establishmentid":"2148","name":"Operation Get Down","address":"10100 Harper Ave","zipcode":"48213"},{"establishmentid":"1436","name":"Blackwell Institute","address":"9330 Shoemaker St","zipcode":"48213"},{"establishmentid":"1244","name":"Bethel Baptist Church East","address":"5715 Holcomb St","zipcode":"48213"},{"establishmentid":"1643","name":"A. L. Holmes Elementary","address":"8950 Crane St","zipcode":"48213"},{"establishmentid":"1071","name":"McDonald's #2527","address":"10400 Gratiot Ave","zipcode":"48213"},{"establishmentid":"380","name":"White Castle #48","address":"10500 Gratiot Ave","zipcode":"48213"},{"establishmentid":"4474","name":"Tim Hortons","address":"10533 Gratiot Ave","zipcode":"48213"},{"establishmentid":"1985","name":"Food Exchange (Harvey's Fabulous Foods)","address":"8451 Harper Ave ","zipcode":"48205"},{"establishmentid":"4999","name":"Big A's Concessions","address":"5119 Cadillac","zipcode":"48213"},{"establishmentid":"51622687","name":"House of BBQ","address":"8300 Gratiot Ave","zipcode":"48213"},{"establishmentid":"932","name":"Brewer's Party Room","address":"8225 Gratiot Ave","zipcode":"48213"},{"establishmentid":"2327","name":"Wendy's ","address":"7850 Gratiot Ave","zipcode":"48213"},{"establishmentid":"5003","name":"Coney Connection","address":"10993 Gratiot Ave","zipcode":"48205"},{"establishmentid":"51622640","name":"Rio's Coney Island","address":"10993 Gratiot Ave","zipcode":"48213"},{"establishmentid":"3821","name":"Shabazz East Restaurant","address":"4712-16 Cadillac Blvd","zipcode":"48214"}],"inspectionsByEstablishmentidList":[{"inspectionid":"36267","inspectionDate":"2016-08-02T00:00:00","inspectionType":"Routine Inspection","inCompliance":"Yes","violationsByInspectionidList":[{"violationCode":"4-602.13","violationDescription":"NonFOOD-CONTACT SURFACES of EQUIPMENT shall be cleaned at a frequency necessary to preclude accumulation of soil residues.\r\n","violationType":"Core","itemDescription":"Nonfood contact surface(s)","subItem":"","problemDescription":"With accumulation of debris","subProblem":"","location":"KITCHEN (FRONT AREA)","subLocation":"","corrected":"Not required","daysToCorrect":"30.0","correctedDate":null,"correctionDescription":"Keep clean."}]}]}]}},"pageContext":{"eid":"2811"}}