{"data":{"site":{"pathPrefix":"/restaurant-inspections"},"postgres":{"establishment":[{"establishmentid":"2007","name":"Subway #44796","address":"1401 Beaubien St","zipcode":"48226","owner":"Mitesh Patel","licenseNumber":"073850","licenseType":"Fixed Establishment","establishmentType":"Food Service Establishment","establishmentStatus":"Open","riskCategory":null,"reviewFrequencyDays":"365.0","coords":"-83.04386,42.33646","geojson":{"id":"2007","type":"Feature","geometry":{"type":"Point","coordinates":[-83.043855384,42.3364611160001]},"properties":{"name":"Subway #44796","owner":"Mitesh Patel","address":"1401 Beaubien St","zipcode":"48226","license_type":"Fixed Establishment","risk_category":null,"license_number":"073850","establishmentid":"2007","establishment_type":"Food Service Establishment","establishment_status":"Open","review_frequency_days":"365.0","most_recent_license_date":"8/2/2018"}},"nearbyList":[{"establishmentid":"3585","name":"Harbor House","address":"440 Clinton St","zipcode":"48226"},{"establishmentid":"5140","name":"Basement Burger Bar","address":"1326 Brush St ","zipcode":"48226"},{"establishmentid":"4865","name":"Birmingham Deli","address":"1441 St Antoine St","zipcode":"48226"},{"establishmentid":"1681","name":"Hilton Garden Inn/ American Grill","address":"351 Gratiot Ave","zipcode":"48226"},{"establishmentid":"4624","name":"Firebird Tavern","address":"419 Monroe St","zipcode":"48226"},{"establishmentid":"3179","name":"Santorini","address":"501 Monroe St","zipcode":"48226"},{"establishmentid":"385","name":"The Old Shillelagh, LLC","address":"349 Monroe St","zipcode":"48226"},{"establishmentid":"1106","name":"Music Hall Center","address":"350 Madison","zipcode":"48226"},{"establishmentid":"388","name":"Pappy's Bar and Grill","address":"517 Monroe St","zipcode":"48226"},{"establishmentid":"389","name":"Golden Fleece Restaurant Inc.","address":"525 Monroe St","zipcode":"48226"},{"establishmentid":"51622604","name":"Eat N Out Pizza & Gelato","address":"531 Monroe","zipcode":"48226"},{"establishmentid":"4844","name":"Centre Park Restaurant","address":"1407 Randolph","zipcode":"48226"},{"establishmentid":"342","name":"The Well","address":"1228 Randolph St","zipcode":"48226"},{"establishmentid":"1202","name":"The Greek","address":"535 Monroe St","zipcode":"48226"},{"establishmentid":"4487","name":"Plaka Level 2","address":"535 Monroe St","zipcode":"48226"},{"establishmentid":"51622603","name":"Giordano's Pizza","address":"1224 Randolph St","zipcode":"48226"},{"establishmentid":"3925","name":"La Casa De La Habana Detroit","address":"1502 Randolph","zipcode":"48226"},{"establishmentid":"4615","name":"Buffalo Wild Wings","address":"1218 Randolph St","zipcode":"48226"},{"establishmentid":"1485","name":"International Banquet & Conference Ctr.","address":"400 Monroe St","zipcode":"48226"},{"establishmentid":"1505","name":"Fishbones Rhythm Kitchen ","address":"400 Monroe St","zipcode":"48226"}],"inspectionsByEstablishmentidList":[{"inspectionid":"42571","inspectionDate":"2018-06-15T00:00:00","inspectionType":"Routine Inspection","inCompliance":"Yes","violationsByInspectionidList":[{"violationCode":"3-501.13","violationDescription":"POTENTIALLY HAZARDOUS FOOD (TIME/TEMPERATURE CONTROL FOR SAFETY FOOD)  shall be thawed:  Under refrigeration, or under cool running water (<70° F), or as part of cooking process, and total accumulated time above 41° F, for thawed portions, shall not exceed 4 hours.  Any thawing procedure may be used for immediate service for individual consumers order of READY-TO-EAT foods.\r\n","violationType":"Core","itemDescription":"Frozen food(s) for thawing","subItem":"","problemDescription":"Stored above 41 degrees F thawed or partially thawed","subProblem":"At room temperature","location":"KITCHEN","subLocation":"","corrected":"Not required","daysToCorrect":"30.0","correctedDate":null,"correctionDescription":"Store under refrigeration."}]}]}]}},"pageContext":{"eid":"2007"}}