{"data":{"site":{"pathPrefix":"/restaurant-inspections"},"postgres":{"establishment":[{"establishmentid":"2070","name":"Cesar Chavez Academy","address":"4100 Martin St","zipcode":"4821","owner":"Leona Group","licenseNumber":"067229","licenseType":"Fixed Establishment","establishmentType":"Non-Public School","establishmentStatus":"Open","riskCategory":null,"reviewFrequencyDays":"210","coords":"-83.12519,42.32903","geojson":{"id":"2070","type":"Feature","geometry":{"type":"Point","coordinates":[-83.125185205,42.329027211]},"properties":{"name":"Cesar Chavez Academy","owner":"Leona Group","address":"4100 Martin St","zipcode":"4821","license_type":"Fixed Establishment","risk_category":null,"license_number":"067229","establishmentid":"2070","establishment_type":"Non-Public School","establishment_status":"Open","review_frequency_days":"210","most_recent_license_date":"5/15/2020"}},"nearbyList":[{"establishmentid":"2953","name":"The Sting","address":"6609 Michigan Ave","zipcode":"4821"},{"establishmentid":"434","name":"Dairy Queen #10216","address":"6677 Michigan Ave","zipcode":"4821"},{"establishmentid":"950","name":"Kwong Village Chinese American","address":"6600 Michigan Ave","zipcode":"4821"},{"establishmentid":"4966","name":"Rincon Tropical","address":"6538 Michigan Ave","zipcode":"4821"},{"establishmentid":"51623120","name":"Academy of the Americas Elementary","address":"3811 Cicotte St","zipcode":"48217"},{"establishmentid":"968","name":"Escuela Avancemos/Logan Elementary","address":"3811 Cicotte St","zipcode":"48217"},{"establishmentid":"1375","name":"McDonald's #7453","address":"6876 Michigan Ave","zipcode":"4821"},{"establishmentid":"660","name":"Telway System","address":"6820 Michigan Ave","zipcode":"4821"},{"establishmentid":"2308","name":"George's Famous Coney Island","address":"6362 Michigan Ave","zipcode":"4821"},{"establishmentid":"802","name":"Tommy T's Pub","address":"3511 Clippert St","zipcode":"4821"}],"inspectionsByEstablishmentidList":[{"inspectionid":"49224","inspectionDate":"2019-09-24T00:00:00","inspectionType":"Routine Inspection","inCompliance":"Yes","violationsByInspectionidList":[{"violationCode":"4-501.11","violationDescription":"EQUIPMENT shall be maintained in a state of repair and condition that meets the requirements of the code.\r\n","violationType":"Core","itemDescription":"Equipment","subItem":"","problemDescription":"Broken","subProblem":"","location":"CAFETERIA","subLocation":"Cooler(s)","corrected":"Not required","daysToCorrect":"30","correctedDate":null,"correctionDescription":"Repair/replace."}]}]}],"maxInspectionDate":[{"inspectionDate":"2020-10-30T00:00:00"}]}},"pageContext":{"eid":"2070"}}