{"data":{"site":{"pathPrefix":null},"postgres":{"establishment":[{"establishmentid":"4907","name":"Javon's Kitchen","address":"14445 Schaefer Hwy","zipcode":"48227","owner":"Andrew Jackson","licenseNumber":"078541","licenseType":"Fixed Establishment","establishmentType":"Food Service Establishment","establishmentStatus":"Permanently Closed","riskCategory":null,"reviewFrequencyDays":"180.0","coords":"-83.17916,42.39461","geojson":{"id":"4907","type":"Feature","geometry":{"type":"Point","coordinates":[-83.1791646839999,42.394607664]},"properties":{"name":"Javon's Kitchen","owner":"Andrew Jackson","address":"14445 Schaefer Hwy","zipcode":"48227","license_type":"Fixed Establishment","risk_category":null,"license_number":"078541","establishmentid":"4907","establishment_type":"Food Service Establishment","establishment_status":"Permanently Closed","review_frequency_days":"180.0","most_recent_license_date":null}},"nearbyList":[{"establishmentid":"782","name":"Toya's Bar & Grill","address":"14906 Schaefer Hwy","zipcode":"48227"},{"establishmentid":"2280","name":"Mary's Grille","address":"13900 Schaefer Hwy","zipcode":"48227"},{"establishmentid":"5393","name":"Five Hundred Degrees","address":"15090 Schaefer","zipcode":"48227"},{"establishmentid":"1214","name":"Church's Fried Chicken #964","address":"13531 Fenkell Ave","zipcode":"48227"},{"establishmentid":"1866","name":"Lee's Texas Style Bar-B-Que","address":"14001 Fenkell","zipcode":"48227"},{"establishmentid":"51622832","name":"Fred's Fish & Chicken-Schaefer","address":"13465 Schaefer","zipcode":"48227"},{"establishmentid":"5234","name":"Fish & Chicken Stop Inc.","address":"13465 Schaefer Hwy","zipcode":"48227"},{"establishmentid":"5175","name":"Gunny Ray's Shrimp & Chicken","address":"15391 Schaefer Hwy","zipcode":"48227"},{"establishmentid":"4992","name":"Glasshouse Bar and Grill","address":"14301 Grand River Ave","zipcode":"48227"},{"establishmentid":"5362","name":"McDonalds","address":"13676 Grand River","zipcode":"48227"}],"inspectionsByEstablishmentidList":[{"inspectionid":"39533","inspectionDate":"2017-07-11T00:00:00","inspectionType":"Routine Inspection","inCompliance":"Yes","violationsByInspectionidList":[]},{"inspectionid":"37333","inspectionDate":"2016-12-06T00:00:00","inspectionType":"Routine Inspection","inCompliance":"Yes","violationsByInspectionidList":[]}]}]}},"pageContext":{"eid":"4907"}}