{"componentChunkName":"component---src-templates-establishment-page-js","path":"/establishment/1832","result":{"data":{"site":{"pathPrefix":"/restaurant-inspections"},"postgres":{"establishment":[{"establishmentid":"1832","name":"Robinson Dairy Vending","address":"5901 Conner","zipcode":"48213","owner":"Frank Caramagno","licenseNumber":"035908","licenseType":"Other","establishmentType":"LHD - Vending","establishmentStatus":"Open","riskCategory":null,"reviewFrequencyDays":"180","coords":"-82.98677,42.39426","geojson":{"id":"1832","type":"Feature","geometry":{"type":"Point","coordinates":[-82.986767871,42.394262411]},"properties":{"name":"Robinson Dairy Vending","owner":"Frank Caramagno","address":"5901 Conner","zipcode":"48213","license_type":"Other","risk_category":null,"license_number":"035908","establishmentid":"1832","establishment_type":"LHD - Vending","establishment_status":"Open","review_frequency_days":"180","most_recent_license_date":null}},"nearbyList":[{"establishmentid":"3165","name":"Subway WCCC","address":"5901 Conner Ave.","zipcode":"48213"},{"establishmentid":"4820","name":"Bates & Company","address":"11585  Harper Ave.","zipcode":"48205"},{"establishmentid":"3545","name":"Blanche Kelso Bruce Academy East","address":"5555 Conner","zipcode":"48213"},{"establishmentid":"51623449","name":"Reef Kitchens #06 (Fixed Trailer)","address":"5555 Conner Street ","zipcode":"48213"},{"establishmentid":"251","name":"St. Rose Senior Center ","address":"5555 Conner, Ste. 1052","zipcode":"48213"},{"establishmentid":"4156","name":"Samaritan Cafe","address":"5555 Conner","zipcode":"48213"},{"establishmentid":"2390","name":"Edibles Rex","address":"5555 Conner, Ste. 1058","zipcode":"48213"},{"establishmentid":"1060","name":"Macomb Elementary","address":"12021 Evanston","zipcode":"48213"},{"establishmentid":"3157","name":"BB's Home of Steak & Shrimp","address":"9472 Conner","zipcode":"48209"},{"establishmentid":"51622858","name":"Detroit Blues Breakfast Restaurant","address":"9488 Conner","zipcode":"48213"}],"inspectionsByEstablishmentidList":[]}],"maxInspectionDate":[{"inspectionDate":"2022-07-25T00:00:00"}]}},"pageContext":{"eid":"1832"}},"staticQueryHashes":["3649515864","63159454"]}