{"data":{"site":{"pathPrefix":"/restaurant-inspections"},"postgres":{"establishment":[{"establishmentid":"51623116","name":"AM Krispy Krunchy Chicken","address":"21740 Fenkell Ave","zipcode":"48223","owner":"Alaam Saleh Fadel","licenseNumber":"PS092719","licenseType":"Fixed Establishment","establishmentType":"Food Service Establishment","establishmentStatus":"Open","riskCategory":null,"reviewFrequencyDays":"90.0","coords":"-83.25637,42.40061","geojson":{"id":"51623116","type":"Feature","geometry":{"type":"Point","coordinates":[-83.256369588,42.400613875]},"properties":{"name":"AM Krispy Krunchy Chicken","owner":"Alaam Saleh Fadel","address":"21740 Fenkell Ave","zipcode":"48223","license_type":"Fixed Establishment","risk_category":null,"license_number":"PS092719","establishmentid":"51623116","establishment_type":"Food Service Establishment","establishment_status":"Open","review_frequency_days":"90.0","most_recent_license_date":"4/16/2020"}},"nearbyList":[{"establishmentid":"5269","name":"Habibi Fish & Chicken","address":"21740 Fenkell","zipcode":"48223"},{"establishmentid":"51622753","name":"Fred's Fish & Chicken","address":"21740 Fenkell Street","zipcode":"48223"},{"establishmentid":"51622518","name":"New Grandy's","address":"22001 Fenkell Ave","zipcode":"48223"},{"establishmentid":"4283","name":"New Grandy's ","address":"22001 Fenkell Ave","zipcode":"48223"},{"establishmentid":"4036","name":"Ronald Brown Academy (Annex)","address":"11450 E Outer Drive","zipcode":"48224"},{"establishmentid":"239","name":"Scotty Simpsons Fish and Chips","address":"22200 Fenkell Ave","zipcode":"48223"},{"establishmentid":"51622451","name":"F & R Eatery","address":"21451 Fenkell","zipcode":"48223"},{"establishmentid":"1710","name":"St. Christine's Community Soup Kitchen","address":"22261 Fenkell Ave","zipcode":"48223"},{"establishmentid":"1521","name":"Mt. Vernon Missionary Baptist Church","address":"15125 Burt Rd","zipcode":"48223"},{"establishmentid":"51623042","name":"Alani's Soul Kitchen","address":"22735 Fenkell Ave","zipcode":"48223"}],"inspectionsByEstablishmentidList":[{"inspectionid":"51139","inspectionDate":"2020-03-12T00:00:00","inspectionType":"Routine Inspection","inCompliance":"Yes","violationsByInspectionidList":[{"violationCode":"6-302.11","violationDescription":"A supply of toilet tissue shall be available at each toilet.(Pf)\r\n","violationType":"Foundation","itemDescription":"Toilet paper","subItem":"at toilet in restroom employee","problemDescription":"Not provided","subProblem":"At hand sink","location":"RESTROOM (EMPLOYEE)","subLocation":"","corrected":"Yes","daysToCorrect":"10","correctedDate":"2020-03-12T00:00:00","correctionDescription":null}]}]}],"maxInspectionDate":[{"inspectionDate":"2020-05-29T00:00:00"}]}},"pageContext":{"eid":"51623116"}}