{"data":{"site":{"pathPrefix":"/restaurant-inspections"},"postgres":{"establishment":[{"establishmentid":"51622473","name":"Yum Village Food Truck Works Detroit","address":"1415 Parker St #867 ","zipcode":"48214","owner":"Godwin Ihentuge","licenseNumber":"237709","licenseType":"Mobile Food Establishment","establishmentType":"LHD - Mobile Food Establishmen","establishmentStatus":"Seasonal","riskCategory":null,"reviewFrequencyDays":"210","coords":"-82.99655,42.35554","geojson":{"id":"51622473","type":"Feature","geometry":{"type":"Point","coordinates":[-82.996547625,42.35553741]},"properties":{"name":"Yum Village Food Truck Works Detroit","owner":"Godwin Ihentuge","address":"1415 Parker St #867 ","zipcode":"48214","license_type":"Mobile Food Establishment","risk_category":null,"license_number":"237709","establishmentid":"51622473","establishment_type":"LHD - Mobile Food Establishmen","establishment_status":"Seasonal","review_frequency_days":"210","most_recent_license_date":"5/22/2019"}},"nearbyList":[{"establishmentid":"4817","name":"Craft Work","address":"8047 Agnes St","zipcode":"48214"},{"establishmentid":"4765","name":"Detroit Vegan Soul, LLC","address":"8029 Agnes St","zipcode":"48214"},{"establishmentid":"4953","name":"The Red Hook, Detroit, LLC","address":"8025 Agnes St","zipcode":"48214"},{"establishmentid":"1336","name":"Indian Village Tennis Club","address":"1502 Parker Ave","zipcode":"48214"},{"establishmentid":"51622951","name":"Snack Camp","address":"1464 Van Dyke Ave","zipcode":"48214"},{"establishmentid":"51623218","name":"Coriander LLC (Oakland Co.)","address":"1792 Parker St","zipcode":"48212"},{"establishmentid":"51622821","name":"Destination 1905","address":"8130 Kercheval Ave","zipcode":"48214"},{"establishmentid":"51623103","name":"Detroit Grill & Chill","address":"8009 E Jefferson Ave","zipcode":"48214"},{"establishmentid":"1870","name":"Belle Isle Pizza (fka) Garalino's Pizza","address":"7869 E Jefferson Ave","zipcode":"48214"},{"establishmentid":"4233","name":"St. Charles","address":"1491 Baldwin St","zipcode":"48214"}],"inspectionsByEstablishmentidList":[]}],"maxInspectionDate":[{"inspectionDate":"2020-10-30T00:00:00"}]}},"pageContext":{"eid":"51622473"}}