{"componentChunkName":"component---src-templates-establishment-page-js","path":"/establishment/1318","result":{"data":{"site":{"pathPrefix":"/restaurant-inspections"},"postgres":{"establishment":[{"establishmentid":"1318","name":"Kentucky Fried Chicken H730213/Taco Bell","address":"13320 Jefferson Ave. E.","zipcode":"48215","owner":"Star Partner Enterprises Two","licenseNumber":"055748","licenseType":"Fixed Establishment","establishmentType":"Food Service Establishment","establishmentStatus":"Open","riskCategory":null,"reviewFrequencyDays":"335","coords":"-82.94877,42.37069","geojson":{"id":"1318","type":"Feature","geometry":{"type":"Point","coordinates":[-82.94876732,42.370693551]},"properties":{"name":"Kentucky Fried Chicken H730213/Taco Bell","owner":"Star Partner Enterprises Two","address":"13320 Jefferson Ave. E.","zipcode":"48215","license_type":"Fixed Establishment","risk_category":null,"license_number":"055748","establishmentid":"1318","establishment_type":"Food Service Establishment","establishment_status":"Open","review_frequency_days":"335","most_recent_license_date":"4/22/2013"}},"nearbyList":[{"establishmentid":"51623741","name":"Savvy Sliders ","address":"13320 E. Jefferson ","zipcode":"48215"},{"establishmentid":"1711","name":"Dynasty Chinese","address":"13340 Jefferson Ave. E.","zipcode":"48215"},{"establishmentid":"3257","name":"Wendy's Old Fashioned Hamburgers","address":"13337 Jefferson Ave. E.","zipcode":"48215"},{"establishmentid":"5148","name":"Detroits Finest Coney Island","address":"13337 E. Jeffferson Ave. ","zipcode":"48215"},{"establishmentid":"1961","name":"Subway 12011","address":"13222 Jefferson Ave. E.","zipcode":"48215"},{"establishmentid":"51623323","name":"Motor City Smoothie","address":"13222 Jefferson E.","zipcode":"48215"},{"establishmentid":"1601","name":"Little Caesar's Pizza #0025","address":"13226 Jefferson E.","zipcode":"48215"},{"establishmentid":"4927","name":"Davis Aerospace Tech High @ Golightly Te","address":"900 Dickerson","zipcode":"48215"},{"establishmentid":"1388","name":"Golightly Career Tech","address":"900 Dickerson","zipcode":"48215"},{"establishmentid":"51622937","name":"Alma Kitchen","address":"14300 Jefferson","zipcode":"48215"}],"inspectionsByEstablishmentidList":[]}],"maxInspectionDate":[{"inspectionDate":"2022-08-31T00:00:00"}]}},"pageContext":{"eid":"1318"}},"staticQueryHashes":["3649515864","63159454"]}