{"componentChunkName":"component---src-templates-establishment-page-js","path":"/establishment/3385","result":{"data":{"site":{"pathPrefix":"/restaurant-inspections"},"postgres":{"establishment":[{"establishmentid":"3385","name":"Hamlin's BBQ","address":"17602 Seven Mile Rd. W.","zipcode":"48235","owner":"Kenneth Darnelle Smith","licenseNumber":"058549","licenseType":"Fixed Establishment","establishmentType":"Food Service Establishment","establishmentStatus":"Open","riskCategory":null,"reviewFrequencyDays":"335","coords":"-83.21635,42.43034","geojson":{"id":"3385","type":"Feature","geometry":{"type":"Point","coordinates":[-83.21635437,42.43033981]},"properties":{"name":"Hamlin's BBQ","owner":"Kenneth Darnelle Smith","address":"17602 Seven Mile Rd. W.","zipcode":"48235","license_type":"Fixed Establishment","risk_category":null,"license_number":"058549","establishmentid":"3385","establishment_type":"Food Service Establishment","establishment_status":"Open","review_frequency_days":"335","most_recent_license_date":"2009-05-05"}},"nearbyList":[{"establishmentid":"1912","name":"Fish & Chicken Land","address":"17602 Seven Mile Rd. W.","zipcode":"48235"},{"establishmentid":"5107","name":"Mighty Sub Shop","address":"17602 W. Seven Mile","zipcode":"48235"},{"establishmentid":"51622648","name":"Great Lakes Sport Bar","address":"17602 Seven Mile W.","zipcode":"48235"},{"establishmentid":"1993","name":"Jamaica, Jamaica","address":"17550 Seven Mile Rd. W.","zipcode":"48235"},{"establishmentid":"5246","name":"Jamaica Jamaica Restaurant","address":"17550 Seven Mile Rd. W.","zipcode":"48227"},{"establishmentid":"352","name":"Lon's Coney Island","address":"17501 Seven Mile Rd. W.","zipcode":"48235"},{"establishmentid":"51623779","name":"Dominiques Soul Food","address":"17341 Seven Mile W","zipcode":"48235"},{"establishmentid":"51622600","name":"Mr. Corn Beef","address":"17819 W. Seven Mile Rd. 48235","zipcode":"48235"},{"establishmentid":"4494","name":"Temptations Grill","address":"17256 Seven Mile W.","zipcode":"48235"},{"establishmentid":"2018","name":"Coffey K-8","address":"17210 Cambridge","zipcode":"48235"}],"inspectionsByEstablishmentidList":[]}],"maxInspectionDate":[{"inspectionDate":"2023-04-25T00:00:00"}]}},"pageContext":{"eid":"3385"}},"staticQueryHashes":["3649515864","63159454"]}