{"componentChunkName":"component---src-templates-establishment-page-js","path":"/establishment/51623857","result":{"data":{"site":{"pathPrefix":"/restaurant-inspections"},"postgres":{"establishment":[{"establishmentid":"51623857","name":"Detroit Spice Grille ","address":"16849 Harper Ave ","zipcode":null,"owner":"Brian Booker ","licenseNumber":"09272022","licenseType":"Fixed Establishment","establishmentType":"Food Service Establishment","establishmentStatus":"Open","riskCategory":null,"reviewFrequencyDays":null,"coords":"-82.93884,42.41545","geojson":{"id":"51623857","type":"Feature","geometry":{"type":"Point","coordinates":[-82.938838295,42.415446087]},"properties":{"name":"Detroit Spice Grille ","owner":"Brian Booker ","address":"16849 Harper Ave ","zipcode":null,"license_type":"Fixed Establishment","risk_category":null,"license_number":"09272022","establishmentid":"51623857","establishment_type":"Food Service Establishment","establishment_status":"Open","review_frequency_days":null,"most_recent_license_date":null}},"nearbyList":[{"establishmentid":"2001","name":"Girl Friends Soul Food","address":"16849 Harper Ave.","zipcode":"48224"},{"establishmentid":"3339","name":"Yaman Strictly Jerk","address":"16849  Harper Ave.","zipcode":"48224"},{"establishmentid":"4366","name":"Sweetwater Express (Harper)","address":"16849 Harper Ave.","zipcode":"48224"},{"establishmentid":"705","name":"Delroy's First Place Lounge","address":"16921 Harper Ave.","zipcode":"48224"},{"establishmentid":"465","name":"Firewater Bar & Grill","address":"16801 Harper Ave.","zipcode":"48224"},{"establishmentid":"51623230","name":"Good Vibes Lounge","address":"16801 Harper","zipcode":"48224"},{"establishmentid":"4492","name":"Sugar Shack & Snack","address":"16933 Harper","zipcode":"48224"},{"establishmentid":"1295","name":"McDonald's #5459 ","address":"16950 Harper","zipcode":"48224"},{"establishmentid":"1797","name":"Wendy's Old Fashioned Hamburgers","address":"17010 Harper","zipcode":"48226"},{"establishmentid":"2162","name":"White Castle #59","address":"16701 Harper Ave. ","zipcode":"48224"}],"inspectionsByEstablishmentidList":[]}],"maxInspectionDate":[{"inspectionDate":"2022-08-31T00:00:00"}]}},"pageContext":{"eid":"51623857"}},"staticQueryHashes":["3649515864","63159454"]}