{"componentChunkName":"component---src-templates-establishment-page-js","path":"/establishment/51623023","result":{"data":{"site":{"pathPrefix":"/restaurant-inspections"},"postgres":{"establishment":[{"establishmentid":"51623023","name":"Nain Rouge Brewery","address":"666 Selden St.","zipcode":"48201","owner":"NPBC Detroit","licenseNumber":"253478","licenseType":"Fixed Establishment","establishmentType":"Food Service Establishment","establishmentStatus":"Open","riskCategory":"Medium","reviewFrequencyDays":"335","coords":"-83.06594,42.34737","geojson":{"id":"51623023","type":"Feature","geometry":{"type":"Point","coordinates":[-83.065941098,42.347373569]},"properties":{"name":"Nain Rouge Brewery","owner":"NPBC Detroit","address":"666 Selden St.","zipcode":"48201","license_type":"Fixed Establishment","risk_category":"Medium","license_number":"253478","establishmentid":"51623023","establishment_type":"Food Service Establishment","establishment_status":"Open","review_frequency_days":"335","most_recent_license_date":"2022-05-23"}},"nearbyList":[{"establishmentid":"51623163","name":"Barcade","address":"666 Selden St.","zipcode":"48201"},{"establishmentid":"51622936","name":"Smith & Co. ","address":"644 Selden St.","zipcode":"48201"},{"establishmentid":"4753","name":"Breakfast Lunch & Deli","address":"3940 Third St.","zipcode":"48201"},{"establishmentid":"737","name":"Mormando's Pizzeria","address":"3940 Third","zipcode":"48201"},{"establishmentid":"51623799","name":"Detroit Public Theatre","address":"3960 Third Ave.","zipcode":"48201"},{"establishmentid":"4827","name":"Selden Standard","address":"3921-29  Second Ave.","zipcode":"48201"},{"establishmentid":"436","name":"Jumbo's Bar","address":"3736 Third","zipcode":"48201"},{"establishmentid":"51623440","name":"Vecino","address":"4100 Third St.","zipcode":"48201"},{"establishmentid":"51623656","name":"Foundation Rock Spirits-Stadt Garten","address":"3980 Second Ave","zipcode":"48201"},{"establishmentid":"5372","name":"Foundation Rock Spirits LLC dba Castalia","address":"3980 Second Ave.","zipcode":"48201"}],"inspectionsByEstablishmentidList":[{"inspectionid":"59670","inspectionDate":"2022-06-22T00:00:00","inspectionType":"Routine Inspection","inCompliance":"Yes","violationsByInspectionidList":[]},{"inspectionid":"54785","inspectionDate":"2021-03-04T00:00:00","inspectionType":"Preopening/New","inCompliance":"Yes","violationsByInspectionidList":[]}]}],"maxInspectionDate":[{"inspectionDate":"2023-04-25T00:00:00"}]}},"pageContext":{"eid":"51623023"}},"staticQueryHashes":["3649515864","63159454"]}