{"componentChunkName":"component---src-templates-establishment-page-js","path":"/establishment/51623263","result":{"data":{"site":{"pathPrefix":"/restaurant-inspections"},"postgres":{"establishment":[{"establishmentid":"51623263","name":"Awtar Lounge","address":"13750 Tireman","zipcode":"48222","owner":"","licenseNumber":"PS13750","licenseType":"Fixed Establishment","establishmentType":"Food Service Establishment","establishmentStatus":"Unlicensed Establishment","riskCategory":null,"reviewFrequencyDays":"150","coords":"-83.17951,42.35148","geojson":{"id":"51623263","type":"Feature","geometry":{"type":"Point","coordinates":[-83.179509788,42.351479288]},"properties":{"name":"Awtar Lounge","owner":"","address":"13750 Tireman","zipcode":"48222","license_type":"Fixed Establishment","risk_category":null,"license_number":"PS13750","establishmentid":"51623263","establishment_type":"Food Service Establishment","establishment_status":"Unlicensed Establishment","review_frequency_days":"150","most_recent_license_date":null}},"nearbyList":[{"establishmentid":"51623855","name":"B & F Krispy Krunchy","address":"8000 Schaefer","zipcode":"48228"},{"establishmentid":"5261","name":"Total Vending","address":"8211 Decatur","zipcode":"48228"},{"establishmentid":"2996","name":"Modern Vending","address":"14300 Tireman","zipcode":"48228"},{"establishmentid":"51622924","name":"Tireman Flea Market (ILLEGAL OPERATION)","address":"14300 Tireman","zipcode":"48228"},{"establishmentid":"51622497","name":"Islamic Center of Detroit","address":"14350 Tireman","zipcode":"48228"},{"establishmentid":"3976","name":"Manhattan Fish and Chicken","address":"8712 Schaefer Ave. ","zipcode":"48228"},{"establishmentid":"2077","name":"Superior Coney Island","address":"14501 Joy Rd.","zipcode":"48228"},{"establishmentid":"3360","name":"Grinderz","address":"14746 Tireman","zipcode":"48228"},{"establishmentid":"930","name":"McFarlane Elementary","address":"8900 Cheyenne","zipcode":"48238"},{"establishmentid":"4488","name":"Sister Love Treats","address":"9126 Ward St.","zipcode":"48228"}],"inspectionsByEstablishmentidList":[]}],"maxInspectionDate":[{"inspectionDate":"2023-04-13T00:00:00"}]}},"pageContext":{"eid":"51623263"}},"staticQueryHashes":["3649515864","63159454"]}