{"data":{"site":{"pathPrefix":"/restaurant-inspections"},"postgres":{"establishment":[{"establishmentid":"51622741","name":"Greenhouse Soups & Chili","address":"1400 Oakman Blvd","zipcode":"48238","owner":"Jane M. Bate","licenseNumber":"230550","licenseType":"Fixed Establishment","establishmentType":"Food Service Establishment","establishmentStatus":"Open","riskCategory":"High","reviewFrequencyDays":"180.0","coords":"-83.12372,42.39968","geojson":{"id":"51622741","type":"Feature","geometry":{"type":"Point","coordinates":[-83.1237169199999,42.3996828210001]},"properties":{"name":"Greenhouse Soups & Chili","owner":"Jane M. Bate","address":"1400 Oakman Blvd","zipcode":"48238","license_type":"Fixed Establishment","risk_category":"High","license_number":"230550","establishmentid":"51622741","establishment_type":"Food Service Establishment","establishment_status":"Open","review_frequency_days":"180.0","most_recent_license_date":"4/26/2018"}},"nearbyList":[{"establishmentid":"1425","name":"Focus Hope Center for Children","address":"1550 Oakman Blvd","zipcode":"48238"},{"establishmentid":"1029","name":"Glazer Elementary","address":"2001 LaBelle","zipcode":"48238"},{"establishmentid":"1627","name":"McDonald's #15873","address":"13500 Linwood Ave","zipcode":"48238"},{"establishmentid":"2149","name":"Kentucky Fried Chicken (KFC)","address":"2601 W Davison Ave","zipcode":"48238"},{"establishmentid":"1480","name":"Legends Coney Island","address":"2525 W Davison Ave","zipcode":"48238"},{"establishmentid":"453","name":"White Castle #51","address":"2735 W Davison Ave","zipcode":"48238"},{"establishmentid":"1149","name":"Church's Fried Chicken #863","address":"2757 W Davison Ave","zipcode":"48238"},{"establishmentid":"1894","name":"Thurgood Marshall Elementary","address":"15531 Linwood","zipcode":"48238"},{"establishmentid":"2684","name":"Little Caesar's Pizza #157","address":"2918 W Davison Ave","zipcode":"48238"},{"establishmentid":"3415","name":"Nu Wave Fish & Chicken","address":"2970 W Davison Ave","zipcode":"48238"},{"establishmentid":"1456","name":"Grandy's Coney Island Restaurant","address":"13331 Fourteenth","zipcode":"48238"},{"establishmentid":"1785","name":"Burger King ","address":"3200 W Davison Ave","zipcode":"48238"},{"establishmentid":"826","name":"Stewart Elementary- Middle School","address":"13120 Wildemere","zipcode":"48238"},{"establishmentid":"4923","name":"Nicky D's Coney Island ","address":"3357 West Davison","zipcode":"48238"},{"establishmentid":"3478","name":"Joy Preparatory Academy - Dexter Campus","address":"15055 Dexter Ave","zipcode":"48238"},{"establishmentid":"1506","name":"United Sisters of Charity","address":"16339 Rosa Parks Blvd","zipcode":"48203"},{"establishmentid":"1257","name":"Detroit Repertory Theater","address":"13103 Woodrow Wilson St","zipcode":"48238"},{"establishmentid":"1119","name":"Paul Roberson/ Malcolm X. Academy","address":"2585 Grove St","zipcode":"48221"},{"establishmentid":"3808","name":"Get Back Up","address":"12305 Dexter Ave","zipcode":"48206"},{"establishmentid":"4808","name":"Checker's","address":"14400 Livernois Ave","zipcode":"48238"}],"inspectionsByEstablishmentidList":[{"inspectionid":"44573","inspectionDate":"2018-12-21T00:00:00","inspectionType":"Routine Inspection","inCompliance":"Yes","violationsByInspectionidList":[]},{"inspectionid":"42384","inspectionDate":"2018-05-31T00:00:00","inspectionType":"Preopening/New","inCompliance":"Yes","violationsByInspectionidList":[]}]}]}},"pageContext":{"eid":"51622741"}}