{"data":{"site":{"pathPrefix":"/restaurant-inspections"},"postgres":{"establishment":[{"establishmentid":"1700","name":"Friendship Baptist","address":"3900 Beaubien St","zipcode":"48201","owner":"Julius Maddox","licenseNumber":"036065","licenseType":"Fixed Establishment","establishmentType":"Food Service Establishment","establishmentStatus":"Open","riskCategory":"Medium","reviewFrequencyDays":"365.0","coords":"-83.05292,42.35228","geojson":{"id":"1700","type":"Feature","geometry":{"type":"Point","coordinates":[-83.0529238569999,42.352280535]},"properties":{"name":"Friendship Baptist","owner":"Julius Maddox","address":"3900 Beaubien St","zipcode":"48201","license_type":"Fixed Establishment","risk_category":"Medium","license_number":"036065","establishmentid":"1700","establishment_type":"Food Service Establishment","establishment_status":"Open","review_frequency_days":"365.0","most_recent_license_date":"5/7/2018"}},"nearbyList":[{"establishmentid":"900","name":"Spain Middle/Elementary School","address":"3700 Beaubien St","zipcode":"48201"},{"establishmentid":"4996","name":"Children's Hospital of Michigan","address":"3901 Beaubien St","zipcode":"48201"},{"establishmentid":"5279","name":"Childrens Cafe Stores LLC/Biggby","address":"3901 Beaubien St","zipcode":"48201"},{"establishmentid":"3870","name":"Subway #11819","address":"3901 Beaubien St","zipcode":"48201"},{"establishmentid":"4296","name":"Dr. Benjamin Carson HS of Sci & Med","address":"571 Mack Ave","zipcode":"48201"},{"establishmentid":"5278","name":"Det Receiving Cafe Stores LLC/Biggby","address":"4201 St Antoine St","zipcode":"48201"},{"establishmentid":"4982","name":"Detroit Receiving Hospital","address":"4201 St Antoine","zipcode":"48201"},{"establishmentid":"51622830","name":"Detroit Receiving Hospital","address":"4201 St Antoine St","zipcode":"48201"},{"establishmentid":"5277","name":"Detroit Receiving Sub Shops LLC/Subway","address":"4201 St Antoine St","zipcode":"48202"},{"establishmentid":"51622467","name":"Hungry Howie's","address":"4201 St Antoine St","zipcode":"48201"}],"inspectionsByEstablishmentidList":[{"inspectionid":"41386","inspectionDate":"2018-01-17T00:00:00","inspectionType":"Routine Inspection","inCompliance":"Yes","violationsByInspectionidList":[]},{"inspectionid":"37569","inspectionDate":"2016-12-14T00:00:00","inspectionType":"Routine Inspection","inCompliance":"Yes","violationsByInspectionidList":[]}]}],"maxInspectionDate":[{"inspectionDate":"2019-03-31T00:00:00"}]}},"pageContext":{"eid":"1700"}}