{"componentChunkName":"component---src-templates-establishment-page-js","path":"/establishment/51623609","result":{"data":{"site":{"pathPrefix":"/restaurant-inspections"},"postgres":{"establishment":[{"establishmentid":"51623609","name":"U Cheffin Right LLC","address":"20515 Griggs","zipcode":"48221","owner":"Michael Newton","licenseNumber":"PR21251D","licenseType":"Special Transitory Food Unit","establishmentType":"LHD - Special Transitory Food","establishmentStatus":"Plan Review","riskCategory":null,"reviewFrequencyDays":null,"coords":"-83.16500,42.44484","geojson":{"id":"51623609","type":"Feature","geometry":{"type":"Point","coordinates":[-83.165004709,42.444838133]},"properties":{"name":"U Cheffin Right LLC","owner":"Michael Newton","address":"20515 Griggs","zipcode":"48221","license_type":"Special Transitory Food Unit","risk_category":null,"license_number":"PR21251D","establishmentid":"51623609","establishment_type":"LHD - Special Transitory Food","establishment_status":"Plan Review","review_frequency_days":null,"most_recent_license_date":"4/29/2022"}},"nearbyList":[{"establishmentid":"3716","name":"Chik-N-Wings","address":"10145 Eight Mile Rd. W.","zipcode":"48221"},{"establishmentid":"51623627","name":"Manhattan Crispy Fish & Chicken","address":"10715 Eight Mile","zipcode":"48212"},{"establishmentid":"51623556","name":"Wyoming Avenue Church of Christ","address":"20131 Wyoming","zipcode":"48221"},{"establishmentid":"51623550","name":"Reef Kitchens #09 (Fixed Trailer)","address":"10801 Eight Mile W.","zipcode":"48221"},{"establishmentid":"1676","name":"HIGH SCHOOL OF COMMERCE","address":"20119 Wisconsin","zipcode":"48221"},{"establishmentid":"4304","name":"Aisha Shule/W.E.B. Dubois Preparatory ","address":"20119 Wisconsin","zipcode":"48221"},{"establishmentid":"825","name":"Bates Academy","address":"19701 Wyoming Ave.","zipcode":"48221"},{"establishmentid":"1550","name":"Michigan Technical Academy/Meyers","address":"19780 Meyers Ave.","zipcode":"48235"},{"establishmentid":"5084","name":"Word In Action Christian Center","address":"19780 Meyers","zipcode":"48227"},{"establishmentid":"51623188","name":"Gridiron Taco","address":"19780 Meyers","zipcode":"48227"}],"inspectionsByEstablishmentidList":[{"inspectionid":"59819","inspectionDate":"2022-07-18T00:00:00","inspectionType":"Preopening/New","inCompliance":"Yes","violationsByInspectionidList":[]}]}],"maxInspectionDate":[{"inspectionDate":"2022-07-25T00:00:00"}]}},"pageContext":{"eid":"51623609"}},"staticQueryHashes":["3649515864","63159454"]}