{"componentChunkName":"component---src-templates-establishment-page-js","path":"/establishment/2334","result":{"data":{"site":{"pathPrefix":"/restaurant-inspections"},"postgres":{"establishment":[{"establishmentid":"2334","name":"Marvella's Bar & Grill","address":"13629 Seven Mile Rd. E.","zipcode":"48205","owner":"Marvella Lippett","licenseNumber":"043349","licenseType":"Fixed Establishment","establishmentType":"Food Service Establishment","establishmentStatus":"Permanently Closed","riskCategory":null,"reviewFrequencyDays":"150","coords":"-82.98440,42.43517","geojson":{"id":"2334","type":"Feature","geometry":{"type":"Point","coordinates":[-82.984396726,42.43517332]},"properties":{"name":"Marvella's Bar & Grill","owner":"Marvella Lippett","address":"13629 Seven Mile Rd. E.","zipcode":"48205","license_type":"Fixed Establishment","risk_category":null,"license_number":"043349","establishmentid":"2334","establishment_type":"Food Service Establishment","establishment_status":"Permanently Closed","review_frequency_days":"150","most_recent_license_date":null}},"nearbyList":[{"establishmentid":"51622854","name":"Cornucopia","address":"18900 Schoenherr","zipcode":"48205"},{"establishmentid":"941","name":"Adult Education Center East","address":"13840 Lappin","zipcode":"48205"},{"establishmentid":"51623689","name":"Pulaski Elementary/Middle School","address":"13840 Lappin","zipcode":"48205"},{"establishmentid":"4729","name":"Brook's Catering Service ","address":"13847 Pfent","zipcode":"48205"},{"establishmentid":"5377","name":"Pasta Bowl Two","address":"14063 Gratiot","zipcode":"48205"},{"establishmentid":"4822","name":"Captain Jay's Fish & Chicken #107","address":"14205 Gratiot Ave.","zipcode":"48205"},{"establishmentid":"1290","name":"McDonald's Restaurant","address":"14271 Gratiot Ave.","zipcode":"48205"},{"establishmentid":"4057","name":"Hank Dogs","address":"19177 Joann","zipcode":"48205"},{"establishmentid":"4090","name":"Hank Dogs","address":"19177 JoAnn Apt.102","zipcode":"48205"},{"establishmentid":"3619","name":"Odessa Blues","address":"13016 Seven Mile Rd. E.","zipcode":"48205"}],"inspectionsByEstablishmentidList":[]}],"maxInspectionDate":[{"inspectionDate":"2022-08-31T00:00:00"}]}},"pageContext":{"eid":"2334"}},"staticQueryHashes":["3649515864","63159454"]}