{"data":{"site":{"pathPrefix":"/restaurant-inspections"},"postgres":{"establishment":[{"establishmentid":"51622947","name":"Krispy Krunchy Chicken","address":"10200 Rosa Parks Blvd","zipcode":"48206","owner":"Joumana Nassar","licenseNumber":"243156","licenseType":"Fixed Establishment","establishmentType":"Food Service Establishment","establishmentStatus":"Open","riskCategory":"High","reviewFrequencyDays":"180.0","coords":"-83.10319,42.38250","geojson":{"id":"51622947","type":"Feature","geometry":{"type":"Point","coordinates":[-83.103193056,42.382496168]},"properties":{"name":"Krispy Krunchy Chicken","owner":"Joumana Nassar","address":"10200 Rosa Parks Blvd","zipcode":"48206","license_type":"Fixed Establishment","risk_category":"High","license_number":"243156","establishmentid":"51622947","establishment_type":"Food Service Establishment","establishment_status":"Open","review_frequency_days":"180.0","most_recent_license_date":"9/20/2019"}},"nearbyList":[{"establishmentid":"1738","name":"Genesis House III (WEST)","address":"2015 Webb St","zipcode":"48206"},{"establishmentid":"3898","name":"Detroit Job Corps Center","address":"11801 Woodrow Wilson","zipcode":"48206"},{"establishmentid":"3134","name":"Cass Community Social Services","address":"11850 Woodrow Wilson St","zipcode":"48206"},{"establishmentid":"5017","name":"Howard Dreams","address":"1260 W Boston Blvd","zipcode":"48202"},{"establishmentid":"51622840","name":"Toarminas Pizza","address":"2470 Collingwood St","zipcode":"48219"},{"establishmentid":"946","name":"Durfee  K-8","address":"2470 Collingwood","zipcode":"48206"},{"establishmentid":"827","name":"Central Collegiate Academy 9-12","address":"2425 Tuxedo St","zipcode":"48206"},{"establishmentid":"5187","name":"Fulin","address":"8677 Rosa Parks Blvd","zipcode":"48206"},{"establishmentid":"4433","name":"Henry Ford Academy Elementary","address":"10225 Third St","zipcode":"48202"},{"establishmentid":"51622805","name":"Henry Ford Academy Elementary SCS","address":"10225 Third St","zipcode":"48202"}],"inspectionsByEstablishmentidList":[{"inspectionid":"49557","inspectionDate":"2019-10-21T00:00:00","inspectionType":"Routine Inspection","inCompliance":"Yes","violationsByInspectionidList":[]},{"inspectionid":"49243","inspectionDate":"2019-09-23T00:00:00","inspectionType":"Preopening/New","inCompliance":"Yes","violationsByInspectionidList":[]}]}],"maxInspectionDate":[{"inspectionDate":"2019-10-31T00:00:00"}]}},"pageContext":{"eid":"51622947"}}