{"data":{"site":{"pathPrefix":"/restaurant-inspections"},"postgres":{"establishment":[{"establishmentid":"4637","name":"Bert's Market Place--Outdoor Cafe","address":"2727-39 Russell St","zipcode":"48207","owner":"Dearing Company, Inc.","licenseNumber":"075144","licenseType":"Fixed Establishment","establishmentType":"Food Service Establishment","establishmentStatus":"Open","riskCategory":"Medium","reviewFrequencyDays":"365.0","coords":"-83.09120,42.44486","geojson":{"id":"4637","type":"Feature","geometry":{"type":"Point","coordinates":[-83.0912021509999,42.444856643]},"properties":{"name":"Bert's Market Place--Outdoor Cafe","owner":"Dearing Company, Inc.","address":"2727-39 Russell St","zipcode":"48207","license_type":"Fixed Establishment","risk_category":"Medium","license_number":"075144","establishmentid":"4637","establishment_type":"Food Service Establishment","establishment_status":"Open","review_frequency_days":"365.0","most_recent_license_date":"4/27/2017"}},"nearbyList":[{"establishmentid":"210","name":"Domino's Pizza #1169","address":"1636 E Eight Mile Rd","zipcode":"48203"},{"establishmentid":"953","name":"Golden Greek Lounge","address":"1800 E Eight Mile Rd","zipcode":"48203"},{"establishmentid":"897","name":"Nolan Junior High School","address":"1150 E Lantz St","zipcode":"48238"},{"establishmentid":"1017","name":"McDonald's Detroit","address":"20405 Conant Ave","zipcode":"48234"},{"establishmentid":"1502","name":"Fish King Restaurant","address":"20351 Conant Ave","zipcode":"48234"},{"establishmentid":"1212","name":"Little Caesar's Pizza #15","address":"2024 E Eight Mile Rd","zipcode":"48234"},{"establishmentid":"2377","name":"Pete's Grill","address":"1400 E Outer Dr","zipcode":"48234"},{"establishmentid":"4475","name":"Applebee's #7833","address":"2111 W Eight Mile Rd","zipcode":"48203"},{"establishmentid":"1919","name":"L & L Adult Day Care","address":"1485 E Outer Dr","zipcode":"48234"},{"establishmentid":"382","name":"Centerfold","address":"20222 John R St","zipcode":"48203"},{"establishmentid":"384","name":"Subway #66","address":"2240 E Eight Mile Rd","zipcode":"48234"},{"establishmentid":"5339","name":"Liangs Beijing","address":"1136 E Seven Mile Rd","zipcode":"48203"},{"establishmentid":"682","name":"Mr. Mapps Lounge","address":"1627 E Seven Mile Rd","zipcode":"48203"},{"establishmentid":"5281","name":"Davison Fish N Seafood LLC","address":"1520 E Seven Mile","zipcode":"48203"},{"establishmentid":"2724","name":"Grinder 2","address":"1648 E Seven Mile Rd","zipcode":"48203"},{"establishmentid":"51622461","name":"Magic City of Detroit-Dreams","address":"141 W Eight Mile","zipcode":"48203"},{"establishmentid":"51622678","name":"Holy Moly Donut Shop","address":"201 W Eight Mile Rd","zipcode":"48203"},{"establishmentid":"4065","name":"Ms. E-Vee's Soul Food","address":"201 W Eight Mile Ave","zipcode":"48203"},{"establishmentid":"2127","name":"Kentucky Fried Chicken","address":"2600 E Eight Mile Rd","zipcode":"48234"},{"establishmentid":"686","name":"West Indian Amerian Assn","address":"2015 E Seven Mile Rd","zipcode":"48234"}],"inspectionsByEstablishmentidList":[{"inspectionid":"43545","inspectionDate":"2018-09-20T00:00:00","inspectionType":"Routine Inspection","inCompliance":"Yes","violationsByInspectionidList":[]},{"inspectionid":"41555","inspectionDate":"2018-02-20T00:00:00","inspectionType":"Routine Inspection","inCompliance":"Yes","violationsByInspectionidList":[]},{"inspectionid":"38099","inspectionDate":"2017-02-15T00:00:00","inspectionType":"Routine Inspection","inCompliance":"Yes","violationsByInspectionidList":[{"violationCode":"5-203.11","violationDescription":"(A)  A HANDWASHING SINK or an approved automatic handwashing unit shall be provided as necessary for their convenient use by EMPLOYEES in areas specified and not fewer than the number of HANDWASHING SINKS required by LAW shall be provided. (Pf)\r\n(B)  If APPROVED, when FOOD exposure is limited and HANDWASHING SINKS are not conveniently available, such as in some mobile or TEMPORARY FOOD ESTABLISHMENTS or at some VENDING MACHINE LOCATIONS, EMPLOYEES may use chemically treated towelettes for handwashing.\r\n","violationType":"Foundation","itemDescription":"Handwashing lavatories","subItem":"","problemDescription":"Not provided","subProblem":"","location":"OUTDOOR CAFE","subLocation":"Lack of Hand washing set-up","corrected":"Yes","daysToCorrect":"10.0","correctedDate":"2017-02-15T00:00:00","correctionDescription":"Provide as required"}]}]}]}},"pageContext":{"eid":"4637"}}