{"componentChunkName":"component---src-templates-establishment-page-js","path":"/establishment/2093","result":{"data":{"site":{"pathPrefix":"/restaurant-inspections"},"postgres":{"establishment":[{"establishmentid":"2093","name":"UNIC","address":"15268  State Fair E.","zipcode":"48205","owner":"Christopher Udegbnum","licenseNumber":"037496","licenseType":"Mobile Food Establishment","establishmentType":"LHD - Mobile Food Establishmen","establishmentStatus":"Open","riskCategory":null,"reviewFrequencyDays":"180","coords":"-82.96421,42.44248","geojson":{"id":"2093","type":"Feature","geometry":{"type":"Point","coordinates":[-82.964207315,42.442484479]},"properties":{"name":"UNIC","owner":"Christopher Udegbnum","address":"15268  State Fair E.","zipcode":"48205","license_type":"Mobile Food Establishment","risk_category":null,"license_number":"037496","establishmentid":"2093","establishment_type":"LHD - Mobile Food Establishmen","establishment_status":"Open","review_frequency_days":"180","most_recent_license_date":null}},"nearbyList":[{"establishmentid":"51622913","name":"Big Ken's BBQ","address":"15290 Fairmount","zipcode":"48213"},{"establishmentid":"4377","name":"Diamond's Dogs","address":"15447 Rossini","zipcode":"48205"},{"establishmentid":"3824","name":"Olga Madar Senior Center","address":"19601 Crusade","zipcode":"48235"},{"establishmentid":"51623719","name":"McDoggonit (Oakland Co.)","address":"14960 Rossini Dr.","zipcode":"48205"},{"establishmentid":"838","name":"Burbank Middle School","address":"15600 State Fair E.","zipcode":"48205"},{"establishmentid":"3737","name":"Fisher Middle School (Upper)","address":"15491 Maddelein","zipcode":"48205"},{"establishmentid":"2125","name":"Jet's Pizza","address":"15235 Seven Mile Rd. E.","zipcode":"48205"},{"establishmentid":"1201","name":"Taco Bell #1825","address":"15170 Gratiot Ave.","zipcode":"48205"},{"establishmentid":"51623559","name":"Seven Cones and Taco's","address":"15313 Seven Mile E.","zipcode":"48205"},{"establishmentid":"320","name":"Lucky II Lounge","address":"15146 Gratiot Ave.","zipcode":"48205"}],"inspectionsByEstablishmentidList":[]}],"maxInspectionDate":[{"inspectionDate":"2023-04-25T00:00:00"}]}},"pageContext":{"eid":"2093"}},"staticQueryHashes":["3649515864","63159454"]}