{"data":{"postgres":{"establishment":[{"establishmentid":"4999","name":"Big A's Concessions","address":"5119 Cadillac","zipcode":"48213","owner":"Nancy Kuykendall","licenseNumber":"204147","licenseType":"Special Transitory Food Unit","establishmentType":"LHD - Special Transitory Food","establishmentStatus":"Open","riskCategory":null,"reviewFrequencyDays":"365.0","coords":"-82.99803,42.38375","geojson":{"id":"4999","type":"Feature","geometry":{"type":"Point","coordinates":[-82.998030996,42.3837480810001]},"properties":{"name":"Big A's Concessions","owner":"Nancy Kuykendall","address":"5119 Cadillac","zipcode":"48213","license_type":"Special Transitory Food Unit","risk_category":null,"license_number":"204147","establishmentid":"4999","establishment_type":"LHD - Special Transitory Food","establishment_status":"Open","review_frequency_days":"365.0","most_recent_license_date":"4/18/2017"}},"nearbyList":[{"establishmentid":"3821","name":"Shabazz East Restaurant","address":"4712-16 Cadillac Blvd","zipcode":"48214"},{"establishmentid":"1037","name":"Detroit Lions Academy","address":"10101 E Canfield","zipcode":"48214"},{"establishmentid":"1244","name":"Bethel Baptist Church East","address":"5715 Holcomb St","zipcode":"48213"},{"establishmentid":"1436","name":"Blackwell Institute","address":"9330 Shoemaker St","zipcode":"48213"},{"establishmentid":"2148","name":"Operation Get Down","address":"10100 Harper Ave","zipcode":"48213"},{"establishmentid":"207","name":"Burger King ","address":"9239 Gratiot Ave","zipcode":"48213"},{"establishmentid":"5398","name":"Captain Jay's #102","address":"9654 Gratiot Ave","zipcode":"48213"},{"establishmentid":"2811","name":"Captain Jay's Fish & Chicken","address":"9623 Gratiot Ave","zipcode":"48213"},{"establishmentid":"3633","name":"Subway #26842","address":"9655 Gratiot Ave","zipcode":"48213"},{"establishmentid":"3632","name":"Hollywood Coney Island","address":"9951 Gratiot Ave","zipcode":"48213"},{"establishmentid":"3324","name":"Timbuktu Academy","address":"10800 E Canfield Rd","zipcode":"48214"},{"establishmentid":"3511","name":"Ross Catering","address":"9628 Harper Ave","zipcode":"48213"},{"establishmentid":"3555","name":"Friends of Detroit & Tri County","address":"8230 E Forest Ave","zipcode":"48214"},{"establishmentid":"51622687","name":"House of BBQ","address":"8300 Gratiot Ave","zipcode":"48213"},{"establishmentid":"4831","name":"Cesar Chavez Academy - East","address":"4130 Maxwell","zipcode":"48214"},{"establishmentid":"1158","name":"Franklin Gourmet Dairy Bar","address":"8405 Mack Ave","zipcode":"48214"},{"establishmentid":"1392","name":"Williams and Sons Ice Cream","address":"10700 Mack Ave","zipcode":"48214"},{"establishmentid":"932","name":"Brewer's Party Room","address":"8225 Gratiot Ave","zipcode":"48213"},{"establishmentid":"1071","name":"McDonald's #2527","address":"10400 Gratiot Ave","zipcode":"48213"},{"establishmentid":"2390","name":"Edibles Rex","address":"5555 Conner, Ste 1058","zipcode":"48213"}],"inspectionsByEstablishmentidList":[]}]}},"pageContext":{"eid":"4999"}}