{"data":{"site":{"pathPrefix":"/restaurant-inspections"},"postgres":{"establishment":[{"establishmentid":"4427","name":"Steve's Detroit Deli","address":"212 E Grand River","zipcode":"48226","owner":"Steven Gluskin","licenseNumber":"073382","licenseType":"Fixed Establishment","establishmentType":"Food Service Establishment","establishmentStatus":"Permanently Closed","riskCategory":null,"reviewFrequencyDays":"365.0","coords":"-83.04684,42.33552","geojson":{"id":"4427","type":"Feature","geometry":{"type":"Point","coordinates":[-83.046837578,42.3355152720001]},"properties":{"name":"Steve's Detroit Deli","owner":"Steven Gluskin","address":"212 E Grand River","zipcode":"48226","license_type":"Fixed Establishment","risk_category":null,"license_number":"073382","establishmentid":"4427","establishment_type":"Food Service Establishment","establishment_status":"Permanently Closed","review_frequency_days":"365.0","most_recent_license_date":"4/12/2017"}},"nearbyList":[{"establishmentid":"4906","name":"Jose's Tacos, LLC","address":"218 E Grand River","zipcode":"48226"},{"establishmentid":"5337","name":"I Luv Cheese","address":"1368 Broadway","zipcode":"48226"},{"establishmentid":"4106","name":"Detroit Seafood Market","address":"1435 Randolph","zipcode":"48226"},{"establishmentid":"4912","name":"Punch Bowl Social-Detroit","address":"1331 Broadway","zipcode":"48226"},{"establishmentid":"4973","name":"Punch Bowl VIP","address":"1331 Broadway","zipcode":"48226"},{"establishmentid":"4972","name":"Punch Bowl 360 Bar","address":"1331 Broadway","zipcode":"48226"},{"establishmentid":"4317","name":"Colors","address":"311 E Grand River Ave","zipcode":"48226"},{"establishmentid":"3404","name":"Vicente's Cuban Cuisine","address":"1250 Library St","zipcode":"48226"},{"establishmentid":"5132","name":"Vertical Detroit","address":"1538 Centre St","zipcode":"48226"},{"establishmentid":"4667","name":"Bert's on Broadway DBA Rockefellers","address":"1315 Broadway","zipcode":"48226"}],"inspectionsByEstablishmentidList":[{"inspectionid":"36590","inspectionDate":"2016-09-27T00:00:00","inspectionType":"Routine Inspection","inCompliance":"Yes","violationsByInspectionidList":[]}]}],"maxInspectionDate":[{"inspectionDate":"2019-05-31T00:00:00"}]}},"pageContext":{"eid":"4427"}}