{"componentChunkName":"component---src-templates-establishment-page-js","path":"/establishment/51623279","result":{"data":{"site":{"pathPrefix":"/restaurant-inspections"},"postgres":{"establishment":[{"establishmentid":"51623279","name":"Tee's Louisiana Soul & Seafood","address":"7411 Parkland","zipcode":"48239","owner":"Terry Perron","licenseNumber":"PR20053D","licenseType":"Special Transitory Food Unit","establishmentType":"LHD - Special Transitory Food","establishmentStatus":"Plan Review","riskCategory":null,"reviewFrequencyDays":null,"coords":"-83.25420,42.34448","geojson":{"id":"51623279","type":"Feature","geometry":{"type":"Point","coordinates":[-83.254197975,42.344477679]},"properties":{"name":"Tee's Louisiana Soul & Seafood","owner":"Terry Perron","address":"7411 Parkland","zipcode":"48239","license_type":"Special Transitory Food Unit","risk_category":null,"license_number":"PR20053D","establishmentid":"51623279","establishment_type":"LHD - Special Transitory Food","establishment_status":"Plan Review","review_frequency_days":null,"most_recent_license_date":null}},"nearbyList":[{"establishmentid":"542","name":"3 ELEVEN ULTRA LOUNGE","address":"22100 Warren Ave. W.","zipcode":"48239"},{"establishmentid":"473","name":"J.P.'s West","address":"22234 Warren Ave. W.","zipcode":"48239"},{"establishmentid":"877","name":"Santia's Pizza","address":"22250 Warren Ave. W.","zipcode":"48239"},{"establishmentid":"474","name":"In & Out Coney Island","address":"22350 Warren Ave. W.","zipcode":"48239"},{"establishmentid":"4177","name":"Golden Krust Pizza","address":"22350 Warren Ave. W.","zipcode":"48239"},{"establishmentid":"51623704","name":"Qui Qui Edible (Oakland Co.) ","address":"7669 Dacosta ","zipcode":"48239"},{"establishmentid":"1236","name":"Ann Arbor Trail Magnet School","address":"7635 Chatham","zipcode":"48228"},{"establishmentid":"890","name":"Dixon Educational Learning Center","address":"8401 Trinity","zipcode":"48228"},{"establishmentid":"2410","name":"King Wah Chop Suey","address":"20510 Warren Ave. W.","zipcode":"48228"},{"establishmentid":"4611","name":"Darna Pizzeria & Restaurant","address":"20510 Warren W.","zipcode":"48228"}],"inspectionsByEstablishmentidList":[]}],"maxInspectionDate":[{"inspectionDate":"2022-08-31T00:00:00"}]}},"pageContext":{"eid":"51623279"}},"staticQueryHashes":["3649515864","63159454"]}