{"data":{"site":{"pathPrefix":"/restaurant-inspections"},"postgres":{"establishment":[{"establishmentid":"51622929","name":"Asian Corned Beef","address":"19102 Woodward Ave","zipcode":"48203","owner":"Hason White","licenseNumber":"236622","licenseType":"Fixed Establishment","establishmentType":"Food Service Establishment","establishmentStatus":"Open","riskCategory":"Medium","reviewFrequencyDays":"180.0","coords":"-83.11461,42.43242","geojson":{"id":"51622929","type":"Feature","geometry":{"type":"Point","coordinates":[-83.1146092179999,42.4324190890001]},"properties":{"name":"Asian Corned Beef","owner":"Hason White","address":"19102 Woodward Ave","zipcode":"48203","license_type":"Fixed Establishment","risk_category":"Medium","license_number":"236622","establishmentid":"51622929","establishment_type":"Food Service Establishment","establishment_status":"Open","review_frequency_days":"180.0","most_recent_license_date":"2/25/2019"}},"nearbyList":[{"establishmentid":"5032","name":"Tasty World","address":"19102 Woodward","zipcode":"48201"},{"establishmentid":"993","name":"Palmer Park Golf Course 3216","address":"19013 Woodward Ave","zipcode":"48203"},{"establishmentid":"3191","name":"Sullaf Restaurant","address":"814 W Seven Mile Rd","zipcode":"48203"},{"establishmentid":"2742","name":"Golden Gate Cafe","address":"18700 Woodward Ave","zipcode":"48203"},{"establishmentid":"225","name":"Renaissance Bowling Center","address":"19600 Woodward Ave","zipcode":"48203"},{"establishmentid":"1122","name":"Greenfield Union Annex","address":" 19150 Blake St","zipcode":"48238"},{"establishmentid":"270","name":"Stonehouse Bar","address":"19803 Ralston","zipcode":"48203"},{"establishmentid":"51622469","name":"Detroit One Coney Island","address":"5 W Seven Mile Rd","zipcode":"48203"},{"establishmentid":"2718","name":"Bread Basket Wholesale","address":"17740 Woodward Ave ","zipcode":"48203"},{"establishmentid":"4836","name":"McDonald's","address":"1321 W Eight Mile Rd","zipcode":"4822"}],"inspectionsByEstablishmentidList":[]}],"maxInspectionDate":[{"inspectionDate":"2019-05-31T00:00:00"}]}},"pageContext":{"eid":"51622929"}}