{"data":{"site":{"pathPrefix":"/restaurant-inspections"},"postgres":{"establishment":[{"establishmentid":"4181","name":"Detroit Leadership Academy","address":"13550 Virgil","zipcode":"48223","owner":"Detroit Leadership Academy","licenseNumber":"078748","licenseType":"Fixed Establishment","establishmentType":"Non-Public School","establishmentStatus":"Open","riskCategory":null,"reviewFrequencyDays":"210.0","coords":"-83.27069,42.38441","geojson":{"id":"4181","type":"Feature","geometry":{"type":"Point","coordinates":[-83.270690944,42.3844108590001]},"properties":{"name":"Detroit Leadership Academy","owner":"Detroit Leadership Academy","address":"13550 Virgil","zipcode":"48223","license_type":"Fixed Establishment","risk_category":null,"license_number":"078748","establishmentid":"4181","establishment_type":"Non-Public School","establishment_status":"Open","review_frequency_days":"210.0","most_recent_license_date":null}},"nearbyList":[{"establishmentid":"4368","name":"Club Yesterdays","address":"14060 Telegraph Rd","zipcode":"48239"},{"establishmentid":"956","name":"La Chambre Lounge","address":"14090 Telegraph Rd","zipcode":"48239"},{"establishmentid":"1524","name":"North American Indian Association","address":"22720 Plymouth Rd","zipcode":"48239"},{"establishmentid":"902","name":"Frank Murphy Performance Academy ","address":"23901 Fenkell Ave","zipcode":"48223"},{"establishmentid":"2605","name":"Prince Pizza II","address":"22507 Plymouth Rd","zipcode":"48239"},{"establishmentid":"51622718","name":"Green House Soups & Chili","address":"22735 Fenkell St","zipcode":"48223"},{"establishmentid":"51622831","name":"Soula Culinary Ambition LLC","address":"22735 Fenkell","zipcode":"48214"},{"establishmentid":"5121","name":"Brightmoor Artisans Collective","address":"22735 Fenkell St","zipcode":"48223"},{"establishmentid":"2160","name":"Fifty/50","address":"23810 Fenkell Ave","zipcode":"48223"},{"establishmentid":"1710","name":"St. Christine's Community Soup Kitchen","address":"22261 Fenkell Ave","zipcode":"48223"},{"establishmentid":"239","name":"Scotty Simpsons Fish and Chips","address":"22200 Fenkell Ave","zipcode":"48223"},{"establishmentid":"4036","name":"Ronald Brown Academy (Annex)","address":"11450 E Outer Drive","zipcode":"48224"},{"establishmentid":"51622518","name":"New Grandy's","address":"22001 Fenkell Ave","zipcode":"48223"},{"establishmentid":"4283","name":"New Grandy's ","address":"22001 Fenkell Ave","zipcode":"48223"},{"establishmentid":"3921","name":"Westside Christian Academy","address":"9540 Bramell St","zipcode":"48239"},{"establishmentid":"5269","name":"Habibi Fish & Chicken","address":"21740 Fenkell","zipcode":"48223"},{"establishmentid":"51622753","name":"Fred's Fish & Chicken","address":"21740 Fenkell Street","zipcode":"48223"},{"establishmentid":"51622451","name":"F & R Eatery","address":"21451 Fenkell","zipcode":"48223"},{"establishmentid":"3447","name":"Detroit Community Schools","address":"12675 Burt Rd","zipcode":"48223"},{"establishmentid":"4175","name":"Samuel Gompers Learning Academy PK-8","address":"14450 Burt Rd","zipcode":"48223"}],"inspectionsByEstablishmentidList":[{"inspectionid":"43805","inspectionDate":"2018-10-09T00:00:00","inspectionType":"Routine Inspection","inCompliance":"No","violationsByInspectionidList":[{"violationCode":"7-204.11","violationDescription":"Chemical SANITIZERS and other chemical antimicrobials applied to FOOD-CONTACT SURFACES shall meet the requirements specified in this code. (P)\r\n","violationType":"Priority","itemDescription":"Sanitizer(s)","subItem":"","problemDescription":"Do not comply with law","subProblem":"","location":"DISHWASHING AREA","subLocation":"","corrected":"No","daysToCorrect":"10.0","correctedDate":null,"correctionDescription":"Provide labels that comply with law."}]},{"inspectionid":"42101","inspectionDate":"2018-05-02T00:00:00","inspectionType":"Routine Inspection","inCompliance":"Yes","violationsByInspectionidList":[]},{"inspectionid":"39921","inspectionDate":"2017-09-14T00:00:00","inspectionType":"Routine Inspection","inCompliance":"Yes","violationsByInspectionidList":[]},{"inspectionid":"37963","inspectionDate":"2017-02-08T00:00:00","inspectionType":"Routine Inspection","inCompliance":"Yes","violationsByInspectionidList":[]}]}]}},"pageContext":{"eid":"4181"}}