{"data":{"site":{"pathPrefix":"/restaurant-inspections"},"postgres":{"establishment":[{"establishmentid":"825","name":"Bates Academy","address":"19701 Wyoming Ave","zipcode":"48221","owner":"Detroit Board Of Education","licenseNumber":"034856","licenseType":"Fixed Establishment","establishmentType":"Public School","establishmentStatus":"Open","riskCategory":null,"reviewFrequencyDays":"180.0","coords":"-83.16262,42.43794","geojson":{"id":"825","type":"Feature","geometry":{"type":"Point","coordinates":[-83.1626179799999,42.437936108]},"properties":{"name":"Bates Academy","owner":"Detroit Board Of Education","address":"19701 Wyoming Ave","zipcode":"48221","license_type":"Fixed Establishment","risk_category":null,"license_number":"034856","establishmentid":"825","establishment_type":"Public School","establishment_status":"Open","review_frequency_days":"180.0","most_recent_license_date":"4/30/2018"}},"nearbyList":[{"establishmentid":"912","name":"International Preparatory Academy","address":"4201 W Outer Dr","zipcode":"48238"},{"establishmentid":"1869","name":"Little Caesar's Pizza #24","address":"10200 W Seven Mile Rd","zipcode":"48221"},{"establishmentid":"520","name":"Tom's Tavern","address":"10093 W Seven Mile Rd","zipcode":"48221"},{"establishmentid":"1081","name":"Kentucky Fried Chicken ","address":"8939 W Seven Mile Rd","zipcode":"48221"},{"establishmentid":"3716","name":"Chik-N-Wings","address":"10145 W Eight Mile Rd","zipcode":"48221"},{"establishmentid":"5084","name":"Word In Action Christian Center","address":"19780 Meyers","zipcode":"48227"},{"establishmentid":"5280","name":"Capital Hook Fish & Chicken Inc","address":"10600 W Seven Mile Rd","zipcode":"48221"},{"establishmentid":"4098","name":"Checkers #3310","address":"10711 W Seven Mile Rd","zipcode":"48221"},{"establishmentid":"1584","name":"U Of D Jesuit High School","address":"8400 S Cambridge St","zipcode":"48221"},{"establishmentid":"723","name":"Motor City Soul Food","address":"12700 W Seven Mile Rd","zipcode":"48235"},{"establishmentid":"5403","name":"Detroit Shawarma/Spice Giant","address":"12729 W Seven Mile Rd","zipcode":"48235"},{"establishmentid":"3879","name":"Franks Anatra","address":"18700 Meyers","zipcode":"48221"},{"establishmentid":"669","name":"Lotus Gardens","address":"12832 W Seven Mile Rd","zipcode":"48235"},{"establishmentid":"400","name":"Deli-Plaza Inc","address":"18401 Wyoming Ave","zipcode":"48221"},{"establishmentid":"3564","name":"D'Emilis Catering","address":"10009 Curtis St","zipcode":"48221"},{"establishmentid":"2079","name":"8 Mile Grill","address":"8003-05 W Eight Mile Rd","zipcode":"48221"},{"establishmentid":"4452","name":"Happy's Pizza #100","address":"7731 E Seven Mile Rd","zipcode":"48234"},{"establishmentid":"588","name":"Hot Tamales","address":"13109 W Eight Mile Rd","zipcode":"48235"},{"establishmentid":"1705","name":"Northwest Community Programs, Inc.","address":"18100 Meyers","zipcode":"48235"},{"establishmentid":"911","name":"Mumford High School","address":"17525 Wyoming Ave","zipcode":"48221"}],"inspectionsByEstablishmentidList":[{"inspectionid":"44058","inspectionDate":"2018-11-09T00:00:00","inspectionType":"Routine Inspection","inCompliance":"Yes","violationsByInspectionidList":[]},{"inspectionid":"42196","inspectionDate":"2018-05-08T00:00:00","inspectionType":"Routine Inspection","inCompliance":"Yes","violationsByInspectionidList":[]},{"inspectionid":"40200","inspectionDate":"2017-09-27T00:00:00","inspectionType":"Routine Inspection","inCompliance":"Yes","violationsByInspectionidList":[]},{"inspectionid":"38151","inspectionDate":"2017-03-02T00:00:00","inspectionType":"Routine Inspection","inCompliance":"Yes","violationsByInspectionidList":[]},{"inspectionid":"36578","inspectionDate":"2016-09-29T00:00:00","inspectionType":"Routine Inspection","inCompliance":"Yes","violationsByInspectionidList":[]}]}]}},"pageContext":{"eid":"825"}}