{"componentChunkName":"component---src-templates-establishment-page-js","path":"/establishment/1033","result":{"data":{"site":{"pathPrefix":"/restaurant-inspections"},"postgres":{"establishment":[{"establishmentid":"1033","name":"Gompers Elementary School","address":"20601 Davison Ave. W.","zipcode":"48228","owner":"Detroit Board of Education","licenseNumber":"035089","licenseType":"Fixed Establishment","establishmentType":"Public School","establishmentStatus":"Open","riskCategory":null,"reviewFrequencyDays":"250","coords":"-83.24306,42.38335","geojson":{"id":"1033","type":"Feature","geometry":{"type":"Point","coordinates":[-83.24306489,42.383351723]},"properties":{"name":"Gompers Elementary School","owner":"Detroit Board of Education","address":"20601 Davison Ave. W.","zipcode":"48228","license_type":"Fixed Establishment","risk_category":null,"license_number":"035089","establishmentid":"1033","establishment_type":"Public School","establishment_status":"Open","review_frequency_days":"250","most_recent_license_date":"24/6/2010"}},"nearbyList":[{"establishmentid":"4285","name":"City Mission","address":"20405 Schoolcraft Rd.","zipcode":"48223"},{"establishmentid":"4823","name":"City Covenant Church","address":"13624 Stout","zipcode":"48223"},{"establishmentid":"428","name":"Eddie's Smokehouse","address":"20243 Schoolcraft","zipcode":"48223"},{"establishmentid":"2193","name":"Robinson Dairy Vending","address":"12400 Burt","zipcode":"48228"},{"establishmentid":"1753","name":"Vix Vending","address":"12400 Burt","zipcode":"48228"},{"establishmentid":"4548","name":"Vix Vending","address":"12400 Burt Rd.","zipcode":"48221"},{"establishmentid":"3447","name":"Detroit Community Schools","address":"12675  Burt Rd.","zipcode":"48223"},{"establishmentid":"2254","name":"DON'S VENDING SERVICE","address":"12675 BURT RD","zipcode":"48219"},{"establishmentid":"362","name":"Sonny's Hamburgers","address":"20001 Schoolcraft Rd.","zipcode":"48223"},{"establishmentid":"51622684","name":"Fun on the Run Soul Food Catering","address":"19841 Schoolcraft","zipcode":"48223"}],"inspectionsByEstablishmentidList":[]}],"maxInspectionDate":[{"inspectionDate":"2023-04-13T00:00:00"}]}},"pageContext":{"eid":"1033"}},"staticQueryHashes":["3649515864","63159454"]}