{"data":{"site":{"pathPrefix":"/restaurant-inspections"},"postgres":{"establishment":[{"establishmentid":"1525","name":"Holy Redeemer Grade School","address":"1711 Junction Ave","zipcode":"48209","owner":"Archdiocese of Detroit","licenseNumber":"035749","licenseType":"Fixed Establishment","establishmentType":"Non-Public School","establishmentStatus":"Open","riskCategory":"Medium","reviewFrequencyDays":"210.0","coords":"-83.10146,42.31622","geojson":{"id":"1525","type":"Feature","geometry":{"type":"Point","coordinates":[-83.10146214,42.31622113]},"properties":{"name":"Holy Redeemer Grade School","owner":"Archdiocese of Detroit","address":"1711 Junction Ave","zipcode":"48209","license_type":"Fixed Establishment","risk_category":"Medium","license_number":"035749","establishmentid":"1525","establishment_type":"Non-Public School","establishment_status":"Open","review_frequency_days":"210.0","most_recent_license_date":"4/29/2016"}},"nearbyList":[{"establishmentid":"4311","name":"Holy Redeemer Church","address":"1721 Junction","zipcode":"48209"},{"establishmentid":"4662","name":"Tacos Morelotes","address":"1494 Junction Ave","zipcode":"48209"},{"establishmentid":"4677","name":"La Fiesta Ice Cream Shop","address":"4801 W Vernor Hwy","zipcode":"48209"},{"establishmentid":"3647","name":"Pollo Chapin","address":"2054 Junction Ave","zipcode":"48209"},{"establishmentid":"2402","name":"China House","address":"1650 Lansing St","zipcode":"48209"},{"establishmentid":"51622884","name":"China House","address":"1650 Lansing St","zipcode":"48209"},{"establishmentid":"5402","name":"Antojitos Los Tres Hermanos","address":"4627 W Vernor St","zipcode":"48209"},{"establishmentid":"3095","name":"Los Corrales","address":"2244 Junction Ave","zipcode":"48209"},{"establishmentid":"5375","name":"Checker's Drive Inn ","address":"6060 W Vernor Hwy","zipcode":"48209"},{"establishmentid":"979","name":"Clippert Academy","address":"1981 McKinstry St","zipcode":"48209"},{"establishmentid":"931","name":"Neinas Elementary","address":"6021 McMillan","zipcode":"48209"},{"establishmentid":"5104","name":"Bella's Coffee House ","address":"2303 Campbell St","zipcode":"48209"},{"establishmentid":"5387","name":"Flowers of Vietnam","address":"4430 W Vernor Hwy","zipcode":"4821"},{"establishmentid":"3143","name":"Tacos El Taquito Mexican Food","address":"1985 Military St","zipcode":"48209"},{"establishmentid":"5409","name":"PizzaPlex","address":"4454-58 Vernor","zipcode":"48214"},{"establishmentid":"4848","name":"Subway","address":"6166 Vernor Hwy","zipcode":"48209"},{"establishmentid":"4280","name":"El Durango Bar","address":"2508-10 Junction","zipcode":"48209"},{"establishmentid":"51622836","name":"Burger King #1190","address":"6251 W Vernor Highway","zipcode":"48209"},{"establishmentid":"2128","name":"Maybury School","address":"4410 Porter St","zipcode":"48209"},{"establishmentid":"1052","name":"Blue Diamond","address":"2453 Campbell St N","zipcode":"48209"}],"inspectionsByEstablishmentidList":[{"inspectionid":"44272","inspectionDate":"2018-11-29T00:00:00","inspectionType":"Routine Inspection","inCompliance":"Yes","violationsByInspectionidList":[{"violationCode":"MFL289.2129","violationDescription":"Sec. 2129. (1) All of the following food establishments shall employ a minimum of 1 managerial employee who is currently certified under a personnel certification program accredited by the American national standards institute, utilizing the conference for food protection standards:  (a) A food service establishment that is not any of the following:    (i) Operating under a temporary food service establishment license.  (ii) A vending machine location.     (b) An extended retail food establishment.  (c) Operated within a retail grocery.  (2) An individual certified under subsection (1) shall be recognized with full faith and credit by the state and all local units of government throughout the state.  (3) The department may promulgate rules to do all of the following:  (a) Develop requirements for retail food establishments to follow when employing certified food safety managers or personnel.  (b) Set a reasonable date for compliance with the requirements under subdivision (a) taking into consideration existing local personnel certification requirements.  (c) Establish certification fees necessary to implement, maintain, and track certified individuals directly or by contract. The department may annually adjust the schedule of fees to provide that the fee charged is sufficient to cover the cost of the certification tracking program.  (d) Implement and enforce the requirements described in subdivision (a).    (4) The certification program developed by the American national standards institute, as it exists on April 1, 2008 , is incorporated by reference. The department may adopt updates to the certification program accreditation standards in subsection (1) by rule.     (5) This section does not prohibit any local legislative body from implementing a food handler program, an employee health certification program, or a manager certification program, if it is not in conflict with this section.","violationType":"Core","itemDescription":"Person-in-charge","subItem":"","problemDescription":null,"subProblem":"","location":"ESTABLISHMENT","subLocation":"","corrected":"Not required","daysToCorrect":"30.0","correctedDate":null,"correctionDescription":null}]},{"inspectionid":"42302","inspectionDate":"2018-05-17T00:00:00","inspectionType":"Routine Inspection","inCompliance":"Yes","violationsByInspectionidList":[]},{"inspectionid":"40455","inspectionDate":"2017-10-10T00:00:00","inspectionType":"Routine Inspection","inCompliance":"Yes","violationsByInspectionidList":[]},{"inspectionid":"38586","inspectionDate":"2017-04-26T00:00:00","inspectionType":"Routine Inspection","inCompliance":"Yes","violationsByInspectionidList":[]},{"inspectionid":"37066","inspectionDate":"2016-10-18T00:00:00","inspectionType":"Routine Inspection","inCompliance":"Yes","violationsByInspectionidList":[]}]}]}},"pageContext":{"eid":"1525"}}