{"data":{"postgres":{"establishment":[{"establishmentid":"51622720","name":"Durdens Catering LLC","address":"20504 Livernois","zipcode":"48221","owner":"Rytonie Durden Jr.","licenseNumber":"jb032818","licenseType":"Fixed Establishment","establishmentType":"Food Service Establishment","establishmentStatus":"Open","riskCategory":null,"reviewFrequencyDays":"180.0","coords":"-83.14160,42.44527","geojson":{"id":"51622720","type":"Feature","geometry":{"type":"Point","coordinates":[-83.141601551,42.4452677100001]},"properties":{"name":"Durdens Catering LLC","owner":"Rytonie Durden Jr.","address":"20504 Livernois","zipcode":"48221","license_type":"Fixed Establishment","risk_category":null,"license_number":"jb032818","establishmentid":"51622720","establishment_type":"Food Service Establishment","establishment_status":"Open","review_frequency_days":"180.0","most_recent_license_date":"3/28/2018"}},"nearbyList":[{"establishmentid":"4266","name":"Baker's Keyboard Lounge","address":"20510 Livernois Ave","zipcode":"48221"},{"establishmentid":"1798","name":"Wendy's Old Fashioned Hamburgers #0820","address":"6333 W Eight Mile Rd","zipcode":"48221"},{"establishmentid":"5190","name":"D and D Cuisine LLC","address":"17521 Livernois Ave","zipcode":"48221"},{"establishmentid":"2110","name":"Hangover's Lounge","address":"20143 Livernois Ave","zipcode":"48221"},{"establishmentid":"4245","name":"New Prospect Missionary Baptist Church","address":"6330 Pembroke St","zipcode":"48221"},{"establishmentid":"1243","name":"Pasteur Elementary School","address":"19811 Stoepel St","zipcode":"48221"},{"establishmentid":"1469","name":"Noni's Sherwood Grille","address":"19700 Livernois Ave","zipcode":"48221"},{"establishmentid":"51622487","name":"Bucharest Grill","address":"19492 Livernois","zipcode":"48221"},{"establishmentid":"2079","name":"8 Mile Grill","address":"8003-05 W Eight Mile Rd","zipcode":"48221"},{"establishmentid":"3928","name":"1917 American Bistro","address":"19416 Livernois","zipcode":"48221"},{"establishmentid":"4617","name":"Kuzzo's Chicken & Waffles LLC","address":"19345 Livernois Ave","zipcode":"48221"},{"establishmentid":"51622453","name":"Narrow Way Cafe LLC","address":"19331 Livernois Ave","zipcode":"48221"},{"establishmentid":"5208","name":"The Avenue \"An International Kitchen\"","address":"19163 Livernois Ave","zipcode":"48221"},{"establishmentid":"51622833","name":"Legends Pizza on the Ave","address":"19163 Livernois Ave","zipcode":"48221"},{"establishmentid":"5301","name":"Mr. Fofo's Deli","address":"19166 Livernois","zipcode":"48221"},{"establishmentid":"5428","name":"BabyBack's Open Pit","address":"7108 W Seven Mile Rd","zipcode":"48221"},{"establishmentid":"5078","name":"Papa's Pizza - JNL Pizzaria, Inc.","address":"7410 W Seven Mile Rd","zipcode":"48221"},{"establishmentid":"51622673","name":"Biggby Coffee","address":"18685 Livernois","zipcode":"48221"},{"establishmentid":"4452","name":"Happy's Pizza #100","address":"7731 E Seven Mile Rd","zipcode":"48234"},{"establishmentid":"1656","name":"Boston Market #976","address":"18610 Livernois Ave","zipcode":"48221"}],"inspectionsByEstablishmentidList":[{"inspectionid":"42977","inspectionDate":"2018-07-26T00:00:00","inspectionType":"Routine Inspection","inCompliance":"Yes","violationsByInspectionidList":[{"violationCode":"4-202.16","violationDescription":"NonFOOD-CONTACT SURFACES shall be free of unnecessary ledges, projections, and crevices, and designed and constructed to allow easy cleaning and to facilitate maintenance.\r\n","violationType":"Core","itemDescription":"Nonfood contact surface(s)","subItem":"shelving dry storage","problemDescription":"Bare wood","subProblem":"","location":"STORAGE AREA(S)","subLocation":"On the wall Shelves- wood","corrected":"Not required","daysToCorrect":"30.0","correctedDate":null,"correctionDescription":"Replace/seal to be smooth, durable, non-absorbent, and easily cleanable."}]}]}]}},"pageContext":{"eid":"51622720"}}