{"componentChunkName":"component---src-templates-establishment-page-js","path":"/establishment/51623405","result":{"data":{"site":{"pathPrefix":"/restaurant-inspections"},"postgres":{"establishment":[{"establishmentid":"51623405","name":"Family Bistro LLC ","address":"19313  Fleming St. ","zipcode":"48234","owner":"Shawn Long ","licenseNumber":"263463","licenseType":"Mobile Food Establishment","establishmentType":"LHD - Special Transitory Food","establishmentStatus":"Open","riskCategory":null,"reviewFrequencyDays":null,"coords":"-83.07958,42.43570","geojson":{"id":"51623405","type":"Feature","geometry":{"type":"Point","coordinates":[-83.079582417,42.43569761]},"properties":{"name":"Family Bistro LLC ","owner":"Shawn Long ","address":"19313  Fleming St. ","zipcode":"48234","license_type":"Mobile Food Establishment","risk_category":null,"license_number":"263463","establishmentid":"51623405","establishment_type":"LHD - Special Transitory Food","establishment_status":"Open","review_frequency_days":null,"most_recent_license_date":null}},"nearbyList":[{"establishmentid":"686","name":"West Indian Amerian Assn","address":"2015 Seven Mile Rd. E. ","zipcode":"48234"},{"establishmentid":"1197","name":"Yiu Chan Restaurant","address":"2415 Seven Mile Rd. E.","zipcode":"48234"},{"establishmentid":"3220","name":"Hash Brown Cafe","address":"19458 Conant","zipcode":"48234"},{"establishmentid":"4486","name":"Christian Guidance Center","address":"19211 Anglin St.","zipcode":"48234"},{"establishmentid":"2035","name":"Jackie's Mississippi Flavor","address":"2440 Seven Mile Rd. E.","zipcode":"48234"},{"establishmentid":"51623328","name":"Generation  Bistro ","address":"2440 Seven Mile E.","zipcode":"48234"},{"establishmentid":"3272","name":"PC3's Grill & Home Cooking","address":"2440 Seven Mile Rd. E","zipcode":"48234"},{"establishmentid":"250","name":"Erotic City","address":"19326 Conant Ave.","zipcode":"48234"},{"establishmentid":"3072","name":"Munchee's Mania","address":"19310 Conant Ave.","zipcode":"48234"},{"establishmentid":"1418","name":"Heavenly Taste","address":"1490 Outer Dr. E.","zipcode":"48203"}],"inspectionsByEstablishmentidList":[{"inspectionid":"54975","inspectionDate":"2021-06-01T00:00:00","inspectionType":"Preopening/New","inCompliance":"Yes","violationsByInspectionidList":[{"violationCode":"MFL289.6135","violationDescription":"Sec. 6135. (1) The name and address of the business operating a mobile food establishment shall be affixed to each side of the exterior of the vehicle in letters not less than 3 inches high and 3/8 of an inch wide and shall be in contrast to the vehicle background color. When more than 1 mobile food service establishment is operated by the same person, the director shall assign a number to each establishment.  (2) A copy of limitations attached to the license of a mobile food service establishment shall be carried on the mobile food service establishment at all times.  (3) If a mobile food establishment is operating on a regularly scheduled route, the director may require the license holder to provide a copy of the route schedule when the license is approved and every time the route schedule is changed.  (4) The director or the operator in the presence of the director shall affix 2 decals provided by the department on the mobile food establishment when the license is issued. The decals shall be conspicuously displayed on each side of the mobile food establishment so as to be visible when in transit and while serving the public.","violationType":"Core","itemDescription":null,"subItem":"","problemDescription":null,"subProblem":"","location":"","subLocation":"","corrected":"False","daysToCorrect":"30","correctedDate":null,"correctionDescription":null}]}]}],"maxInspectionDate":[{"inspectionDate":"2023-04-13T00:00:00"}]}},"pageContext":{"eid":"51623405"}},"staticQueryHashes":["3649515864","63159454"]}