{"componentChunkName":"component---src-templates-establishment-page-js","path":"/establishment/4179","result":{"data":{"site":{"pathPrefix":"/restaurant-inspections"},"postgres":{"establishment":[{"establishmentid":"4179","name":"Skybar and Lounge","address":"1150 Griswold","zipcode":"48226","owner":"Michael Carney","licenseNumber":"072445","licenseType":"Fixed Establishment","establishmentType":"Food Service Establishment","establishmentStatus":"Open","riskCategory":null,"reviewFrequencyDays":"335","coords":"-83.04856,42.33243","geojson":{"id":"4179","type":"Feature","geometry":{"type":"Point","coordinates":[-83.048555025,42.332434557]},"properties":{"name":"Skybar and Lounge","owner":"Michael Carney","address":"1150 Griswold","zipcode":"48226","license_type":"Fixed Establishment","risk_category":null,"license_number":"072445","establishmentid":"4179","establishment_type":"Food Service Establishment","establishment_status":"Open","review_frequency_days":"335","most_recent_license_date":"4/15/2014"}},"nearbyList":[{"establishmentid":"4265","name":"Slices Pizza","address":"1043 Woodward","zipcode":"48226"},{"establishmentid":"5364","name":"Avalon Hearth and Soul Cafe","address":"1049 Woodward","zipcode":"48226"},{"establishmentid":"51623480","name":"The Halal Guys","address":"1043 Woodward","zipcode":"48226"},{"establishmentid":"3618","name":"Salad Creations","address":"1043 Woodward","zipcode":"48226"},{"establishmentid":"4040","name":"The Red Grape Lounge (5 AND 10 Lounge)","address":"1201 Woodward","zipcode":"48226"},{"establishmentid":"4385","name":"STATE STREET PUB","address":"1201 Woodward Ave.","zipcode":"48226"},{"establishmentid":"4039","name":"Chez Zara","address":"1201 Woodward","zipcode":"48226"},{"establishmentid":"51622498","name":"Prime + Proper","address":"1145 Griswold","zipcode":"48226"},{"establishmentid":"51622622","name":"Prime + Proper- Cash Only","address":"1145 Griswold","zipcode":"48226"},{"establishmentid":"51622457","name":"La Lanterna","address":"1224 Griswold","zipcode":"48226"}],"inspectionsByEstablishmentidList":[]}],"maxInspectionDate":[{"inspectionDate":"2022-08-31T00:00:00"}]}},"pageContext":{"eid":"4179"}},"staticQueryHashes":["3649515864","63159454"]}