{"data":{"site":{"pathPrefix":"/restaurant-inspections"},"postgres":{"establishment":[{"establishmentid":"51622488","name":"Louisiana Creole Gumbo/Mobile #1","address":"2051 Gratiot","zipcode":"48207","owner":"LCG Foods Inc.","licenseNumber":"229332","licenseType":"Mobile Food Establishment","establishmentType":"LHD - Mobile Food Establishmen","establishmentStatus":"Open","riskCategory":"High","reviewFrequencyDays":"395.0","coords":"-83.03469,42.34933","geojson":{"id":"51622488","type":"Feature","geometry":{"type":"Point","coordinates":[-83.034688038,42.34933227]},"properties":{"name":"Louisiana Creole Gumbo/Mobile #1","owner":"LCG Foods Inc.","address":"2051 Gratiot","zipcode":"48207","license_type":"Mobile Food Establishment","risk_category":"High","license_number":"229332","establishmentid":"51622488","establishment_type":"LHD - Mobile Food Establishmen","establishment_status":"Open","review_frequency_days":"395.0","most_recent_license_date":null}},"nearbyList":[{"establishmentid":"1005","name":"Burger King","address":"2155 Gratiot Ave","zipcode":"48207"},{"establishmentid":"1178","name":"Cutters Bar And Grill","address":"2638 Orleans","zipcode":"48207"},{"establishmentid":"3183","name":"Detroit Edison Public School Academy","address":"1903 Wilkins","zipcode":"48207"},{"establishmentid":"4614","name":"University Prep Science & Math Elem","address":"2251 Antietam","zipcode":"48207"},{"establishmentid":"4964","name":"Detroit City Distillery","address":"2462 Riopelle St","zipcode":"48207"},{"establishmentid":"3895","name":"Butcher's Inn","address":"1489 Winder Ave","zipcode":"48207"},{"establishmentid":"51622482","name":"Eastern Market Brewing Co.","address":"2515 Riopelle St","zipcode":"48207"},{"establishmentid":"4656","name":"Detroit Edison Public School Academy","address":"3403 St Aubin","zipcode":"48207"},{"establishmentid":"501","name":"Vivio's Market Center Club","address":"2460 Market St","zipcode":"48207"},{"establishmentid":"485","name":"Farmer's Restaurant","address":"2542 Market St","zipcode":"48207"},{"establishmentid":"5205","name":"Coriander","address":"1464 Gratiot Ave","zipcode":"48207"},{"establishmentid":"5024","name":"Trinosophes LLC","address":"1464 Gratiot Ave","zipcode":"48207"},{"establishmentid":"5397","name":"Gather Detroit LLC","address":"1454 Gratiot Ave","zipcode":"48207"},{"establishmentid":"4461","name":"Antietam","address":"1428 Gratiot Ave","zipcode":"48207"},{"establishmentid":"51622859","name":"LeCulture Cafe","address":"1428 Gratiot","zipcode":"48207"},{"establishmentid":"647","name":"Zeff's Coney Island","address":"2469 Russell St","zipcode":"48207"},{"establishmentid":"1384","name":"Russell Street Deli","address":"2465 Russell St","zipcode":"48207"},{"establishmentid":"4180","name":"Mootown Ice Cream Shoppe","address":"2461 Russell St","zipcode":"48207"},{"establishmentid":"1662","name":"Supino Pizzeria","address":"2457 Russell St","zipcode":"48207"},{"establishmentid":"5212","name":"Beyond Juicery & Eatery","address":"2501 Russell St","zipcode":"48207"}],"inspectionsByEstablishmentidList":[{"inspectionid":"42320","inspectionDate":"2018-05-17T00:00:00","inspectionType":"Routine Inspection","inCompliance":"Yes","violationsByInspectionidList":[]},{"inspectionid":"38935","inspectionDate":"2017-06-06T00:00:00","inspectionType":"Preopening/New","inCompliance":"Yes","violationsByInspectionidList":[]}]}]}},"pageContext":{"eid":"51622488"}}