{"data":{"site":{"pathPrefix":"/restaurant-inspections"},"postgres":{"establishment":[{"establishmentid":"51622597","name":"The Den Sports Grill and Bar","address":"17175 Harper Ave","zipcode":"48224","owner":"Brookins Way LLC","licenseNumber":"220245","licenseType":"Fixed Establishment","establishmentType":"Food Service Establishment","establishmentStatus":null,"riskCategory":null,"reviewFrequencyDays":"90.0","coords":"-82.93550,42.41722","geojson":{"id":"51622597","type":"Feature","geometry":{"type":"Point","coordinates":[-82.9355010419999,42.417224226]},"properties":{"name":"The Den Sports Grill and Bar","owner":"Brookins Way LLC","address":"17175 Harper Ave","zipcode":"48224","license_type":"Fixed Establishment","risk_category":null,"license_number":"220245","establishmentid":"51622597","establishment_type":"Food Service Establishment","establishment_status":null,"review_frequency_days":"90.0","most_recent_license_date":null}},"nearbyList":[{"establishmentid":"446","name":"Tubby's Sub Shop #37","address":"17195 Harper Ave","zipcode":"48224"},{"establishmentid":"3571","name":"Papa's Pizza ","address":"17137 Harper Ave","zipcode":"48224"},{"establishmentid":"1902","name":"Nikki's Place & Lounge","address":"17200 Harper Ave","zipcode":"48224"},{"establishmentid":"511","name":"Champagnes Steak and Soul","address":"17323 Harper Ave","zipcode":"48224"},{"establishmentid":"1797","name":"Wendy's Old Fashioned Hamburgers","address":"17010 Harper Ave","zipcode":"48226"},{"establishmentid":"1295","name":"McDonald's #5459 ","address":"16950 Harper Ave","zipcode":"48224"},{"establishmentid":"705","name":"First Place Lounge","address":"16921 Harper Ave","zipcode":"48224"},{"establishmentid":"4366","name":"Sweetwater Express (Harper)","address":"16849 Harper Ave","zipcode":"48224"},{"establishmentid":"465","name":"Firewater Bar & Grill","address":"16801 Harper Ave","zipcode":"48224"},{"establishmentid":"2162","name":"White Castle #59","address":"16737 Harper Ave ","zipcode":"48224"}],"inspectionsByEstablishmentidList":[{"inspectionid":"39440","inspectionDate":"2017-08-02T00:00:00","inspectionType":"Routine Inspection","inCompliance":"Yes","violationsByInspectionidList":[{"violationCode":"4-302.12","violationDescription":"(A) FOOD TEMPERATURE MEASURING DEVICES shall be provided and readily accessible for use in ensuring attainment and maintenance of FOOD temperatures as specified under Chapter 3. (Pf)   \r\n(B) A TEMPERATURE MEASURING DEVICE with a suitable small-diameter probe that is designed to measure the temperature of thin masses shall be provided and readily accessible to accurately measure the temperature in thin FOODS such as MEAT patties and FISH filets. (Pf)\r\n","violationType":"Foundation","itemDescription":"Food thermometer(s)","subItem":"probe","problemDescription":"Not provided","subProblem":"","location":"ESTABLISHMENT","subLocation":"Missing Digital Thermometer","corrected":"Yes","daysToCorrect":"10.0","correctedDate":"2017-08-10T00:00:00","correctionDescription":"Provide."}]}]}],"maxInspectionDate":[{"inspectionDate":"2019-03-31T00:00:00"}]}},"pageContext":{"eid":"51622597"}}