{"componentChunkName":"component---src-templates-establishment-page-js","path":"/establishment/51622854","result":{"data":{"site":{"pathPrefix":"/restaurant-inspections"},"postgres":{"establishment":[{"establishmentid":"51622854","name":"Cornucopia","address":"18900 Schoenherr","zipcode":"48205","owner":"Jason Vereen","licenseNumber":"237160","licenseType":"Special Transitory Food Unit","establishmentType":"LHD - Special Transitory Food","establishmentStatus":"Open","riskCategory":"High","reviewFrequencyDays":"150","coords":"-82.98475,42.43325","geojson":{"id":"51622854","type":"Feature","geometry":{"type":"Point","coordinates":[-82.9847468,42.433245699]},"properties":{"name":"Cornucopia","owner":"Jason Vereen","address":"18900 Schoenherr","zipcode":"48205","license_type":"Special Transitory Food Unit","risk_category":"High","license_number":"237160","establishmentid":"51622854","establishment_type":"LHD - Special Transitory Food","establishment_status":"Open","review_frequency_days":"150","most_recent_license_date":"11/7/2018"}},"nearbyList":[{"establishmentid":"2334","name":"Marvella's Bar & Grill","address":"13629 Seven Mile Rd. E.","zipcode":"48205"},{"establishmentid":"51623689","name":"Pulaski Elementary/Middle School","address":"13840 Lappin","zipcode":"48205"},{"establishmentid":"941","name":"Adult Education Center East","address":"13840 Lappin","zipcode":"48205"},{"establishmentid":"5377","name":"Pasta Bowl Two","address":"14063 Gratiot","zipcode":"48205"},{"establishmentid":"4729","name":"Brook's Catering Service ","address":"13847 Pfent","zipcode":"48205"},{"establishmentid":"4822","name":"Captain Jay's Fish & Chicken #107","address":"14205 Gratiot Ave.","zipcode":"48205"},{"establishmentid":"3619","name":"Odessa Blues","address":"13016 Seven Mile Rd. E.","zipcode":"48205"},{"establishmentid":"404","name":"Mississippi Connection","address":"13016 Seven Mile Rd. E.","zipcode":"48205"},{"establishmentid":"4090","name":"Hank Dogs","address":"19177 JoAnn Apt.102","zipcode":"48205"},{"establishmentid":"4057","name":"Hank Dogs","address":"19177 Joann","zipcode":"48205"}],"inspectionsByEstablishmentidList":[{"inspectionid":"46070","inspectionDate":"2019-05-06T00:00:00","inspectionType":"Preopening/New","inCompliance":"Yes","violationsByInspectionidList":[{"violationCode":"3-302.12","violationDescription":"Except for containers holding FOOD that can be readily and unmistakably recognized such as dry pasta, working containers holding FOOD or FOOD ingredients that are removed from their original packages for use in the FOOD ESTABLISHMENT, such as cooking oils, flour, herbs, potato flakes, salt, spices, and sugar shall be identified with the common name of the FOOD.","violationType":"Core","itemDescription":"Food item(s)","subItem":null,"problemDescription":"Not identified","subProblem":null,"location":"STFU","subLocation":null,"corrected":"False","daysToCorrect":"30","correctedDate":null,"correctionDescription":null}]}]}],"maxInspectionDate":[{"inspectionDate":"2022-07-25T00:00:00"}]}},"pageContext":{"eid":"51622854"}},"staticQueryHashes":["3649515864","63159454"]}