{"componentChunkName":"component---src-templates-establishment-page-js","path":"/establishment/51623800","result":{"data":{"site":{"pathPrefix":"/restaurant-inspections"},"postgres":{"establishment":[{"establishmentid":"51623800","name":"Tacos El Rodeo","address":"3801 Livernois","zipcode":"48210","owner":"Emily Galvez","licenseNumber":"PS072122","licenseType":"Mobile Food Establishment","establishmentType":"Food Service Establishment","establishmentStatus":"Unlicensed Establishment","riskCategory":null,"reviewFrequencyDays":null,"coords":"-83.11915,42.32893","geojson":{"id":"51623800","type":"Feature","geometry":{"type":"Point","coordinates":[-83.11915457,42.32893489]},"properties":{"name":"Tacos El Rodeo","owner":"Emily Galvez","address":"3801 Livernois","zipcode":"48210","license_type":"Mobile Food Establishment","risk_category":null,"license_number":"PS072122","establishmentid":"51623800","establishment_type":"Food Service Establishment","establishment_status":"Unlicensed Establishment","review_frequency_days":null,"most_recent_license_date":null}},"nearbyList":[{"establishmentid":"4821","name":"Matrix Head Start ","address":"3810  Gilbert","zipcode":"48209"},{"establishmentid":"51622462","name":"Better Woodman","address":"3700 Gilbert","zipcode":"48210"},{"establishmentid":"51623231","name":"Community Center at 3700 Gilbert","address":"3700 Gilbert","zipcode":"48210"},{"establishmentid":"51622860","name":"Pietrzyk Pierogi","address":"3700 Gilbert St.","zipcode":"48210"},{"establishmentid":"4993","name":"Carribeansoul Cafe & Catering Company","address":"3700 Gilbert","zipcode":"48210"},{"establishmentid":"5096","name":"Mia D's Soul Food Cafe & Catering","address":"3700 Gilbert","zipcode":"48210"},{"establishmentid":"5354","name":"Kaleidoscope Catering","address":"3700 Gilbert","zipcode":"48210"},{"establishmentid":"3526","name":"St. Peter & Paul Orthodox Cathedral","address":"3700  Gilbert St.","zipcode":"48210"},{"establishmentid":"1813","name":"Modern Vending Services","address":"3600 Military","zipcode":"48210"},{"establishmentid":"2993","name":"Modern Vending","address":"3600 Military","zipcode":"48210"}],"inspectionsByEstablishmentidList":[]}],"maxInspectionDate":[{"inspectionDate":"2022-08-31T00:00:00"}]}},"pageContext":{"eid":"51623800"}},"staticQueryHashes":["3649515864","63159454"]}