{"data":{"site":{"pathPrefix":"/restaurant-inspections"},"postgres":{"establishment":[{"establishmentid":"51622679","name":"Sushi Do","address":"22101 Moross Ave","zipcode":"48236","owner":"Thant S Lin","licenseNumber":"224666","licenseType":"Fixed Establishment","establishmentType":"Food Service Establishment","establishmentStatus":"Open","riskCategory":"High","reviewFrequencyDays":"180.0","coords":"-82.91634,42.42052","geojson":{"id":"51622679","type":"Feature","geometry":{"type":"Point","coordinates":[-82.916344215,42.4205163120001]},"properties":{"name":"Sushi Do","owner":"Thant S Lin","address":"22101 Moross Ave","zipcode":"48236","license_type":"Fixed Establishment","risk_category":"High","license_number":"224666","establishmentid":"51622679","establishment_type":"Food Service Establishment","establishment_status":"Open","review_frequency_days":"180.0","most_recent_license_date":null}},"nearbyList":[{"establishmentid":"1572","name":"Buddy's West, Inc","address":"19163 Mack Ave","zipcode":"48236"},{"establishmentid":"987","name":"National Coney Island","address":"19019 Mack Ave","zipcode":"48236"},{"establishmentid":"4325","name":"Cleopatra","address":"19027 Mack Ave","zipcode":"48236"},{"establishmentid":"4985","name":"Papa John's Pizza","address":"19001 Mack Ave","zipcode":"48236"},{"establishmentid":"3273","name":"Mack Ave. Subway Foods, LLC","address":"18743 Mack Ave","zipcode":"48236"},{"establishmentid":"4766","name":"Marquette Elementary (Main Building)","address":"6145 Canyon","zipcode":"48238"},{"establishmentid":"1116","name":"Marquette Elementary School (Annex)","address":"6145 Canyon","zipcode":"48236"},{"establishmentid":"1595","name":"Rabaut's Cafe","address":"18536 E Warren Ave","zipcode":"48236"},{"establishmentid":"51622780","name":"Side Dish","address":"18441 Mack Ave","zipcode":"48236"},{"establishmentid":"2266","name":"Dish","address":"18441 Mack Ave","zipcode":"48236"},{"establishmentid":"51622566","name":"ESH Ice Arena","address":"4831 Canyon","zipcode":"48236"},{"establishmentid":"4405","name":"McDonald's","address":"18201 Mack Ave","zipcode":"48236"},{"establishmentid":"4467","name":"Big Burgzs","address":"17627 E Warren","zipcode":"48224"},{"establishmentid":"51622460","name":"Starbuck's Coffee Company","address":"18051 Mack Ave","zipcode":"48224"},{"establishmentid":"1068","name":"Burger King","address":"17440 E Warren Ave","zipcode":"48224"},{"establishmentid":"2268","name":"High Noon Saloon","address":"17339 E Warren Ave","zipcode":"48224"},{"establishmentid":"4412","name":"East English Village Preparatory Academy","address":"5020 Cadieux","zipcode":"48224"},{"establishmentid":"511","name":"Champagnes Steak and Soul","address":"17323 Harper Ave","zipcode":"48224"},{"establishmentid":"1902","name":"Nikki's Place & Lounge","address":"17200 Harper Ave","zipcode":"48224"},{"establishmentid":"1992","name":"Domino's Pizza","address":"17140 E Warren Ave","zipcode":"48224"}],"inspectionsByEstablishmentidList":[{"inspectionid":"44927","inspectionDate":"2019-01-18T00:00:00","inspectionType":"Routine Inspection","inCompliance":"Yes","violationsByInspectionidList":[]},{"inspectionid":"42596","inspectionDate":"2018-06-21T00:00:00","inspectionType":"Routine Inspection","inCompliance":"Yes","violationsByInspectionidList":[]},{"inspectionid":"41815","inspectionDate":"2018-03-06T00:00:00","inspectionType":"Routine Inspection","inCompliance":"Yes","violationsByInspectionidList":[]}]}]}},"pageContext":{"eid":"51622679"}}