{"componentChunkName":"component---src-templates-establishment-page-js","path":"/establishment/448","result":{"data":{"site":{"pathPrefix":"/restaurant-inspections"},"postgres":{"establishment":[{"establishmentid":"448","name":"Carl's Chop House","address":"3020 Grand River","zipcode":"48201","owner":"Passalacqua's Chop House, Inc.","licenseNumber":"034230","licenseType":"Fixed Establishment","establishmentType":"Food Service Establishment","establishmentStatus":"Open","riskCategory":null,"reviewFrequencyDays":"150","coords":"-83.07045,42.37163","geojson":{"id":"448","type":"Feature","geometry":{"type":"Point","coordinates":[-83.070446375,42.371628616]},"properties":{"name":"Carl's Chop House","owner":"Passalacqua's Chop House, Inc.","address":"3020 Grand River","zipcode":"48201","license_type":"Fixed Establishment","risk_category":null,"license_number":"034230","establishmentid":"448","establishment_type":"Food Service Establishment","establishment_status":"Open","review_frequency_days":"150","most_recent_license_date":"2007-04-30"}},"nearbyList":[{"establishmentid":"3950","name":"Fisher Theatre","address":"3011 Grand Blvd. W.","zipcode":"48202"},{"establishmentid":"51622616","name":"The City Bakery","address":"3011 Grand Blvd. W.","zipcode":"48202"},{"establishmentid":"3908","name":"Cloud Nine Restaurant","address":"3011 Grand Blvd. W.","zipcode":"48202"},{"establishmentid":"1460","name":"Joe's Deli (Birmingham Deli)","address":"3011 Grand Blvd. W.","zipcode":"48202"},{"establishmentid":"4832","name":"Zenith","address":"3011 Grand Blvd. W. Ste. 111","zipcode":"48202"},{"establishmentid":"1534","name":"N-Joy Concessions","address":"3011 Grand Blvd. W.","zipcode":"48202"},{"establishmentid":"1697","name":"Clubhouse Tavern","address":"3011 Grand Blvd. W.","zipcode":"48202"},{"establishmentid":"2706","name":"Stella International Cafe","address":"3011 Grand Blvd. W.","zipcode":"48202"},{"establishmentid":"1422","name":"Motown Soul Food Cafe/South Beach Pizza ","address":"3011 Grand Blvd. W.","zipcode":"48202"},{"establishmentid":"51622618","name":"The Platform Concession Stand","address":"3011 3011 Grand Blvd W.","zipcode":"48202"}],"inspectionsByEstablishmentidList":[]}],"maxInspectionDate":[{"inspectionDate":"2023-04-25T00:00:00"}]}},"pageContext":{"eid":"448"}},"staticQueryHashes":["3649515864","63159454"]}