{"componentChunkName":"component---src-templates-establishment-page-js","path":"/establishment/51623595","result":{"data":{"site":{"pathPrefix":"/restaurant-inspections"},"postgres":{"establishment":[{"establishmentid":"51623595","name":"Goods N Hood","address":"8167 Sirron","zipcode":"48234","owner":"Nicole Alexander","licenseNumber":"PR20017D","licenseType":"Special Transitory Food Unit","establishmentType":"LHD - Special Transitory Food","establishmentStatus":"Plan Review","riskCategory":null,"reviewFrequencyDays":null,"coords":"-83.02091,42.44055","geojson":{"id":"51623595","type":"Feature","geometry":{"type":"Point","coordinates":[-83.020907564,42.440545809]},"properties":{"name":"Goods N Hood","owner":"Nicole Alexander","address":"8167 Sirron","zipcode":"48234","license_type":"Special Transitory Food Unit","risk_category":null,"license_number":"PR20017D","establishmentid":"51623595","establishment_type":"LHD - Special Transitory Food","establishment_status":"Plan Review","review_frequency_days":null,"most_recent_license_date":null}},"nearbyList":[{"establishmentid":"1053","name":"Our Lady Queen Of Heaven","address":"8200 Rolyat  St","zipcode":"48234"},{"establishmentid":"4647","name":"Our Lady Queen of Heaven Church ","address":"8200-10 Rolyat ","zipcode":"48234"},{"establishmentid":"51623009","name":"Conner Creek/Adella's Cafe","address":"4777 Outer Dr. E.","zipcode":"48234"},{"establishmentid":"2982","name":"Metro Vending","address":"4777 Outer Drive E.","zipcode":"48234"},{"establishmentid":"51623008","name":"Mitten Hospitality","address":"4777 Outer Dr. E.","zipcode":"48234"},{"establishmentid":"5010","name":"POI Vending Services LLC","address":"4777 Outer Drive E.","zipcode":"48234"},{"establishmentid":"51622743","name":"Diamond Hospitality LLC","address":"4777 E. Outer Drive","zipcode":"48234"},{"establishmentid":"1641","name":"ST. JOHN N.E. COMMUNITY HOS","address":"4777 Outer Dr. E.","zipcode":"48234"},{"establishmentid":"2156","name":"Coffee Connection","address":"4777 Outer Drive E.","zipcode":"48234"},{"establishmentid":"1657","name":"McDonald's ","address":"19840 Van Dyke Ave.","zipcode":"48234"}],"inspectionsByEstablishmentidList":[]}],"maxInspectionDate":[{"inspectionDate":"2023-04-25T00:00:00"}]}},"pageContext":{"eid":"51623595"}},"staticQueryHashes":["3649515864","63159454"]}