{"componentChunkName":"component---src-templates-establishment-page-js","path":"/establishment/51623995","result":{"data":{"site":{"pathPrefix":"/restaurant-inspections"},"postgres":{"establishment":[{"establishmentid":"51623995","name":"More Life Foods","address":"1420 Washington Blvd, Ste 301","zipcode":"48226","owner":"IzJayna Harris","licenseNumber":"PR23034D","licenseType":"Special Transitory Food Unit","establishmentType":"LHD - Mobile Food Establishmen","establishmentStatus":"Plan Review","riskCategory":null,"reviewFrequencyDays":null,"coords":"-83.05054,42.33406","geojson":{"id":"51623995","type":"Feature","geometry":{"type":"Point","coordinates":[-83.050542087,42.334055007]},"properties":{"name":"More Life Foods","owner":"IzJayna Harris","address":"1420 Washington Blvd, Ste 301","zipcode":"48226","license_type":"Special Transitory Food Unit","risk_category":null,"license_number":"PR23034D","establishmentid":"51623995","establishment_type":"LHD - Mobile Food Establishmen","establishment_status":"Plan Review","review_frequency_days":null,"most_recent_license_date":null}},"nearbyList":[{"establishmentid":"51623592","name":"SpkrBox","address":"200 Grand River","zipcode":"48226"},{"establishmentid":"4518","name":"Urban Bean Company","address":"1405 Griswold","zipcode":"48226"},{"establishmentid":"5374","name":"La Pecora Nera","address":"1514 Washington Blvd","zipcode":"48226"},{"establishmentid":"4853","name":"Downtown Louie's","address":"30 Clifford","zipcode":"48226"},{"establishmentid":"4696","name":"Louie's Tavern","address":"30 Clifford","zipcode":"48226"},{"establishmentid":"51622876","name":"Leila Restaurant LLC","address":"1249 Griswold","zipcode":"48226"},{"establishmentid":"4214","name":"St. Aloysius","address":"1234  Washington Blvd.","zipcode":"48226"},{"establishmentid":"4641","name":"St. Aloysius Church-Neighbor Hood Servic","address":"1234 Washington","zipcode":"48226"},{"establishmentid":"2504","name":"Robinson Dairy Vending","address":"1431 Washinton Blvd.","zipcode":"48226"},{"establishmentid":"4697","name":"Detroit Parlor Room","address":"1525 Woodward Ave.","zipcode":"48336"}],"inspectionsByEstablishmentidList":[]}],"maxInspectionDate":[{"inspectionDate":"2023-04-25T00:00:00"}]}},"pageContext":{"eid":"51623995"}},"staticQueryHashes":["3649515864","63159454"]}