{"data":{"site":{"pathPrefix":"/restaurant-inspections"},"postgres":{"establishment":[{"establishmentid":"51623270","name":"Al's Soul Food Restaurant","address":"8000 W Outer Drive","zipcode":"48235","owner":"Christine Hamama","licenseNumber":"PS072720","licenseType":"Fixed Establishment","establishmentType":"Food Service Establishment","establishmentStatus":"Plan Review","riskCategory":null,"reviewFrequencyDays":"90.0","coords":"-83.21785,42.42038","geojson":{"id":"51623270","type":"Feature","geometry":{"type":"Point","coordinates":[-83.217845575,42.420377956]},"properties":{"name":"Al's Soul Food Restaurant","owner":"Christine Hamama","address":"8000 W Outer Drive","zipcode":"48235","license_type":"Fixed Establishment","risk_category":null,"license_number":"PS072720","establishmentid":"51623270","establishment_type":"Food Service Establishment","establishment_status":"Plan Review","review_frequency_days":"90.0","most_recent_license_date":null}},"nearbyList":[{"establishmentid":"2464","name":"Subway #24532","address":"7950 W Outer Dr","zipcode":"48235"},{"establishmentid":"4924","name":"Cornerstone Health & Tech High School","address":"17351 Southfield Rd","zipcode":"48235"},{"establishmentid":"2366","name":"Old Redford Academy Prep. High School","address":"8001 W Outer Dr","zipcode":"48235"},{"establishmentid":"5015","name":"Mr. B's Soul Food Truck #1","address":"17600 W McNichols Rd","zipcode":"48235"},{"establishmentid":"4442","name":"Mr. B's Soul Food","address":"17600 W McNichols Rd","zipcode":"48235"},{"establishmentid":"5016","name":"Mr. B's Soul Food Truck #2","address":"17600 W McNichols Rd","zipcode":"48235"},{"establishmentid":"5178","name":"Great Lakes Burger Bar","address":"18200 W McNichols","zipcode":"48219"},{"establishmentid":"51622610","name":"Island Spice Caribbean Food Restaurant","address":"18200 W McNichols Rd","zipcode":"48219"},{"establishmentid":"3798","name":"Subway ","address":"8200 W Outer Dr","zipcode":"48235"},{"establishmentid":"4959","name":"Cheng's Garden","address":"18205 W McNichols Rd","zipcode":"48219"}],"inspectionsByEstablishmentidList":[]}],"maxInspectionDate":[{"inspectionDate":"2020-10-30T00:00:00"}]}},"pageContext":{"eid":"51623270"}}