{"componentChunkName":"component---src-templates-establishment-page-js","path":"/establishment/270","result":{"data":{"site":{"pathPrefix":"/restaurant-inspections"},"postgres":{"establishment":[{"establishmentid":"270","name":"Stonehouse Bar","address":"19803 Ralston","zipcode":"48203","owner":"James B. Gruda","licenseNumber":"033930","licenseType":"Fixed Establishment","establishmentType":"Food Service Establishment","establishmentStatus":"Open","riskCategory":"Medium","reviewFrequencyDays":"335","coords":"-83.11735,42.43846","geojson":{"id":"270","type":"Feature","geometry":{"type":"Point","coordinates":[-83.117346427,42.43846354]},"properties":{"name":"Stonehouse Bar","owner":"James B. Gruda","address":"19803 Ralston","zipcode":"48203","license_type":"Fixed Establishment","risk_category":"Medium","license_number":"033930","establishmentid":"270","establishment_type":"Food Service Establishment","establishment_status":"Open","review_frequency_days":"335","most_recent_license_date":"4/28/2017"}},"nearbyList":[{"establishmentid":"1074","name":"State Fair Apartments","address":"1231 State Fair W.","zipcode":"48203"},{"establishmentid":"225","name":"Renaissance Bowling Center","address":"19600 Woodward","zipcode":"48203"},{"establishmentid":"1123","name":"Grayling Elementary","address":"744 Adeline W.","zipcode":"48238"},{"establishmentid":"4892","name":"AVI Foodsystems","address":"1301 E.Eight Mile","zipcode":null},{"establishmentid":"234","name":"McDonald's #18918","address":"19102 Woodward","zipcode":"48203"},{"establishmentid":"51622929","name":"Asian Corned Beef","address":"19102 Woodward","zipcode":"48203"},{"establishmentid":"5032","name":"Tasty World","address":"19102 Woodward","zipcode":"48201"},{"establishmentid":"993","name":"Palmer Park Golf Course 3216","address":"19013 Woodward Ave.","zipcode":"48203"},{"establishmentid":"3638","name":"Dairy World","address":"19010  Woodward Ave.","zipcode":"48203"},{"establishmentid":"4826","name":"Starbucks Coffee Co","address":"1327 Eight Mile W.","zipcode":"48203"}],"inspectionsByEstablishmentidList":[{"inspectionid":"40734","inspectionDate":"2017-10-27T00:00:00","inspectionType":"Routine Inspection","inCompliance":"Yes","violationsByInspectionidList":[]},{"inspectionid":"36857","inspectionDate":"2016-10-20T00:00:00","inspectionType":"Routine Inspection","inCompliance":"Yes","violationsByInspectionidList":[]}]}],"maxInspectionDate":[{"inspectionDate":"2022-08-31T00:00:00"}]}},"pageContext":{"eid":"270"}},"staticQueryHashes":["3649515864","63159454"]}