{"componentChunkName":"component---src-templates-establishment-page-js","path":"/establishment/1133","result":{"data":{"site":{"pathPrefix":"/restaurant-inspections"},"postgres":{"establishment":[{"establishmentid":"1133","name":"Hubert Elementary School","address":"14825 Lamphere Rd.","zipcode":"48238","owner":"Detroit Board of Education","licenseNumber":"035212","licenseType":"Fixed Establishment","establishmentType":"Public School","establishmentStatus":"Permanently Closed","riskCategory":null,"reviewFrequencyDays":"150","coords":"-83.26231,42.39615","geojson":{"id":"1133","type":"Feature","geometry":{"type":"Point","coordinates":[-83.262308798,42.396148533]},"properties":{"name":"Hubert Elementary School","owner":"Detroit Board of Education","address":"14825 Lamphere Rd.","zipcode":"48238","license_type":"Fixed Establishment","risk_category":null,"license_number":"035212","establishmentid":"1133","establishment_type":"Public School","establishment_status":"Permanently Closed","review_frequency_days":"150","most_recent_license_date":"2006-12-04"}},"nearbyList":[{"establishmentid":"5006","name":"Soul Food Palace","address":"15101  Brammell","zipcode":"48209"},{"establishmentid":"4121","name":"Universal Coney Island/Sylaj","address":"22541  Fenkell Ave.","zipcode":"48223"},{"establishmentid":"1710","name":"St. Christine's Community Soup Kitchen","address":"22261 Fenkell Ave.","zipcode":"48223"},{"establishmentid":"4359","name":"Sneekers","address":"22641  Fenkell Ave.","zipcode":"48223"},{"establishmentid":"2247","name":"Serenity Lounge","address":"22641 Fenkell Ave.","zipcode":"48223"},{"establishmentid":"1706","name":"Far West Alternative Middle School","address":"15320 Lamphere ave.","zipcode":"48238"},{"establishmentid":"239","name":"Scotty Simpsons Fish and Chips","address":"22200 Fenkell Ave.","zipcode":"48223"},{"establishmentid":"3458","name":"Fat Boyz Pizza","address":"22739 Fenkell Ave.","zipcode":"48219"},{"establishmentid":"5121","name":"Brightmoor Artisans Collective","address":"22735 Fenkell","zipcode":"48223"},{"establishmentid":"51622695","name":"Estella's Vegan Cuisine & Dessert's","address":"22735 Fenkell","zipcode":"48223"}],"inspectionsByEstablishmentidList":[]}],"maxInspectionDate":[{"inspectionDate":"2023-04-25T00:00:00"}]}},"pageContext":{"eid":"1133"}},"staticQueryHashes":["3649515864","63159454"]}