{"data":{"site":{"pathPrefix":"/restaurant-inspections"},"postgres":{"establishment":[{"establishmentid":"4416","name":"Detroit Innovation Academy","address":"18211 Plymouth Road","zipcode":"48228","owner":"Detroit Innovation Academy","licenseNumber":"072945","licenseType":"Fixed Establishment","establishmentType":"Charter School","establishmentStatus":"Open","riskCategory":"Medium","reviewFrequencyDays":"210","coords":"-83.21884,42.37185","geojson":{"id":"4416","type":"Feature","geometry":{"type":"Point","coordinates":[-83.21883557,42.371850319]},"properties":{"name":"Detroit Innovation Academy","owner":"Detroit Innovation Academy","address":"18211 Plymouth Road","zipcode":"48228","license_type":"Fixed Establishment","risk_category":"Medium","license_number":"072945","establishmentid":"4416","establishment_type":"Charter School","establishment_status":"Open","review_frequency_days":"210","most_recent_license_date":"4/30/2019"}},"nearbyList":[{"establishmentid":"4986","name":"Sterling's Old Style BBQ","address":"18241 Plymouth Rd","zipcode":"48228"},{"establishmentid":"51622735","name":"The Custard Hut","address":"18435 Plymouth Rd","zipcode":"48228"},{"establishmentid":"455","name":"Starters Lounge","address":"18426 Plymouth Rd","zipcode":"48228"},{"establishmentid":"5307","name":"Black Orchid dba Dolla Bills Gentleman C","address":"17040 Plymouth Rd","zipcode":"48227"},{"establishmentid":"5357","name":"A 1 Fish & Chicken LLC","address":"16900 Plymouth","zipcode":"48212"},{"establishmentid":"51622623","name":"Chicago Fish & Chicken","address":"16900 Plymouth","zipcode":"48227"},{"establishmentid":"4981","name":"Market Fresh Deli","address":"18200 W Chicago Rd","zipcode":"48228"},{"establishmentid":"2797","name":"Little Caesar's Pizza ","address":"18310 W Chicago Rd","zipcode":"48228"},{"establishmentid":"3149","name":"The Plymouth Cafe dba Fusion Flare","address":"16801 Plymouth Rd","zipcode":"48227"},{"establishmentid":"1522","name":"Fiberglass Estate Corp. ","address":"16515 Plymouth Rd","zipcode":"48227"}],"inspectionsByEstablishmentidList":[{"inspectionid":"43639","inspectionDate":"2018-10-03T00:00:00","inspectionType":"Routine Inspection","inCompliance":"No","violationsByInspectionidList":[{"violationCode":"4-302.14","violationDescription":"A test kit or other device that accurately measures the concentration in mg/L of SANITIZING solutions shall be provided. (Pf)\r\n","violationType":"Foundation","itemDescription":"Sanitizer test kit","subItem":"","problemDescription":"Not provided","subProblem":"","location":"DISHWASHING AREA","subLocation":"","corrected":"No","daysToCorrect":"10","correctedDate":null,"correctionDescription":"Provide."}]}]}],"maxInspectionDate":[{"inspectionDate":"2020-05-29T00:00:00"}]}},"pageContext":{"eid":"4416"}}