{"componentChunkName":"component---src-templates-establishment-page-js","path":"/establishment/3656","result":{"data":{"site":{"pathPrefix":"/restaurant-inspections"},"postgres":{"establishment":[{"establishmentid":"3656","name":"#2 Soul Brother","address":"12715 Harper Ave.","zipcode":"48213","owner":"James Hodges","licenseNumber":"061056","licenseType":"Fixed Establishment","establishmentType":"Food Service Establishment","establishmentStatus":"New Owner/Complete Reconstruct","riskCategory":null,"reviewFrequencyDays":"335","coords":"-82.97555,42.40162","geojson":{"id":"3656","type":"Feature","geometry":{"type":"Point","coordinates":[-82.975554266,42.401619797]},"properties":{"name":"#2 Soul Brother","owner":"James Hodges","address":"12715 Harper Ave.","zipcode":"48213","license_type":"Fixed Establishment","risk_category":null,"license_number":"061056","establishmentid":"3656","establishment_type":"Food Service Establishment","establishment_status":"New Owner/Complete Reconstruct","review_frequency_days":"335","most_recent_license_date":"2010-04-12"}},"nearbyList":[{"establishmentid":"1918","name":"Sambo's Fish & Chicken Coop","address":"12715 Harper","zipcode":"48215"},{"establishmentid":"4961","name":"New Harper Seafood & Chicken","address":"12715 Harper","zipcode":"48213"},{"establishmentid":"4190","name":"Ginas Soul Food","address":"12715 Harper","zipcode":"48213"},{"establishmentid":"3546","name":"Mr. Rick's Soul Food Headquarters","address":"12715 Harper Ave.","zipcode":"48213"},{"establishmentid":"800","name":"Veterans Memorial Home","address":"12775 Harper Ave.","zipcode":"48213"},{"establishmentid":"51622847","name":"Detroit Wing Spot","address":"12829 Harper","zipcode":"48213"},{"establishmentid":"4633","name":"Krispy Krunchy Detroit LLC","address":"13001 Harper Ave.","zipcode":"48213"},{"establishmentid":"664","name":"Chandler Park Golf Course","address":"12801 Chandler Park Dr.","zipcode":"48213"},{"establishmentid":"51623487","name":"Cajun Soul Sistas ","address":"5968 Lenox ST ","zipcode":"48213"},{"establishmentid":"1400","name":"Elmdale School","address":"12844 Elmdale","zipcode":"48213"}],"inspectionsByEstablishmentidList":[]}],"maxInspectionDate":[{"inspectionDate":"2023-04-25T00:00:00"}]}},"pageContext":{"eid":"3656"}},"staticQueryHashes":["3649515864","63159454"]}