{"componentChunkName":"component---src-templates-establishment-page-js","path":"/establishment/1408","result":{"data":{"site":{"pathPrefix":"/restaurant-inspections"},"postgres":{"establishment":[{"establishmentid":"1408","name":"St. John's Congregational Church","address":"14320 Kercheval","zipcode":"48215","owner":"BENNIE JOHNSON","licenseNumber":"035568","licenseType":"Fixed Establishment","establishmentType":"Food Service Establishment","establishmentStatus":"Open","riskCategory":null,"reviewFrequencyDays":"150","coords":"-82.94854,42.37822","geojson":{"id":"1408","type":"Feature","geometry":{"type":"Point","coordinates":[-82.948544046,42.378223513]},"properties":{"name":"St. John's Congregational Church","owner":"BENNIE JOHNSON","address":"14320 Kercheval","zipcode":"48215","license_type":"Fixed Establishment","risk_category":null,"license_number":"035568","establishmentid":"1408","establishment_type":"Food Service Establishment","establishment_status":"Open","review_frequency_days":"150","most_recent_license_date":"2022-05-05"}},"nearbyList":[{"establishmentid":"3260","name":"St. John's Congregational Church","address":"14320 Kercheval","zipcode":"48215"},{"establishmentid":"51622812","name":"Turn Around Sports Bar & Grille","address":"14619 Kercheval","zipcode":"48215"},{"establishmentid":"2676","name":"Texas Bar and Grill","address":"14619 Kercheval","zipcode":"48215"},{"establishmentid":"3262","name":"Motor City Clubhouse","address":"2670 Chalmers Ave.","zipcode":"48215"},{"establishmentid":"1966","name":"Motor City Clubhouse","address":"2670 Chalmers","zipcode":"48215"},{"establishmentid":"51623456","name":"The Coffee Spot","address":"14838 Kercheval Ave.","zipcode":"48215"},{"establishmentid":"4126","name":"My Dad's Bar","address":"14911 Kercheval","zipcode":"48215"},{"establishmentid":"1008","name":"Carstens Elementary School","address":"2592 Coplin St.","zipcode":"48215"},{"establishmentid":"3257","name":"Wendy's Old Fashioned Hamburgers","address":"13337 Jefferson Ave. E.","zipcode":"48215"},{"establishmentid":"5148","name":"Detroits Finest Coney Island","address":"13337 E. Jeffferson Ave. ","zipcode":"48215"}],"inspectionsByEstablishmentidList":[]}],"maxInspectionDate":[{"inspectionDate":"2023-04-25T00:00:00"}]}},"pageContext":{"eid":"1408"}},"staticQueryHashes":["3649515864","63159454"]}