{"componentChunkName":"component---src-templates-establishment-page-js","path":"/establishment/3325","result":{"data":{"site":{"pathPrefix":"/restaurant-inspections"},"postgres":{"establishment":[{"establishmentid":"3325","name":"Fresh Creamer","address":"17853 Conant","zipcode":"48212","owner":"Mufaid K. Al-Helali","licenseNumber":"037585","licenseType":"Mobile Food Establishment","establishmentType":"LHD - Special Transitory Food","establishmentStatus":"Open","riskCategory":null,"reviewFrequencyDays":"335","coords":"-83.06822,42.42435","geojson":{"id":"3325","type":"Feature","geometry":{"type":"Point","coordinates":[-83.06822032,42.424345303]},"properties":{"name":"Fresh Creamer","owner":"Mufaid K. Al-Helali","address":"17853 Conant","zipcode":"48212","license_type":"Mobile Food Establishment","risk_category":null,"license_number":"037585","establishmentid":"3325","establishment_type":"LHD - Special Transitory Food","establishment_status":"Open","review_frequency_days":"335","most_recent_license_date":null}},"nearbyList":[{"establishmentid":"2167","name":"Mister Softy","address":"17853 Conant Ave.","zipcode":"48212"},{"establishmentid":"2180","name":"ICE CREAM LAND","address":"17853 Conant Ave.","zipcode":"48212"},{"establishmentid":"2157","name":"MR SOFTEE - SALEH ICE CREAM","address":"17853 Conant Ave.","zipcode":"48212"},{"establishmentid":"2106","name":"MR FRESH ICE CREAM","address":"17853 Conant Ave.","zipcode":"48212"},{"establishmentid":"2174","name":"SOFT SERVE","address":"17853 Conant Ave.","zipcode":"48212"},{"establishmentid":"2173","name":"ICE CREAM CITY","address":"17853 Conant Ave.","zipcode":"48212"},{"establishmentid":"2105","name":"Mr. Soft Serve","address":"17853 Conant Ave.","zipcode":"48212"},{"establishmentid":"2090","name":"Family Soft Ice Cream","address":"17853 Conant","zipcode":"48212"},{"establishmentid":"2104","name":"MR SOFT SERVE","address":"17853 Conant Ave.","zipcode":"48212"},{"establishmentid":"2181","name":"SOFT SERVE","address":"17853 Conant Ave.","zipcode":"48212"}],"inspectionsByEstablishmentidList":[]}],"maxInspectionDate":[{"inspectionDate":"2023-04-13T00:00:00"}]}},"pageContext":{"eid":"3325"}},"staticQueryHashes":["3649515864","63159454"]}