{"componentChunkName":"component---src-templates-establishment-page-js","path":"/establishment/3512","result":{"data":{"site":{"pathPrefix":"/restaurant-inspections"},"postgres":{"establishment":[{"establishmentid":"3512","name":"The Coffee Cafe","address":"719  Griswold St.","zipcode":"48226","owner":"Stephanie Sorola","licenseNumber":"051192","licenseType":"Mobile Food Establishment","establishmentType":"Food Service Establishment","establishmentStatus":"Open","riskCategory":null,"reviewFrequencyDays":"335","coords":"-83.04799,42.33078","geojson":{"id":"3512","type":"Feature","geometry":{"type":"Point","coordinates":[-83.047985679,42.330782806]},"properties":{"name":"The Coffee Cafe","owner":"Stephanie Sorola","address":"719  Griswold St.","zipcode":"48226","license_type":"Mobile Food Establishment","risk_category":null,"license_number":"051192","establishmentid":"3512","establishment_type":"Food Service Establishment","establishment_status":"Open","review_frequency_days":"335","most_recent_license_date":"29/4/2011"}},"nearbyList":[{"establishmentid":"51622853","name":"Kwench Juice Cafe'","address":"719 Griswold","zipcode":"48226"},{"establishmentid":"51623969","name":"Kwench Juice Cafe","address":"719 Griswold","zipcode":"48226"},{"establishmentid":"4866","name":"Dime Store","address":"719 Griswold","zipcode":"48226"},{"establishmentid":"5039","name":"Mikes Kabob Grille","address":"719 Griswold","zipcode":"48226"},{"establishmentid":"51623631","name":"Kwench Juice","address":"719 Griswold","zipcode":"48226"},{"establishmentid":"51623307","name":"Griswold ","address":"719 Griswold ","zipcode":"48226"},{"establishmentid":"2192","name":"Rio Wraps of Griswold, LLC","address":"719 Griswold","zipcode":"48226"},{"establishmentid":"3767","name":"Birmingham Deli","address":"719 Griswold","zipcode":"48226"},{"establishmentid":"2511","name":"Robinson Dairy Vending","address":"719 Griswold","zipcode":"48226"},{"establishmentid":"2584","name":"Black Gold Coffee","address":"719 Grisworld St.  Ste 110","zipcode":"48226"}],"inspectionsByEstablishmentidList":[]}],"maxInspectionDate":[{"inspectionDate":"2023-04-13T00:00:00"}]}},"pageContext":{"eid":"3512"}},"staticQueryHashes":["3649515864","63159454"]}