{"data":{"postgres":{"establishment":[{"establishmentid":"51622743","name":"Diamond Hospitality LLC","address":"4777 E Outer Drive","zipcode":"48234","owner":null,"licenseNumber":"224701","licenseType":"Fixed Establishment","establishmentType":null,"establishmentStatus":null,"riskCategory":"High","reviewFrequencyDays":"180.0","coords":"-83.01991,42.44227","geojson":{"id":"51622743","type":"Feature","geometry":{"type":"Point","coordinates":[-83.0199059129999,42.4422723000001]},"properties":{"name":"Diamond Hospitality LLC","owner":null,"address":"4777 E Outer Drive","zipcode":"48234","license_type":"Fixed Establishment","risk_category":"High","license_number":"224701","establishmentid":"51622743","establishment_type":null,"establishment_status":null,"review_frequency_days":"180.0","most_recent_license_date":null}},"nearbyList":[{"establishmentid":"564","name":"American Serbian Memorial Hall","address":"19940 Van Dyke Ave","zipcode":"48234"},{"establishmentid":"1657","name":"McDonald's #14217","address":"19840 Van Dyke Ave","zipcode":"48234"},{"establishmentid":"1478","name":"Nortown Dairy Bar","address":"20018 Van Dyke Ave","zipcode":"48234"},{"establishmentid":"5249","name":"Motown Cafe Grill","address":"19638 Van Dyke Street","zipcode":"48234"},{"establishmentid":"1864","name":"Hec's Stables","address":"20005 Van Dyke Ave","zipcode":"48234"},{"establishmentid":"763","name":"Bel Air 10 Theater","address":"10100 E Eight Mile Rd","zipcode":"48234"},{"establishmentid":"51622683","name":"Detroit Grill & Deli","address":"20216 Van Dyke Ave","zipcode":"48234"},{"establishmentid":"1576","name":"Burger King Corp #6796","address":"19901 Van Dyke Ave","zipcode":"48234"},{"establishmentid":"643","name":"UAW Local Union #1700","address":"8230 E Eight Mile Rd","zipcode":"48234"},{"establishmentid":"5335","name":"Great Lakes Fish & Chicken Market","address":"20445 VanDyke St","zipcode":"48234"},{"establishmentid":"51622515","name":"4 of a Kind Catering","address":"19153 Van Dyke Ave","zipcode":"48234"},{"establishmentid":"3620","name":"Captain Jay's Fish & Chicken","address":"19041 Van Dyke Ave","zipcode":"48234"},{"establishmentid":"2250","name":"M. George's Coney Island","address":"7690 E Seven Mile Rd","zipcode":"48234"},{"establishmentid":"1863","name":"New Law Elementary","address":"19411 Cliff","zipcode":"48235"},{"establishmentid":"1142","name":"C Note Lounge","address":"18912 Van Dyke Ave","zipcode":"49234"},{"establishmentid":"2947","name":"Coliseum","address":"11300 E Eight Mile Rd","zipcode":"48205"},{"establishmentid":"531","name":"Wing's Chop Suey","address":"18700 Van Dyke Ave","zipcode":"48234"},{"establishmentid":"5043","name":"Grandys Coney Island","address":"4004 E Outer Dr","zipcode":"48234"},{"establishmentid":"4477","name":"Senior Community Exchange","address":"18341 Van Dyke Ave","zipcode":"48234"},{"establishmentid":"492","name":"Escape Lounge","address":"19404 Sherwood","zipcode":"48234"}],"inspectionsByEstablishmentidList":[{"inspectionid":"43018","inspectionDate":"2018-07-19T00:00:00","inspectionType":"Routine Inspection","inCompliance":"Yes","violationsByInspectionidList":[{"violationCode":"6-301.12","violationDescription":"Each HANDWASHING SINK or group of adjacent HANDWASHING SINKS shall be provided with:\r\n(A) Individual, disposable towels; (Pf)\r\n(B) A continuous towel system that supplies the user with a clean towel;(Pf) or \r\n(C) A heated-air hand drying device.(Pf)\r\n(D) A hand drying device that employs an air-knife system that delivers high velocity pressurized air at ambient temperatures.(Pf)\r\n","violationType":"Foundation","itemDescription":null,"subItem":"","problemDescription":null,"subProblem":"","location":null,"subLocation":"","corrected":"Yes","daysToCorrect":"10.0","correctedDate":"2018-07-19T00:00:00","correctionDescription":null}]}]}]}},"pageContext":{"eid":"51622743"}}