{"componentChunkName":"component---src-templates-establishment-page-js","path":"/establishment/2578","result":{"data":{"site":{"pathPrefix":"/restaurant-inspections"},"postgres":{"establishment":[{"establishmentid":"2578","name":"Expressway Carryout","address":"18320 James Couzens","zipcode":"48235","owner":"George Colley","licenseNumber":"044313","licenseType":"Fixed Establishment","establishmentType":"Food Service Establishment","establishmentStatus":"Open","riskCategory":null,"reviewFrequencyDays":"150","coords":"-83.17987,42.42520","geojson":{"id":"2578","type":"Feature","geometry":{"type":"Point","coordinates":[-83.17986978,42.425200078]},"properties":{"name":"Expressway Carryout","owner":"George Colley","address":"18320 James Couzens","zipcode":"48235","license_type":"Fixed Establishment","risk_category":null,"license_number":"044313","establishmentid":"2578","establishment_type":"Food Service Establishment","establishment_status":"Open","review_frequency_days":"150","most_recent_license_date":"7/20/2009"}},"nearbyList":[{"establishmentid":"3896","name":"Gwen's Express Carry Out","address":"18320 James Couzens","zipcode":"48235"},{"establishmentid":"4497","name":"Wall Street Lounge","address":"18458 James Couzens","zipcode":"48235"},{"establishmentid":"51622659","name":"Wallstreet Lounge","address":"18458 James Couzens","zipcode":"48235"},{"establishmentid":"51622793","name":"Rocky's Road Brew","address":"18626 Hartwell Dr.","zipcode":"48228"},{"establishmentid":"3988","name":"Precise Home Health Care Services, LLC","address":"18940 Schaefer Hwy.","zipcode":"48235"},{"establishmentid":"1248","name":"Hartford Memorial Baptist Church","address":"18700 James Couzens","zipcode":"48235"},{"establishmentid":"3786","name":"Hartford Memorial Baptist Church","address":"18700 James Couzens","zipcode":"48235"},{"establishmentid":"2030","name":"G.O.A.L. Adult Day Care","address":"18960 Schaefer Hwy.","zipcode":"48235"},{"establishmentid":"4761","name":"David Ellis Academy Kindergarten","address":"18962 Schaefer Hwy.","zipcode":"48235"},{"establishmentid":"3558","name":"David Ellis Academy","address":"18977 Schaefer Hwy.","zipcode":"48235"}],"inspectionsByEstablishmentidList":[]}],"maxInspectionDate":[{"inspectionDate":"2022-07-25T00:00:00"}]}},"pageContext":{"eid":"2578"}},"staticQueryHashes":["3649515864","63159454"]}