{"data":{"postgres":{"establishment":[{"establishmentid":"5358","name":"Road Dogz","address":"33221 Somerset St","zipcode":"48312","owner":"Alvin Dillapree/Yvette Dillapr","licenseNumber":"218230","licenseType":"Special Transitory Food Unit","establishmentType":"LHD - Special Transitory Food","establishmentStatus":"Open","riskCategory":null,"reviewFrequencyDays":"365.0","coords":"-83.30079,42.30789","geojson":{"id":"5358","type":"Feature","geometry":{"type":"Point","coordinates":[-83.300793304,42.307887082]},"properties":{"name":"Road Dogz","owner":"Alvin Dillapree/Yvette Dillapr","address":"33221 Somerset St","zipcode":"48312","license_type":"Special Transitory Food Unit","risk_category":null,"license_number":"218230","establishmentid":"5358","establishment_type":"LHD - Special Transitory Food","establishment_status":"Open","review_frequency_days":"365.0","most_recent_license_date":"7/12/2018"}},"nearbyList":[{"establishmentid":"219","name":"American Coney Island, Inc.","address":"115 Michigan Ave","zipcode":"48226"},{"establishmentid":"4319","name":"Bath Tub Pub","address":"125-29 Michigan Ave","zipcode":"48226"},{"establishmentid":"3552","name":"El Bosque Salon","address":"6705 Lafayette Ave W","zipcode":"48209"},{"establishmentid":"473","name":"J.P.'s West","address":"22234 W Warren Ave","zipcode":"48239"},{"establishmentid":"1236","name":"Ann Arbor Trail Magnet School","address":"7635 Chatham St","zipcode":"48228"},{"establishmentid":"1253","name":"Sacred Heart Major Seminary","address":"2701 W Chicago Ave","zipcode":"48206"},{"establishmentid":"542","name":"3 ELEVEN ULTRA LOUNGE","address":"22100 W Warren Ave","zipcode":"48239"},{"establishmentid":"261","name":"Park-Joy Bar","address":"23220 Joy Rd","zipcode":"48239"},{"establishmentid":"3921","name":"Westside Christian Academy","address":"9540 Bramell St","zipcode":"48239"},{"establishmentid":"890","name":"Dixon Educational Learning Center","address":"8401 Trinity St","zipcode":"48228"},{"establishmentid":"4284","name":"Detroit Leadership Academy","address":"5845 Auburn St","zipcode":"48228"},{"establishmentid":"5233","name":"Evergreen Fish Express LLC","address":"6540 Evergreen Rd","zipcode":"48228"},{"establishmentid":"1524","name":"North American Indian Association","address":"22720 Plymouth Rd","zipcode":"48239"},{"establishmentid":"2605","name":"Prince Pizza II","address":"22507 Plymouth Rd","zipcode":"48239"},{"establishmentid":"262","name":"B. M. G. Bar & Grill","address":"20809 Joy Rd","zipcode":"48228"},{"establishmentid":"256","name":"Hurry Inn ","address":"19430-32 W Warren Ave","zipcode":"48228"},{"establishmentid":"3673","name":"Tijuana's Authenic Mexican Kitchen","address":"18940 Ford Rd","zipcode":"48228"},{"establishmentid":"51622861","name":"Little Pizza","address":"19240 W Warren Ave","zipcode":"48228"},{"establishmentid":"1510","name":"New Taystee's Pizza","address":"19240 W Warren Ave","zipcode":"48228"},{"establishmentid":"1121","name":"Club 228","address":"18728 Ford Rd","zipcode":"48228"}],"inspectionsByEstablishmentidList":[]}]}},"pageContext":{"eid":"5358"}}