{"componentChunkName":"component---src-templates-establishment-page-js","path":"/establishment/51623906","result":{"data":{"site":{"pathPrefix":"/restaurant-inspections"},"postgres":{"establishment":[{"establishmentid":"51623906","name":"Hala Restaurant Inc. dba Sylhet Cafe","address":"12900 Joseph Campau","zipcode":"48210","owner":"Akm Rahman","licenseNumber":"350241","licenseType":"Fixed Establishment","establishmentType":"Food Service Establishment","establishmentStatus":"Open","riskCategory":null,"reviewFrequencyDays":"150","coords":"-83.06623,42.40986","geojson":{"id":"51623906","type":"Feature","geometry":{"type":"Point","coordinates":[-83.066234204,42.409861563]},"properties":{"name":"Hala Restaurant Inc. dba Sylhet Cafe","owner":"Akm Rahman","address":"12900 Joseph Campau","zipcode":"48210","license_type":"Fixed Establishment","risk_category":null,"license_number":"350241","establishmentid":"51623906","establishment_type":"Food Service Establishment","establishment_status":"Open","review_frequency_days":"150","most_recent_license_date":null}},"nearbyList":[{"establishmentid":"516","name":"Witchcraft Krakus Bar & Restaurant","address":"12900 Joseph Campau","zipcode":"48212"},{"establishmentid":"914","name":"Davison Elementary Annex","address":"13210 Maine St.","zipcode":"48238"},{"establishmentid":"913","name":"Davison Elementary","address":"2800 Davison Ave. E.","zipcode":"48212"},{"establishmentid":"51623771","name":"Obama Ice Cream","address":"2426 Burnside","zipcode":"48212"},{"establishmentid":"4402","name":"Bridge Academy West","address":"3105 Carpenter St.","zipcode":"48212"},{"establishmentid":"2098","name":"Delightful Treats","address":"13550 Anglin","zipcode":"48212"},{"establishmentid":"51623762","name":"The Best American Ice Cream ","address":"2062 Cody St ","zipcode":"48212"},{"establishmentid":"1594","name":"ALBA'S CONEY ISLAND INC","address":"3639 DAVISON E.","zipcode":"48212"},{"establishmentid":"51623776","name":"Coney Star","address":"13347 Conant","zipcode":"48212"},{"establishmentid":"310","name":"Peace Baptist Church","address":"13450 Goddard","zipcode":"48212"}],"inspectionsByEstablishmentidList":[]}],"maxInspectionDate":[{"inspectionDate":"2023-04-25T00:00:00"}]}},"pageContext":{"eid":"51623906"}},"staticQueryHashes":["3649515864","63159454"]}