{"componentChunkName":"component---src-templates-establishment-page-js","path":"/establishment/51623479","result":{"data":{"site":{"pathPrefix":"/restaurant-inspections"},"postgres":{"establishment":[{"establishmentid":"51623479","name":"Sterlings BBQ LLC","address":"11310 Warwick","zipcode":"48228","owner":"Sterlings BBQ LLC","licenseNumber":"255933","licenseType":"Special Transitory Food Unit","establishmentType":"LHD - Special Transitory Food","establishmentStatus":"Plan Review","riskCategory":null,"reviewFrequencyDays":null,"coords":"-83.22736,42.36989","geojson":{"id":"51623479","type":"Feature","geometry":{"type":"Point","coordinates":[-83.227360531,42.36989261]},"properties":{"name":"Sterlings BBQ LLC","owner":"Sterlings BBQ LLC","address":"11310 Warwick","zipcode":"48228","license_type":"Special Transitory Food Unit","risk_category":null,"license_number":"255933","establishmentid":"51623479","establishment_type":"LHD - Special Transitory Food","establishment_status":"Plan Review","review_frequency_days":null,"most_recent_license_date":null}},"nearbyList":[{"establishmentid":"2525","name":"Koolies","address":"11450 Warwick","zipcode":"48228"},{"establishmentid":"51623585","name":"Red Tent BBQ and Rhythm","address":"9929 Brace St.","zipcode":"48228"},{"establishmentid":"51623396","name":"C Ruff's International Cuisine","address":"19551 Plymouth ","zipcode":"48228"},{"establishmentid":"51622735","name":"The Custard Hut","address":"18435 Plymouth","zipcode":"48228"},{"establishmentid":"2457","name":"Pizza Hut #26322","address":"18435 Plymouth Rd.","zipcode":"48228"},{"establishmentid":"51623842","name":"KIPP Imani Academy ","address":"19321  W. Chicago ","zipcode":"48228"},{"establishmentid":"4816","name":"WAY Academy West Campus","address":"19321 Chicago W.","zipcode":"48228"},{"establishmentid":"51623501","name":"Sisters on a Roll","address":"19321 Chicago W.","zipcode":"48228"},{"establishmentid":"455","name":"Starters Lounge","address":"18426 Plymouth Rd.","zipcode":"48228"},{"establishmentid":"1898","name":"Silver Plate Coney Island","address":"18400 Plymouth Rd.","zipcode":"48228"}],"inspectionsByEstablishmentidList":[{"inspectionid":"55569","inspectionDate":"2021-08-12T00:00:00","inspectionType":"Preopening/New","inCompliance":"Yes","violationsByInspectionidList":[]}]}],"maxInspectionDate":[{"inspectionDate":"2023-04-13T00:00:00"}]}},"pageContext":{"eid":"51623479"}},"staticQueryHashes":["3649515864","63159454"]}