{"componentChunkName":"component---src-templates-establishment-page-js","path":"/establishment/51623703","result":{"data":{"site":{"pathPrefix":"/restaurant-inspections"},"postgres":{"establishment":[{"establishmentid":"51623703","name":"A.J. Authentic Jamaican Co.  (Oakland) ","address":"400 Renaissance Center","zipcode":null,"owner":"Antionette Goodman","licenseNumber":"3234855","licenseType":"Special Transitory Food Unit","establishmentType":null,"establishmentStatus":null,"riskCategory":null,"reviewFrequencyDays":null,"coords":"-83.04072,42.32982","geojson":{"id":"51623703","type":"Feature","geometry":{"type":"Point","coordinates":[-83.04071807,42.32982254]},"properties":{"name":"A.J. Authentic Jamaican Co.  (Oakland) ","owner":"Antionette Goodman","address":"400 Renaissance Center","zipcode":null,"license_type":"Special Transitory Food Unit","risk_category":null,"license_number":"3234855","establishmentid":"51623703","establishment_type":null,"establishment_status":null,"review_frequency_days":null,"most_recent_license_date":null}},"nearbyList":[{"establishmentid":"3240","name":"Potbelly Sandwich Shop","address":"400 Renaissance Ctr. Ste. 1304","zipcode":"48226"},{"establishmentid":"1420","name":"McDonald's Ren-Joi, Inc.","address":"200 Renaissance Center","zipcode":"48243"},{"establishmentid":"2114","name":"Sodexho Management","address":"200 Rennaissance Center","zipcode":"48243"},{"establishmentid":"2008","name":"Ren Cen Subway Foods LLC","address":"200 Renaissnace Center","zipcode":"48243"},{"establishmentid":"1151","name":"Gyroland, L.L.C.","address":"200 Renaissnace Center","zipcode":"48243"},{"establishmentid":"1359","name":"Burger King Corp #13332","address":"200 Renaissance Center A-1042","zipcode":"48243"},{"establishmentid":"1860","name":"That Sandwich Place","address":"200 Rennaissanc Center A-8320","zipcode":"48243"},{"establishmentid":"1135","name":"Detroit Marriott Main Kitchen Hotel","address":"400 Rennaissance Center","zipcode":"48243"},{"establishmentid":"1156","name":"Renaissance Club","address":"200 Renaissance Center A-3600","zipcode":"48243"},{"establishmentid":"3241","name":"Maui Wowi","address":"400 Renaissance","zipcode":"48226"}],"inspectionsByEstablishmentidList":[]}],"maxInspectionDate":[{"inspectionDate":"2023-04-13T00:00:00"}]}},"pageContext":{"eid":"51623703"}},"staticQueryHashes":["3649515864","63159454"]}