{"componentChunkName":"component---src-templates-establishment-page-js","path":"/establishment/226","result":{"data":{"site":{"pathPrefix":"/restaurant-inspections"},"postgres":{"establishment":[{"establishmentid":"226","name":"Olympic Coney Island","address":"17017 Warren Ave E.","zipcode":"48224","owner":"Pjeter Gjokaj","licenseNumber":"033853","licenseType":"Fixed Establishment","establishmentType":"Food Service Establishment","establishmentStatus":"Open","riskCategory":null,"reviewFrequencyDays":"150","coords":"-82.93099,42.40598","geojson":{"id":"226","type":"Feature","geometry":{"type":"Point","coordinates":[-82.930985387,42.405984824]},"properties":{"name":"Olympic Coney Island","owner":"Pjeter Gjokaj","address":"17017 Warren Ave E.","zipcode":"48224","license_type":"Fixed Establishment","risk_category":null,"license_number":"033853","establishmentid":"226","establishment_type":"Food Service Establishment","establishment_status":"Open","review_frequency_days":"150","most_recent_license_date":"2006-12-04"}},"nearbyList":[{"establishmentid":"5172","name":"Danny's Diner","address":"17017 Warren E.","zipcode":"48224"},{"establishmentid":"51622784","name":"York Sussex Partners","address":"17017 E. Warren","zipcode":"48224"},{"establishmentid":"3519","name":"Four Brothers Restaurant","address":"17017 Warren Ave. E. ","zipcode":"48224"},{"establishmentid":"1982","name":"Dragon Star All Meat Halal","address":"17022 Warren Ave. W.","zipcode":"48228"},{"establishmentid":"4983","name":"Iraqi Bakery and Carry Out","address":"17022 Warren W.","zipcode":"48228"},{"establishmentid":"4493","name":"New Akashi Restaurant","address":"17022 Warren W.","zipcode":"48228"},{"establishmentid":"418","name":"East English Village Bar & Grill","address":"16915 Warren Ave. E.","zipcode":"48224"},{"establishmentid":"3492","name":"Brad's Hot Dogs","address":"16915 E. Warren Ave.","zipcode":"48224"},{"establishmentid":"421","name":"Blue Pointe","address":"17131 Warren Ave. E.","zipcode":"48224"},{"establishmentid":"2466","name":"Pizza Hut #26290","address":"16835 Warren Ave. E.","zipcode":"48224"}],"inspectionsByEstablishmentidList":[]}],"maxInspectionDate":[{"inspectionDate":"2023-04-25T00:00:00"}]}},"pageContext":{"eid":"226"}},"staticQueryHashes":["3649515864","63159454"]}