{"data":{"postgres":{"establishment":[{"establishmentid":"880","name":"U of Detroit Mercy- Calihan Hall","address":"4001 W McNichols Rd","zipcode":"48221","owner":"University of Detroit Mercy","licenseNumber":"056875","licenseType":"Fixed Establishment","establishmentType":"Food Service Establishment","establishmentStatus":"Open","riskCategory":"High","reviewFrequencyDays":"365.0","coords":"-83.13708,42.41295","geojson":{"id":"880","type":"Feature","geometry":{"type":"Point","coordinates":[-83.137082725,42.412946784]},"properties":{"name":"U of Detroit Mercy- Calihan Hall","owner":"University of Detroit Mercy","address":"4001 W McNichols Rd","zipcode":"48221","license_type":"Fixed Establishment","risk_category":"High","license_number":"056875","establishmentid":"880","establishment_type":"Food Service Establishment","establishment_status":"Open","review_frequency_days":"365.0","most_recent_license_date":"5/7/2018"}},"nearbyList":[{"establishmentid":"5164","name":"Burger King","address":"16245 Livernois Ave","zipcode":"48221"},{"establishmentid":"1023","name":"U Of D Coney Island #1","address":"16126 Livernois Ave","zipcode":"48221"},{"establishmentid":"1144","name":"Church's Fried Chicken #785","address":"16100 Livernois Ave","zipcode":"48221"},{"establishmentid":"5306","name":"Livernois Ocean Delight Inc","address":"16817 Livernois Ave","zipcode":"48221"},{"establishmentid":"1547","name":"Gesu Elementary","address":"17139 Oak Dr","zipcode":"48221"},{"establishmentid":"1674","name":"Nicky D's Coney Island","address":"16953 Livernois Ave","zipcode":"48221"},{"establishmentid":"51622638","name":"Jam Jomar XXV II (McDonalds)","address":"17121 Livernois #10902","zipcode":"48221"},{"establishmentid":"1490","name":"McDonald's #10902","address":"17121 Livernois Ave","zipcode":"48221"},{"establishmentid":"331","name":"Gregg's Pizza BBQ","address":"17160 Livernois Ave","zipcode":"48221"},{"establishmentid":"1528","name":"Little Caesar's Pizza #167","address":"17200 Livernois Ave","zipcode":"48221"},{"establishmentid":"3986","name":"Captain Jay's Fish & Chicken #111","address":"17171 Livernois Ave","zipcode":"48221"},{"establishmentid":"1556","name":"Uptown Bar B Que","address":"15700 Livernois Ave","zipcode":"48238"},{"establishmentid":"4903","name":"Babyback's Open Pit","address":"17310 Livernois Ave","zipcode":"48221"},{"establishmentid":"5350","name":"Detroit Sip, LLC","address":"7420 W McNichols Rd","zipcode":"48221"},{"establishmentid":"1119","name":"Paul Roberson/ Malcolm X. Academy","address":"2585 Grove St","zipcode":"48221"},{"establishmentid":"1894","name":"Thurgood Marshall Elementary","address":"15531 Linwood","zipcode":"48238"},{"establishmentid":"3478","name":"Joy Preparatory Academy - Dexter Campus","address":"15055 Dexter Ave","zipcode":"48238"},{"establishmentid":"5251","name":"Livernois Fresh Fish","address":"18280 Livernois Ave","zipcode":"48221"},{"establishmentid":"1168","name":"Locker Room Lounge","address":"18290 Livernois Ave","zipcode":"48221"},{"establishmentid":"1174","name":"Palmer Park Preparatory Academy","address":"3901 Margareta","zipcode":"48221"}],"inspectionsByEstablishmentidList":[{"inspectionid":"44787","inspectionDate":"2019-01-07T00:00:00","inspectionType":"Routine Inspection","inCompliance":"Yes","violationsByInspectionidList":[{"violationCode":"2-102.11","violationDescription":"The PERSON IN CHARGE shall demonstrate this knowledge by compliance with this Code, by being a certified FOOD protection manager who has shown proficiency of required information through passing a test that is part of an ACCREDITED PROGRAM, or by responding correctly to the inspector's questions as they relate to the specific FOOD operation. (Pf)","violationType":"Foundation","itemDescription":"Person-in-charge","subItem":"","problemDescription":"Does not demonstrate required knowledge","subProblem":"","location":"RESTAURANT","subLocation":"Throughout Facility","corrected":"Yes","daysToCorrect":"10.0","correctedDate":"2019-02-04T00:00:00","correctionDescription":"Knowledge is to be obtained through an approved training program."}]},{"inspectionid":"40513","inspectionDate":"2017-10-20T00:00:00","inspectionType":"Routine Inspection","inCompliance":"Yes","violationsByInspectionidList":[]},{"inspectionid":"36427","inspectionDate":"2016-09-13T00:00:00","inspectionType":"Routine Inspection","inCompliance":"Yes","violationsByInspectionidList":[]}]}]}},"pageContext":{"eid":"880"}}