{"data":{"postgres":{"establishment":[{"establishmentid":"4848","name":"Subway","address":"6166 Vernor Hwy","zipcode":"48209","owner":"Dortch Enterprises LLC","licenseNumber":"078352","licenseType":"Fixed Establishment","establishmentType":"Food Service Establishment","establishmentStatus":"Permanently Closed","riskCategory":"Medium","reviewFrequencyDays":"365.0","coords":"-83.10799,42.31575","geojson":{"id":"4848","type":"Feature","geometry":{"type":"Point","coordinates":[-83.107991447,42.3157469430001]},"properties":{"name":"Subway","owner":"Dortch Enterprises LLC","address":"6166 Vernor Hwy","zipcode":"48209","license_type":"Fixed Establishment","risk_category":"Medium","license_number":"078352","establishmentid":"4848","establishment_type":"Food Service Establishment","establishment_status":"Permanently Closed","review_frequency_days":"365.0","most_recent_license_date":null}},"nearbyList":[{"establishmentid":"51622836","name":"Burger King #1190","address":"6251 W Vernor Highway","zipcode":"48209"},{"establishmentid":"3143","name":"Tacos El Taquito Mexican Food","address":"1985 Military St","zipcode":"48209"},{"establishmentid":"5375","name":"Checker's Drive Inn ","address":"6060 W Vernor Hwy","zipcode":"48209"},{"establishmentid":"931","name":"Neinas Elementary","address":"6021 McMillan","zipcode":"48209"},{"establishmentid":"5070","name":"Mi Lindo Sanblas","address":"1807 Livernois","zipcode":"48209"},{"establishmentid":"4342","name":"El Taco Veloz","address":"6170 Toledo","zipcode":"48209"},{"establishmentid":"4613","name":"El Taco Veloz #1","address":"6170 Toledo","zipcode":"48209"},{"establishmentid":"4668","name":"El Taco Veloz #2","address":"6170 Toledo","zipcode":"48209"},{"establishmentid":"5104","name":"Bella's Coffee House ","address":"2303 Campbell St","zipcode":"48209"},{"establishmentid":"1052","name":"Blue Diamond","address":"2453 Campbell St N","zipcode":"48209"},{"establishmentid":"4311","name":"Holy Redeemer Church","address":"1721 Junction","zipcode":"48209"},{"establishmentid":"3647","name":"Pollo Chapin","address":"2054 Junction Ave","zipcode":"48209"},{"establishmentid":"1525","name":"Holy Redeemer Grade School","address":"1711 Junction Ave","zipcode":"48209"},{"establishmentid":"3095","name":"Los Corrales","address":"2244 Junction Ave","zipcode":"48209"},{"establishmentid":"1650","name":"Dino's Cafe Inc.","address":"1601 Waterman St","zipcode":"48209"},{"establishmentid":"4280","name":"El Durango Bar","address":"2508-10 Junction","zipcode":"48209"},{"establishmentid":"2343","name":"Cesar Chavez Academy High School","address":"1761 Waterman","zipcode":"48209"},{"establishmentid":"4662","name":"Tacos Morelotes","address":"1494 Junction Ave","zipcode":"48209"},{"establishmentid":"3304","name":"Cesar Chavez Middle School","address":"6782 Goldsmith St","zipcode":"48209"},{"establishmentid":"51622712","name":"Tacos Regios Mexican Grill","address":"2257 Waterman St","zipcode":"48209"}],"inspectionsByEstablishmentidList":[{"inspectionid":"38587","inspectionDate":"2017-04-25T00:00:00","inspectionType":"Routine Inspection","inCompliance":"Yes","violationsByInspectionidList":[{"violationCode":"3-501.18","violationDescription":"A FOOD specified in ¶ 3-501.17(A) or (B) shall be discarded if it:  \r\n    (1) Exceeds the temperature and time combination specified in ¶ 3-501.17(A),              except time that the product is frozen; (P)\r\n    (2) Is in a container or PACKAGE that does not bear a date or day; (P) or\r\n    (3) Is appropriately marked with a date or day that exceeds a temperature and              time combination as specified in ¶ 3-501.17(A). (P)  \r\n\r\n","violationType":"Priority","itemDescription":null,"subItem":"","problemDescription":null,"subProblem":"","location":"KITCHEN","subLocation":"","corrected":"Yes","daysToCorrect":"10.0","correctedDate":"2017-04-25T00:00:00","correctionDescription":null}]}]}]}},"pageContext":{"eid":"4848"}}