{"componentChunkName":"component---src-templates-establishment-page-js","path":"/establishment/3731","result":{"data":{"site":{"pathPrefix":"/restaurant-inspections"},"postgres":{"establishment":[{"establishmentid":"3731","name":"Taste of Ethiopia","address":"2453 Russell St.","zipcode":"48207","owner":"Meskerem G-Yohannes","licenseNumber":"061799","licenseType":"Fixed Establishment","establishmentType":"Food Service Establishment","establishmentStatus":"Open","riskCategory":null,"reviewFrequencyDays":"150","coords":"-83.04025,42.34538","geojson":{"id":"3731","type":"Feature","geometry":{"type":"Point","coordinates":[-83.040253366,42.345384723]},"properties":{"name":"Taste of Ethiopia","owner":"Meskerem G-Yohannes","address":"2453 Russell St.","zipcode":"48207","license_type":"Fixed Establishment","risk_category":null,"license_number":"061799","establishmentid":"3731","establishment_type":"Food Service Establishment","establishment_status":"Open","review_frequency_days":"150","most_recent_license_date":"2012-04-17"}},"nearbyList":[{"establishmentid":"1384","name":"Russell Street Deli","address":"2465 Russell St.","zipcode":"48207"},{"establishmentid":"5159","name":"La Rondinella","address":"2453 Russell St.","zipcode":"48207"},{"establishmentid":"647","name":"Zeff's Coney Island","address":"2469 Russell St.","zipcode":"48207"},{"establishmentid":"2686","name":"Rivertown Bagel & Deli","address":"2453 Russell","zipcode":"48207"},{"establishmentid":"1662","name":"Supino Pizzeria","address":"2457 Russell St.","zipcode":"48207"},{"establishmentid":"4180","name":"Mootown Ice Cream Shoppe","address":"2461 Russell St.","zipcode":"48207"},{"establishmentid":"51623590","name":"Beyond Juicery & Eatery","address":"2501 Russell","zipcode":"48207"},{"establishmentid":"5212","name":"Beyond Juicery & Eatery","address":"2501 Russell St.","zipcode":"48207"},{"establishmentid":"4719","name":"Piazza Ristorante ","address":"2501  Russell St.","zipcode":"48207"},{"establishmentid":"51623117","name":"Jose Taco's #2 Eastern Market","address":"2510 Market St. ","zipcode":"48207"}],"inspectionsByEstablishmentidList":[]}],"maxInspectionDate":[{"inspectionDate":"2023-04-25T00:00:00"}]}},"pageContext":{"eid":"3731"}},"staticQueryHashes":["3649515864","63159454"]}