{"componentChunkName":"component---src-templates-establishment-page-js","path":"/establishment/4056","result":{"data":{"site":{"pathPrefix":"/restaurant-inspections"},"postgres":{"establishment":[{"establishmentid":"4056","name":"Detroit Soft Serve","address":"4068 Georgia","zipcode":"48211","owner":"Saleh Saleh","licenseNumber":"037590","licenseType":"Mobile Food Establishment","establishmentType":"LHD - Mobile Food Establishmen","establishmentStatus":"Seasonal","riskCategory":null,"reviewFrequencyDays":null,"coords":"-83.04106,42.39295","geojson":{"id":"4056","type":"Feature","geometry":{"type":"Point","coordinates":[-83.041056137,42.392945773]},"properties":{"name":"Detroit Soft Serve","owner":"Saleh Saleh","address":"4068 Georgia","zipcode":"48211","license_type":"Mobile Food Establishment","risk_category":null,"license_number":"037590","establishmentid":"4056","establishment_type":"LHD - Mobile Food Establishmen","establishment_status":"Seasonal","review_frequency_days":null,"most_recent_license_date":null}},"nearbyList":[{"establishmentid":"3105","name":"Motor City Soft Serve","address":"4068 Georgia","zipcode":"48212"},{"establishmentid":"3843","name":"Detroit Soft Serve","address":"4068       Georgia","zipcode":"48211"},{"establishmentid":"2178","name":"Iceberg","address":"4068 Georgia","zipcode":"48211"},{"establishmentid":"3873","name":"Mr. Softy Detroit","address":"4038 Georgia","zipcode":"48211"},{"establishmentid":"4810","name":"U.S.A Ice Cream","address":"4069 Dodge St.","zipcode":"48211"},{"establishmentid":"4893","name":"Detroit Softy","address":"4112 Oliver","zipcode":"48211"},{"establishmentid":"5343","name":"Oakland International Academy","address":"4001 Miller","zipcode":"48212"},{"establishmentid":"3293","name":"Fresh Land","address":"6148  Georgia","zipcode":"48211"},{"establishmentid":"5219","name":"Mr. Blizzard","address":"6148 Georgia","zipcode":"48211"},{"establishmentid":"3938","name":"Happy Kids","address":"6148  Georgia","zipcode":"48211"}],"inspectionsByEstablishmentidList":[]}],"maxInspectionDate":[{"inspectionDate":"2023-04-25T00:00:00"}]}},"pageContext":{"eid":"4056"}},"staticQueryHashes":["3649515864","63159454"]}