{"data":{"site":{"pathPrefix":"/restaurant-inspections"},"postgres":{"establishment":[{"establishmentid":"672","name":"Shelly's Smoking Sausage","address":"2727-31 Russell","zipcode":"48207","owner":"Shelly L. Shepherd","licenseNumber":"034611","licenseType":"Mobile Food Establishment","establishmentType":"LHD - Mobile Food Establishmen","establishmentStatus":"Open","riskCategory":null,"reviewFrequencyDays":"395.0","coords":"-83.25211,42.46049","geojson":{"id":"672","type":"Feature","geometry":{"type":"Point","coordinates":[-83.252113293,42.4604867290001]},"properties":{"name":"Shelly's Smoking Sausage","owner":"Shelly L. Shepherd","address":"2727-31 Russell","zipcode":"48207","license_type":"Mobile Food Establishment","risk_category":null,"license_number":"034611","establishmentid":"672","establishment_type":"LHD - Mobile Food Establishmen","establishment_status":"Open","review_frequency_days":"395.0","most_recent_license_date":"5/18/2018"}},"nearbyList":[{"establishmentid":"415","name":"Popeye's Lousiana Kitchen","address":"20919 W Eight Mile Rd","zipcode":"48219"},{"establishmentid":"51622605","name":"Asian Corn Beef","address":"21639 W Eight Mile Rd","zipcode":"48219"},{"establishmentid":"688","name":"Trumpp's","address":"21413 W Eight Mile Rd","zipcode":"48219"},{"establishmentid":"2775","name":"Penthouse","address":"20771 W Eight Mile Rd","zipcode":"48219"},{"establishmentid":"518","name":"Friends Cocktail Lounge","address":"21633 W Eight Mile Rd","zipcode":"48219"},{"establishmentid":"1003","name":"T & J Coney Island","address":"20601 W Eight Mile Rd","zipcode":"48219"},{"establishmentid":"2722","name":"Nu Wave Fish & Chicken","address":"21729 W Eight Mile Rd","zipcode":"48219"},{"establishmentid":"1739","name":"Tubby's Submarine #121","address":"20325 W Eight Mile Rd","zipcode":"48219"},{"establishmentid":"724","name":"McDonald's #24733","address":"22021 W Eight Mile Rd","zipcode":"48219"},{"establishmentid":"2816","name":"J J's Fish and Chicken","address":"20225 W Eight Mile Rd","zipcode":"48219"},{"establishmentid":"754","name":"Northland Roller Rink","address":"22311 W Eight Mile Rd","zipcode":"48219"},{"establishmentid":"2355","name":"Nicky D's","address":"20001 W Eight Mile Rd","zipcode":"48219"},{"establishmentid":"2717","name":"Checkers ","address":"19801 W Eight Mile Rd","zipcode":"48219"},{"establishmentid":"1504","name":"Omega Coney Island ","address":"22501 W Eight Mile Rd","zipcode":"48219"},{"establishmentid":"867","name":"Henry Ford High School","address":"20000 Evergreen Rd","zipcode":"48219"},{"establishmentid":"2455","name":"Ace of Spades","address":"19245 W Eight Mile Rd","zipcode":"48219"},{"establishmentid":"1169","name":"Madison Carver Academy","address":"19900 McIntyre ","zipcode":"48219"},{"establishmentid":"4423","name":"AVI- Children's Center of Wayne County","address":"19900 Evergreen Rd","zipcode":"48216"},{"establishmentid":"451","name":"Weston Preparatory Academy","address":"22930 Chippewa","zipcode":"48219"},{"establishmentid":"3823","name":"Tasty Dawg","address":"22623 Frisbee St","zipcode":"48219"}],"inspectionsByEstablishmentidList":[{"inspectionid":"42332","inspectionDate":"2018-05-25T00:00:00","inspectionType":"Mobile Inspection","inCompliance":"Yes","violationsByInspectionidList":[]},{"inspectionid":"38699","inspectionDate":"2017-05-12T00:00:00","inspectionType":"Mobile Inspection","inCompliance":"Yes","violationsByInspectionidList":[]}]}]}},"pageContext":{"eid":"672"}}