{"componentChunkName":"component---src-templates-establishment-page-js","path":"/establishment/51623910","result":{"data":{"site":{"pathPrefix":"/restaurant-inspections"},"postgres":{"establishment":[{"establishmentid":"51623910","name":"Sno Biz Detroit","address":"8900 Jefferson E.","zipcode":"48214","owner":"Mickey Ellis","licenseNumber":"PR21075D","licenseType":"Special Transitory Food Unit","establishmentType":"LHD - Special Transitory Food","establishmentStatus":"Plan Review","riskCategory":null,"reviewFrequencyDays":"150","coords":"-82.98440,42.35414","geojson":{"id":"51623910","type":"Feature","geometry":{"type":"Point","coordinates":[-82.984395663,42.354143715]},"properties":{"name":"Sno Biz Detroit","owner":"Mickey Ellis","address":"8900 Jefferson E.","zipcode":"48214","license_type":"Special Transitory Food Unit","risk_category":null,"license_number":"PR21075D","establishmentid":"51623910","establishment_type":"LHD - Special Transitory Food","establishment_status":"Plan Review","review_frequency_days":"150","most_recent_license_date":null}},"nearbyList":[{"establishmentid":"3287","name":"Snacks Galore","address":"8900 Jefferson E.","zipcode":"48207"},{"establishmentid":"51623309","name":"Sno Biz Detroit (Wayne County)","address":"8900 E. Jefferson ","zipcode":"48214"},{"establishmentid":"51622587","name":"The River House Chicken & Waffles","address":"8900 E. Jefferson Ave.","zipcode":"48214"},{"establishmentid":"3307","name":"Rumors on the River","address":"8900  Jefferson Ave. E.","zipcode":"48214"},{"establishmentid":"51623488","name":"Sno Biz Detroit (Oakland)","address":"8900 Jefferson E. Unit 521","zipcode":"48214"},{"establishmentid":"51623862","name":"Krunchy'z Fish & Chicken","address":"8935 Jefferson","zipcode":"48214"},{"establishmentid":"1651","name":"De Angelo's Pizza","address":"8935 Jefferson Ave. E.","zipcode":"48214"},{"establishmentid":"2370","name":"McDonald's #2285","address":"8825 Jefferson Ave. E.","zipcode":"48214"},{"establishmentid":"51623294","name":"McDonalds ","address":"8825 E. Jefferson ","zipcode":"48214"},{"establishmentid":"51622758","name":"IVY Kitchen + Cocktails","address":"9215 Jefferson E","zipcode":"48214"}],"inspectionsByEstablishmentidList":[]}],"maxInspectionDate":[{"inspectionDate":"2023-04-25T00:00:00"}]}},"pageContext":{"eid":"51623910"}},"staticQueryHashes":["3649515864","63159454"]}