{"data":{"site":{"pathPrefix":"/restaurant-inspections"},"postgres":{"establishment":[{"establishmentid":"3708","name":"Freeze Shop","address":"13590 Glastonbury","zipcode":"48223","owner":"Jacqueline & Emmett Johnson","licenseNumber":"038171","licenseType":"Special Transitory Food Unit","establishmentType":"LHD - Special Transitory Food","establishmentStatus":"Open","riskCategory":null,"reviewFrequencyDays":"390.0","coords":"-83.22444,42.38555","geojson":{"id":"3708","type":"Feature","geometry":{"type":"Point","coordinates":[-83.224439361,42.3855541350001]},"properties":{"name":"Freeze Shop","owner":"Jacqueline & Emmett Johnson","address":"13590 Glastonbury","zipcode":"48223","license_type":"Special Transitory Food Unit","risk_category":null,"license_number":"038171","establishmentid":"3708","establishment_type":"LHD - Special Transitory Food","establishment_status":"Open","review_frequency_days":"390.0","most_recent_license_date":"5/13/2013"}},"nearbyList":[{"establishmentid":"4288","name":"Yusef's Place 2","address":"18516 Schoolcraft","zipcode":"48223"},{"establishmentid":"4309","name":"Pinky's Shuga Shack","address":"18929 Schoolcraft Rd","zipcode":"48223"},{"establishmentid":"2735","name":"Vickie's Bar & Grill","address":"19205 Schoolcraft Rd","zipcode":"48223"},{"establishmentid":"4086","name":"Chevelle's Bar & Grill","address":"19339 Schoolcraft Rd","zipcode":"48223"},{"establishmentid":"351","name":"Haydays/Four Winds Bar","address":"19338 Schoolcraft Rd","zipcode":"48223"},{"establishmentid":"300","name":"Billy's Coney Island","address":"19441 Schoolcraft Rd","zipcode":"48223"},{"establishmentid":"51622684","name":"Fun on the Run Soul Food Catering","address":"19841 Schoolcraft Rd","zipcode":"48223"},{"establishmentid":"362","name":"Sonny's Hamburgers","address":"20001 Schoolcraft Rd","zipcode":"48223"},{"establishmentid":"455","name":"Starters Lounge","address":"18426 Plymouth Rd","zipcode":"48228"},{"establishmentid":"1308","name":"Detroit Roller Wheels","address":"16611 Schoolcraft Rd","zipcode":"48227"},{"establishmentid":"1127","name":"Dossin Elementary","address":"16650 Glendale","zipcode":"48227"},{"establishmentid":"51622735","name":"The Custard Hut","address":"18435 Plymouth Rd","zipcode":"48228"},{"establishmentid":"4986","name":"Sterling's Old Style BBQ","address":"18241 Plymouth Rd","zipcode":"48228"},{"establishmentid":"4416","name":"Detroit Innovation Academy","address":"18211 Plymouth Road","zipcode":"48228"},{"establishmentid":"5420","name":"La Kabob Grill ","address":"18616 Fenkell","zipcode":"48223"},{"establishmentid":"1222","name":"Edison Elementary School","address":"17045 Grand River Ave","zipcode":"48227"},{"establishmentid":"5417","name":"Brooklyn Fish and Chicken","address":"18354 Fenkell Ave","zipcode":"48223"},{"establishmentid":"1562","name":"Panda Chinese Restaurant","address":"18614 Fenkell Ave","zipcode":"48223"},{"establishmentid":"2413","name":"White Castle #58","address":"17739 Grand River Ave","zipcode":"48227"},{"establishmentid":"4823","name":"City Covenant Church","address":"13624 Stout","zipcode":"48223"}],"inspectionsByEstablishmentidList":[]}]}},"pageContext":{"eid":"3708"}}