{"componentChunkName":"component---src-templates-establishment-page-js","path":"/establishment/51623744","result":{"data":{"site":{"pathPrefix":"/restaurant-inspections"},"postgres":{"establishment":[{"establishmentid":"51623744","name":"What's the Dill","address":"4088 McNichols W.","zipcode":"48221","owner":"Leona Gist","licenseNumber":"350036","licenseType":"Fixed Establishment","establishmentType":"Food Service Establishment","establishmentStatus":"Open","riskCategory":"Low","reviewFrequencyDays":"150","coords":"-83.13965,42.41729","geojson":{"id":"51623744","type":"Feature","geometry":{"type":"Point","coordinates":[-83.139645219,42.417291801]},"properties":{"name":"What's the Dill","owner":"Leona Gist","address":"4088 McNichols W.","zipcode":"48221","license_type":"Fixed Establishment","risk_category":"Low","license_number":"350036","establishmentid":"51623744","establishment_type":"Food Service Establishment","establishment_status":"Open","review_frequency_days":"150","most_recent_license_date":null}},"nearbyList":[{"establishmentid":"5382","name":"The Mason Jar","address":"4088 W. McNichols","zipcode":null},{"establishmentid":"331","name":"Gregg's Pizza BBQ","address":"17160 Livernois Ave.","zipcode":"48221"},{"establishmentid":"1547","name":"Gesu Elementary","address":"17139 Oak Dr.","zipcode":"48221"},{"establishmentid":"1674","name":"Nicky D's Coney Island","address":"16953 Livernois Ave.","zipcode":"48221"},{"establishmentid":"1528","name":"Little Caesar's Pizza #167","address":"17200 Livernois Ave.","zipcode":"48221"},{"establishmentid":"2470","name":"Daniels Soul Food Deli","address":"17149 Livernois","zipcode":"48221"},{"establishmentid":"3986","name":"Captain Jay's Fish & Chicken #111","address":"17171 Livernois Ave.","zipcode":"48221"},{"establishmentid":"670","name":"Miley & Miley","address":"17171 Livernois Ave.","zipcode":"48221"},{"establishmentid":"2802","name":"DeDe's Famous Chicken & Waffles","address":"17310 Livernois","zipcode":"48221"},{"establishmentid":"224","name":"U Got Beef With Me","address":"17310 Livernois","zipcode":"48238"}],"inspectionsByEstablishmentidList":[{"inspectionid":"60715","inspectionDate":"2022-11-03T00:00:00","inspectionType":"Preopening/Other","inCompliance":"Yes","violationsByInspectionidList":[]}]}],"maxInspectionDate":[{"inspectionDate":"2023-04-13T00:00:00"}]}},"pageContext":{"eid":"51623744"}},"staticQueryHashes":["3649515864","63159454"]}