{"componentChunkName":"component---src-templates-establishment-page-js","path":"/establishment/51623306","result":{"data":{"site":{"pathPrefix":"/restaurant-inspections"},"postgres":{"establishment":[{"establishmentid":"51623306","name":"Speedy's Coney Island","address":"6211 Warren W.","zipcode":"48239","owner":"Ali Talih-Naji Hammoud","licenseNumber":"255908","licenseType":"Fixed Establishment","establishmentType":"Food Service Establishment","establishmentStatus":"Open","riskCategory":null,"reviewFrequencyDays":"150","coords":"-83.12946,42.34434","geojson":{"id":"51623306","type":"Feature","geometry":{"type":"Point","coordinates":[-83.129464032,42.344335052]},"properties":{"name":"Speedy's Coney Island","owner":"Ali Talih-Naji Hammoud","address":"6211 Warren W.","zipcode":"48239","license_type":"Fixed Establishment","risk_category":null,"license_number":"255908","establishmentid":"51623306","establishment_type":"Food Service Establishment","establishment_status":"Open","review_frequency_days":"150","most_recent_license_date":null}},"nearbyList":[{"establishmentid":"2416","name":"Metro Grill & Coney  Island","address":"6211 Warren W.","zipcode":"48210"},{"establishmentid":"51622782","name":"Fast Treats","address":"6211 Warren W.","zipcode":"48210"},{"establishmentid":"5367","name":"Nicky D's","address":"6211 Warren W.","zipcode":"48210"},{"establishmentid":"3906","name":"Nicky D's Coney Island","address":"6211  Warren Ave. W. ","zipcode":"48210"},{"establishmentid":"4934","name":"Nicky D's Coney Island","address":"6211  W. Warren Ave","zipcode":"48210"},{"establishmentid":"2559","name":"Sterling Services","address":"7940 Livernois","zipcode":"48210"},{"establishmentid":"4561","name":"Koolies","address":"7940 L:ivernois","zipcode":"48210"},{"establishmentid":"2119","name":"Koolies","address":"7940 Livernois","zipcode":"48210"},{"establishmentid":"3043","name":"Sterling Services","address":"7940 Livernois","zipcode":"48210"},{"establishmentid":"4580","name":"Total Vending","address":"7940 Livernois","zipcode":"48210"}],"inspectionsByEstablishmentidList":[{"inspectionid":"52918","inspectionDate":"2020-10-01T00:00:00","inspectionType":"Change of Ownership","inCompliance":"Yes","violationsByInspectionidList":[]}]}],"maxInspectionDate":[{"inspectionDate":"2022-07-25T00:00:00"}]}},"pageContext":{"eid":"51623306"}},"staticQueryHashes":["3649515864","63159454"]}