{"componentChunkName":"component---src-templates-establishment-page-js","path":"/establishment/1309","result":{"data":{"site":{"pathPrefix":"/restaurant-inspections"},"postgres":{"establishment":[{"establishmentid":"1309","name":"Cock-N-Bull Irish Pub","address":"440 Clinton St.","zipcode":"48226","owner":"John Kefallinos","licenseNumber":"049611","licenseType":"Fixed Establishment","establishmentType":"Food Service Establishment","establishmentStatus":"Open","riskCategory":null,"reviewFrequencyDays":"150","coords":"-83.04368,42.33595","geojson":{"id":"1309","type":"Feature","geometry":{"type":"Point","coordinates":[-83.043678717,42.335952435]},"properties":{"name":"Cock-N-Bull Irish Pub","owner":"John Kefallinos","address":"440 Clinton St.","zipcode":"48226","license_type":"Fixed Establishment","risk_category":null,"license_number":"049611","establishmentid":"1309","establishment_type":"Food Service Establishment","establishment_status":"Open","review_frequency_days":"150","most_recent_license_date":"12/4/2006"}},"nearbyList":[{"establishmentid":"3585","name":"Harbor House","address":"440 Clinton St.","zipcode":"48226"},{"establishmentid":"2007","name":"Subway #44796","address":"1401 Beaubien","zipcode":"48226"},{"establishmentid":"2420","name":"Detroit Pub","address":"1326 Brush","zipcode":"48226"},{"establishmentid":"3740","name":"Detroit Pub","address":"1326 Brush","zipcode":"48226"},{"establishmentid":"5140","name":"Basement Burger Bar","address":"1326  Brush","zipcode":"48226"},{"establishmentid":"4251","name":"Detroit Pub Greektown","address":"1326 Brush St.","zipcode":"48226"},{"establishmentid":"315","name":"Robinson Dairy Vending","address":"1300 Beaubien","zipcode":"48226"},{"establishmentid":"2350","name":"Marilyn's on Monroe","address":"419-21 Monroe","zipcode":"48227"},{"establishmentid":"4624","name":"Firebird Tavern","address":"419 Monroe St.","zipcode":"48226"},{"establishmentid":"4230","name":"Marilyn's American Tavern","address":"419 Monroe","zipcode":"48226"}],"inspectionsByEstablishmentidList":[]}],"maxInspectionDate":[{"inspectionDate":"2022-07-25T00:00:00"}]}},"pageContext":{"eid":"1309"}},"staticQueryHashes":["3649515864","63159454"]}