{"componentChunkName":"component---src-templates-establishment-page-js","path":"/establishment/51623437","result":{"data":{"site":{"pathPrefix":"/restaurant-inspections"},"postgres":{"establishment":[{"establishmentid":"51623437","name":"Lambo'z","address":"2500 Ethel","zipcode":"48217","owner":"Salahadeen Thomas","licenseNumber":"255935","licenseType":"Special Transitory Food Unit","establishmentType":"LHD - Special Transitory Food","establishmentStatus":"Plan Review","riskCategory":null,"reviewFrequencyDays":null,"coords":"-83.15249,42.26799","geojson":{"id":"51623437","type":"Feature","geometry":{"type":"Point","coordinates":[-83.152487203,42.267986542]},"properties":{"name":"Lambo'z","owner":"Salahadeen Thomas","address":"2500 Ethel","zipcode":"48217","license_type":"Special Transitory Food Unit","risk_category":null,"license_number":"255935","establishmentid":"51623437","establishment_type":"LHD - Special Transitory Food","establishment_status":"Plan Review","review_frequency_days":null,"most_recent_license_date":"7/7/2022"}},"nearbyList":[{"establishmentid":"3635","name":"Holy Smoke BBQ","address":"2300 Schaefer S.","zipcode":"48217"},{"establishmentid":"1065","name":"Rollercade Roller Rink","address":"2130 Schaefer Hwy. S.","zipcode":"48217"},{"establishmentid":"4068","name":"Ella Mae's Place","address":"2251 Fort St. S.","zipcode":"48217"},{"establishmentid":"3132","name":"Perfect Cafe","address":"2037  Fort St. S.","zipcode":"48217"},{"establishmentid":"2021","name":"Fort St. Eats d/b/a Johnny Noodle King","address":"2601 Fort W.","zipcode":"48216"},{"establishmentid":"2245","name":"Perfect Beat","address":"1941 Fort St. S.","zipcode":"48217"},{"establishmentid":"3393","name":"Arthur's Deli","address":"2709 Fort St. S.","zipcode":"48217"},{"establishmentid":"51622561","name":"The Paris Cafe","address":"2709 South Fort Street","zipcode":"48217"},{"establishmentid":"51623463","name":"Grill Culture","address":"2709 Fort St. S.","zipcode":"48217"},{"establishmentid":"1272","name":"Kemeny Recreation Center","address":"2260 Fort St. S.","zipcode":"48217"}],"inspectionsByEstablishmentidList":[]}],"maxInspectionDate":[{"inspectionDate":"2022-08-31T00:00:00"}]}},"pageContext":{"eid":"51623437"}},"staticQueryHashes":["3649515864","63159454"]}