{"componentChunkName":"component---src-templates-establishment-page-js","path":"/establishment/3290","result":{"data":{"site":{"pathPrefix":"/restaurant-inspections"},"postgres":{"establishment":[{"establishmentid":"3290","name":"Gourmet Dogs","address":"12814 Greenfield Rd.","zipcode":"48227","owner":"Lew Brookins","licenseNumber":"037540","licenseType":"Mobile Food Establishment","establishmentType":"LHD - Mobile Food Establishmen","establishmentStatus":"Seasonal","riskCategory":null,"reviewFrequencyDays":"365","coords":"-82.98144,42.41441","geojson":{"id":"3290","type":"Feature","geometry":{"type":"Point","coordinates":[-82.981439774,42.414407247]},"properties":{"name":"Gourmet Dogs","owner":"Lew Brookins","address":"12814 Greenfield Rd.","zipcode":"48227","license_type":"Mobile Food Establishment","risk_category":null,"license_number":"037540","establishmentid":"3290","establishment_type":"LHD - Mobile Food Establishmen","establishment_status":"Seasonal","review_frequency_days":"365","most_recent_license_date":null}},"nearbyList":[{"establishmentid":"3822","name":"Renee's Dogs on Wheels","address":"12776 Kilbourne","zipcode":"48213"},{"establishmentid":"2763","name":"William J. Beckham Elementary","address":"9860 Park Drive","zipcode":"48213"},{"establishmentid":"51622627","name":"Antonio's Pizzeria & Grill","address":"12740 Gratiot","zipcode":"48205"},{"establishmentid":"51623281","name":"Krispy Food Guys LLC ","address":"12740 Gratiot ","zipcode":"48205"},{"establishmentid":"1215","name":"Wendy's Old Fashioned Hamburgers","address":"12550 Gratiot Ave.","zipcode":"48205"},{"establishmentid":"1400","name":"Elmdale School","address":"12844 Elmdale","zipcode":"48213"},{"establishmentid":"1539","name":"Taco Bell #4200","address":"12200 Gratiot","zipcode":"48205"},{"establishmentid":"3386","name":"Houston Grill","address":"14299 Houston Whittier","zipcode":"48205"},{"establishmentid":"3384","name":"Tony Roni's Soul Food & More","address":"12315 Gratiot Ave.","zipcode":"48205"},{"establishmentid":"3301","name":"Chateau Cuisine","address":"12330 Chalmers Ave.","zipcode":"48205"}],"inspectionsByEstablishmentidList":[]}],"maxInspectionDate":[{"inspectionDate":"2022-07-25T00:00:00"}]}},"pageContext":{"eid":"3290"}},"staticQueryHashes":["3649515864","63159454"]}