{"componentChunkName":"component---src-templates-establishment-page-js","path":"/establishment/4149","result":{"data":{"site":{"pathPrefix":"/restaurant-inspections"},"postgres":{"establishment":[{"establishmentid":"4149","name":"Delight Fish & Chicken","address":"230 McNichols Ave. W.","zipcode":"48203","owner":"Khaled Mohammed Ali","licenseNumber":"073291","licenseType":"Fixed Establishment","establishmentType":"Food Service Establishment","establishmentStatus":"Open","riskCategory":"Medium","reviewFrequencyDays":"335","coords":"-83.10622,42.41796","geojson":{"id":"4149","type":"Feature","geometry":{"type":"Point","coordinates":[-83.106218072,42.417956791]},"properties":{"name":"Delight Fish & Chicken","owner":"Khaled Mohammed Ali","address":"230 McNichols Ave. W.","zipcode":"48203","license_type":"Fixed Establishment","risk_category":"Medium","license_number":"073291","establishmentid":"4149","establishment_type":"Food Service Establishment","establishment_status":"Open","review_frequency_days":"335","most_recent_license_date":null}},"nearbyList":[{"establishmentid":"4689","name":"Po Boyz Soul Food","address":"230 W. McNichols","zipcode":"48203"},{"establishmentid":"5211","name":"Sun Sun","address":"230 McNichols W.","zipcode":"48203"},{"establishmentid":"1972","name":"Arty Art's Eats & Treats","address":"17348 Woodward Ave.","zipcode":"48203"},{"establishmentid":"281","name":"Kow Kow Inn, Inc.","address":"322 McNichols W.","zipcode":"48203"},{"establishmentid":"700","name":"La Dolce Vita","address":"17546 Woodward","zipcode":"48203"},{"establishmentid":"51623613","name":"Guerilla Food DBA Pink Flamingo to Go","address":"17740 Woodward","zipcode":"48203"},{"establishmentid":"2718","name":"Bread Basket Wholesale","address":"17740 Woodward","zipcode":"48203"},{"establishmentid":"1880","name":"Holistic Development Center","address":"17425 Second Ave.","zipcode":"48203"},{"establishmentid":"483","name":"Dakota Inn Inc","address":"17324 John R. St","zipcode":"48203"},{"establishmentid":"417","name":"ROMAN'S ICE CREAM","address":"153 MONTANA W.","zipcode":"48203"}],"inspectionsByEstablishmentidList":[]}],"maxInspectionDate":[{"inspectionDate":"2022-07-25T00:00:00"}]}},"pageContext":{"eid":"4149"}},"staticQueryHashes":["3649515864","63159454"]}