{"data":{"site":{"pathPrefix":"/restaurant-inspections"},"postgres":{"establishment":[{"establishmentid":"743","name":"Freer Bar","address":"7355 Michigan Ave","zipcode":"4821","owner":"Rosemary Diag","licenseNumber":"034733","licenseType":"Fixed Establishment","establishmentType":"Food Service Establishment","establishmentStatus":"Open","riskCategory":null,"reviewFrequencyDays":"365.0","coords":"-83.13434,42.33089","geojson":{"id":"743","type":"Feature","geometry":{"type":"Point","coordinates":[-83.134335635,42.3308919500001]},"properties":{"name":"Freer Bar","owner":"Rosemary Diag","address":"7355 Michigan Ave","zipcode":"4821","license_type":"Fixed Establishment","risk_category":null,"license_number":"034733","establishmentid":"743","establishment_type":"Food Service Establishment","establishment_status":"Open","review_frequency_days":"365.0","most_recent_license_date":null}},"nearbyList":[{"establishmentid":"3914","name":"Subway #29822","address":"7300 Michigan Ave","zipcode":"4821"},{"establishmentid":"5348","name":"Hard Bodies Bar","address":"7443 Michigan Ave","zipcode":"4821"},{"establishmentid":"2073","name":"Senor Lopez Taqueria Mexican","address":"7146 Michigan Ave","zipcode":"4821"},{"establishmentid":"715","name":"Yacht Club Exclusive","address":"7059 Michigan Ave","zipcode":"4821"},{"establishmentid":"758","name":"Alaskan Bar Homestead #3","address":"7625 Michigan Ave","zipcode":"4821"},{"establishmentid":"2285","name":"Little Caesar's Pizza","address":"7633 Michigan Ave","zipcode":"4821"},{"establishmentid":"1013","name":"Church's Fried Chicken #302","address":"7060 Michigan Ave","zipcode":"48226"},{"establishmentid":"789","name":"Red Park Inn Bar","address":"4442 Central ","zipcode":"4821"},{"establishmentid":"716","name":"Jordans Family Restaurant","address":"7031 Michigan Ave","zipcode":"4821"},{"establishmentid":"1009","name":"General George Patton Post #11","address":"4930 Central","zipcode":"4821"},{"establishmentid":"515","name":"Holy Cross Council 2739","address":"4381 Larkins","zipcode":"4821"},{"establishmentid":"1283","name":"Papa's Pizza & Subs","address":"7801 Michigan Ave","zipcode":"4821"},{"establishmentid":"1132","name":"Cas Bar","address":"7800 Michigan Ave","zipcode":"4821"},{"establishmentid":"2023","name":"La Sierra","address":"5400 Chopin","zipcode":"4821"},{"establishmentid":"51622564","name":"La Nueva Sierra","address":"5400 Chopin St","zipcode":"4821"},{"establishmentid":"3198","name":"Angel's Place","address":"7824 Michigan Ave","zipcode":"4821"},{"establishmentid":"3288","name":"Los Dos Amigos-1","address":"7115 Parkwood St","zipcode":"4821"},{"establishmentid":"4908","name":"Los Dos Amigo's 2","address":"7115 Parkwood St","zipcode":"4821"},{"establishmentid":"5210","name":"Black Horse Cantina II","address":"3788 Central","zipcode":"4821"},{"establishmentid":"660","name":"Telway System","address":"6820 Michigan Ave","zipcode":"4821"}],"inspectionsByEstablishmentidList":[{"inspectionid":"38432","inspectionDate":"2017-03-15T00:00:00","inspectionType":"Routine Inspection","inCompliance":"Yes","violationsByInspectionidList":[{"violationCode":"5-501.17","violationDescription":"A toilet room used by females shall be provided with a covered receptacle for sanitary napkins.\r\n","violationType":"Core","itemDescription":null,"subItem":"","problemDescription":null,"subProblem":"","location":"KITCHEN","subLocation":"","corrected":"Not required","daysToCorrect":"30.0","correctedDate":null,"correctionDescription":null}]}]}]}},"pageContext":{"eid":"743"}}