{"data":{"site":{"pathPrefix":"/restaurant-inspections"},"postgres":{"establishment":[{"establishmentid":"51622642","name":"Henry Ford High School at CCS","address":"485 W Milwaukee Ave","zipcode":"48202","owner":"Sodexo Management Inc.","licenseNumber":"TW101117","licenseType":"Fixed Establishment","establishmentType":"Non-Public School","establishmentStatus":"Open","riskCategory":null,"reviewFrequencyDays":"210.0","coords":"-83.07514,42.36775","geojson":{"id":"51622642","type":"Feature","geometry":{"type":"Point","coordinates":[-83.0751378309999,42.3677520750001]},"properties":{"name":"Henry Ford High School at CCS","owner":"Sodexo Management Inc.","address":"485 W Milwaukee Ave","zipcode":"48202","license_type":"Fixed Establishment","risk_category":null,"license_number":"TW101117","establishmentid":"51622642","establishment_type":"Non-Public School","establishment_status":"Open","review_frequency_days":"210.0","most_recent_license_date":"4/30/2018"}},"nearbyList":[{"establishmentid":"51622837","name":"College for Creative Studies","address":"485 W Milwauke Ave","zipcode":"48202"},{"establishmentid":"3899","name":"College for Creative Studies","address":"485 W Milwaukee Ave","zipcode":"48202"},{"establishmentid":"4148","name":"College for Creative Studies- Tim Horton","address":"485 W Milwaukee Ave","zipcode":"48202"},{"establishmentid":"51622796","name":"Tim Hortons / Continental","address":"485 W Milwaukee Ave","zipcode":"48202"},{"establishmentid":"3627","name":"The Coffee Shop & Deli","address":"3044 W Grand Blvd., Ste. 1429","zipcode":"48202"},{"establishmentid":"51622872","name":"Runabout Cafe","address":"3044 W Grand Blvd","zipcode":"48202"},{"establishmentid":"1712","name":"JCE Acquisitions, LLC  DBA Subway ","address":"3044 W Grand Blvd","zipcode":"48202"},{"establishmentid":"662","name":"Northern Lights Lounge","address":"660 W Baltimore St","zipcode":"48202"},{"establishmentid":"4170","name":"New Center Park","address":"2998 W Grand Blvd","zipcode":"48202"},{"establishmentid":"51622570","name":"Avalon Cafe and Biscuit Bar","address":"2998 W Grand Blvd","zipcode":"48202"}],"inspectionsByEstablishmentidList":[{"inspectionid":"42143","inspectionDate":"2018-04-25T00:00:00","inspectionType":"Routine Inspection","inCompliance":"Yes","violationsByInspectionidList":[]},{"inspectionid":"40344","inspectionDate":"2017-10-11T00:00:00","inspectionType":"Routine Inspection","inCompliance":"Yes","violationsByInspectionidList":[]}]}],"maxInspectionDate":[{"inspectionDate":"2019-03-31T00:00:00"}]}},"pageContext":{"eid":"51622642"}}