{"componentChunkName":"component---src-templates-establishment-page-js","path":"/establishment/1651","result":{"data":{"site":{"pathPrefix":"/restaurant-inspections"},"postgres":{"establishment":[{"establishmentid":"1651","name":"De Angelo's Pizza","address":"8935 Jefferson Ave. E.","zipcode":"48214","owner":"Farook Ammori","licenseNumber":"035988","licenseType":"Fixed Establishment","establishmentType":"Food Service Establishment","establishmentStatus":"Temporarily Closed","riskCategory":null,"reviewFrequencyDays":"150","coords":"-82.98670,42.35765","geojson":{"id":"1651","type":"Feature","geometry":{"type":"Point","coordinates":[-82.986697385,42.357646247]},"properties":{"name":"De Angelo's Pizza","owner":"Farook Ammori","address":"8935 Jefferson Ave. E.","zipcode":"48214","license_type":"Fixed Establishment","risk_category":null,"license_number":"035988","establishmentid":"1651","establishment_type":"Food Service Establishment","establishment_status":"Temporarily Closed","review_frequency_days":"150","most_recent_license_date":"30/4/2013"}},"nearbyList":[{"establishmentid":"51623862","name":"Krunchy'z Fish & Chicken","address":"8935 Jefferson","zipcode":"48214"},{"establishmentid":"51623294","name":"McDonalds ","address":"8825 E. Jefferson ","zipcode":"48214"},{"establishmentid":"2370","name":"McDonald's #2285","address":"8825 Jefferson Ave. E.","zipcode":"48214"},{"establishmentid":"51622758","name":"IVY Kitchen + Cocktails","address":"9215 Jefferson E","zipcode":"48214"},{"establishmentid":"51622759","name":"Urban Flavors Detroit","address":"9215 Jefferson Avenue E.","zipcode":null},{"establishmentid":"2632","name":"Crank's Catering","address":"8731 Jefferson E.","zipcode":"48214"},{"establishmentid":"51623114","name":"Detroit State Fair Inc","address":"1510 McClellan","zipcode":"48214"},{"establishmentid":"51623338","name":"Jefferson Avenue Presbyterian Church","address":"8625 Jefferson Ave. E.","zipcode":"48214"},{"establishmentid":"51623488","name":"Sno Biz Detroit (Oakland)","address":"8900 Jefferson E. Unit 521","zipcode":"48214"},{"establishmentid":"3287","name":"Snacks Galore","address":"8900 Jefferson E.","zipcode":"48207"}],"inspectionsByEstablishmentidList":[]}],"maxInspectionDate":[{"inspectionDate":"2023-04-13T00:00:00"}]}},"pageContext":{"eid":"1651"}},"staticQueryHashes":["3649515864","63159454"]}