{"componentChunkName":"component---src-templates-establishment-page-js","path":"/establishment/4161","result":{"data":{"site":{"pathPrefix":"/restaurant-inspections"},"postgres":{"establishment":[{"establishmentid":"4161","name":"Prive Duex","address":"237 Joseph Campau","zipcode":"48207","owner":"Darnell Small","licenseNumber":"070311","licenseType":"Fixed Establishment","establishmentType":"Food Service Establishment","establishmentStatus":"Open","riskCategory":null,"reviewFrequencyDays":"335","coords":"-83.01863,42.33715","geojson":{"id":"4161","type":"Feature","geometry":{"type":"Point","coordinates":[-83.018630712,42.33715489]},"properties":{"name":"Prive Duex","owner":"Darnell Small","address":"237 Joseph Campau","zipcode":"48207","license_type":"Fixed Establishment","risk_category":null,"license_number":"070311","establishmentid":"4161","establishment_type":"Food Service Establishment","establishment_status":"Open","review_frequency_days":"335","most_recent_license_date":"28/3/2014"}},"nearbyList":[{"establishmentid":"1702","name":"STONEY CREEK BREWING CO","address":"237 JOSEPH CAMPAU","zipcode":"48207"},{"establishmentid":"5143","name":"Atwater Brewery","address":"237 Joseph Campau","zipcode":"48207"},{"establishmentid":"2292","name":"Atwater Block Brewery","address":"237 Jos Campau","zipcode":"48207"},{"establishmentid":"3974","name":"River Place Bar & Grill","address":"225 Joseph Campau","zipcode":"48201"},{"establishmentid":"4737","name":"The Karras Bros. Tavern","address":"225 Jos Campau","zipcode":"48207"},{"establishmentid":"51622607","name":"Ashe Supply Co.","address":"225 Jos Campau","zipcode":"48207"},{"establishmentid":"2417","name":"Karras Brothers Tavern","address":"225 Joseph Campau","zipcode":"48207"},{"establishmentid":"1247","name":"Andrew's on the Corner","address":"201 Joseph Campau Ave.","zipcode":"48207"},{"establishmentid":"3425","name":"They Say/Dunco Holding LLC","address":"267 Joseph Campau","zipcode":"48207"},{"establishmentid":"4100","name":"University Prep Science & Math High ","address":"2664 Franklin St.","zipcode":"48226"}],"inspectionsByEstablishmentidList":[]}],"maxInspectionDate":[{"inspectionDate":"2023-04-13T00:00:00"}]}},"pageContext":{"eid":"4161"}},"staticQueryHashes":["3649515864","63159454"]}