{"componentChunkName":"component---src-templates-establishment-page-js","path":"/establishment/51623362","result":{"data":{"site":{"pathPrefix":"/restaurant-inspections"},"postgres":{"establishment":[{"establishmentid":"51623362","name":"Chutney Cat","address":"400 River Place #4103","zipcode":"48207","owner":"Arjun Verma","licenseNumber":"253459","licenseType":"Special Transitory Food Unit","establishmentType":"LHD - Special Transitory Food","establishmentStatus":"Open","riskCategory":"High","reviewFrequencyDays":"150","coords":"-83.01647,42.33727","geojson":{"id":"51623362","type":"Feature","geometry":{"type":"Point","coordinates":[-83.016468095,42.337269968]},"properties":{"name":"Chutney Cat","owner":"Arjun Verma","address":"400 River Place #4103","zipcode":"48207","license_type":"Special Transitory Food Unit","risk_category":"High","license_number":"253459","establishmentid":"51623362","establishment_type":"LHD - Special Transitory Food","establishment_status":"Open","review_frequency_days":"150","most_recent_license_date":null}},"nearbyList":[{"establishmentid":"51622625","name":"Morrison Community Living @ Rivertown","address":"250 McDougall","zipcode":"48207"},{"establishmentid":"4737","name":"The Karras Bros. Tavern","address":"225 Jos Campau","zipcode":"48207"},{"establishmentid":"51622607","name":"Ashe Supply Co.","address":"225 Jos Campau","zipcode":"48207"},{"establishmentid":"3974","name":"River Place Bar & Grill","address":"225 Joseph Campau","zipcode":"48201"},{"establishmentid":"2417","name":"Karras Brothers Tavern","address":"225 Joseph Campau","zipcode":"48207"},{"establishmentid":"4639","name":"Detroit Affordable Assisted Living, LDHA","address":"3103 Wight Street","zipcode":"48209"},{"establishmentid":"4410","name":"Detroit Affordable Assisted Living","address":"3103  Wight St.","zipcode":"48207"},{"establishmentid":"4387","name":"Detroit Academy of Arts & Sciences MS","address":"3100 Jefferson Ave. E.","zipcode":"48207"},{"establishmentid":"420","name":"Five Star Vending","address":"3146 E. Jefferson","zipcode":"48207"},{"establishmentid":"2069","name":"Robinson Dairy Vending","address":"200 Walker","zipcode":"48207"}],"inspectionsByEstablishmentidList":[{"inspectionid":"54789","inspectionDate":"2021-05-04T00:00:00","inspectionType":"Preopening/New","inCompliance":"Yes","violationsByInspectionidList":[]}]}],"maxInspectionDate":[{"inspectionDate":"2022-07-25T00:00:00"}]}},"pageContext":{"eid":"51623362"}},"staticQueryHashes":["3649515864","63159454"]}