{"componentChunkName":"component---src-templates-establishment-page-js","path":"/establishment/51623606","result":{"data":{"site":{"pathPrefix":"/restaurant-inspections"},"postgres":{"establishment":[{"establishmentid":"51623606","name":"Valentino's Diner","address":"12930 Eight Mile E.","zipcode":"48205","owner":"Maida Mujic","licenseNumber":"261982","licenseType":"Fixed Establishment","establishmentType":"Food Service Establishment","establishmentStatus":"Open","riskCategory":null,"reviewFrequencyDays":"150","coords":"-82.99196,42.44892","geojson":{"id":"51623606","type":"Feature","geometry":{"type":"Point","coordinates":[-82.991964127,42.44892172]},"properties":{"name":"Valentino's Diner","owner":"Maida Mujic","address":"12930 Eight Mile E.","zipcode":"48205","license_type":"Fixed Establishment","risk_category":null,"license_number":"261982","establishmentid":"51623606","establishment_type":"Food Service Establishment","establishment_status":"Open","review_frequency_days":"150","most_recent_license_date":null}},"nearbyList":[{"establishmentid":"51622450","name":"Detroit's Finest Coney Island","address":"12930 Eight Mile E.","zipcode":"48205"},{"establishmentid":"668","name":"New York Diner","address":"12930 Eight Mile Rd. E.","zipcode":"48205"},{"establishmentid":"2141","name":"Maitais","address":"13310-18 Eight Mile Rd. E.","zipcode":"48205"},{"establishmentid":"2144","name":"Pizza to Go","address":"13450 Eight Mile Rd. E.","zipcode":"48205"},{"establishmentid":"726","name":"High Note Music Inc","address":"13624 Eight Mile Rd. E.","zipcode":"48205"},{"establishmentid":"1143","name":"Boys & Girls Clubs of S.E. Michigan","address":"20100 Schoenherr","zipcode":"48205"},{"establishmentid":"725","name":"Player's","address":"13710 Eight Mile Rd. E.","zipcode":"48205"},{"establishmentid":"1165","name":"Trix Elementary","address":"13700 Bringard","zipcode":"48205"},{"establishmentid":"1431","name":"BT'S (Tycoons DBA Celebrity Reservation)","address":"12210 Eight Mile Rd. E.","zipcode":"48205"},{"establishmentid":"2569","name":"Consolidated Vendors Corp.","address":"11900 Eight Mile Rd. E.","zipcode":"48205"}],"inspectionsByEstablishmentidList":[{"inspectionid":"59615","inspectionDate":"2022-06-13T00:00:00","inspectionType":"Complaint","inCompliance":"Yes","violationsByInspectionidList":[]},{"inspectionid":"59616","inspectionDate":"2022-06-13T00:00:00","inspectionType":"Routine Inspection","inCompliance":"Yes","violationsByInspectionidList":[]}]}],"maxInspectionDate":[{"inspectionDate":"2023-04-25T00:00:00"}]}},"pageContext":{"eid":"51623606"}},"staticQueryHashes":["3649515864","63159454"]}