{"data":{"postgres":{"establishment":[{"establishmentid":"51622764","name":"Tres Leches 'n Snacks","address":"1210 Lawndale Detroit MI 48209","zipcode":"48209","owner":"Jaime Diaz-Herrera","licenseNumber":"232732","licenseType":"Mobile Food Establishment","establishmentType":"LHD - Mobile Food Establishmen","establishmentStatus":"Plan Review","riskCategory":null,"reviewFrequencyDays":"395.0","coords":"-83.12722,42.30160","geojson":{"id":"51622764","type":"Feature","geometry":{"type":"Point","coordinates":[-83.1272157179999,42.301602734]},"properties":{"name":"Tres Leches 'n Snacks","owner":"Jaime Diaz-Herrera","address":"1210 Lawndale Detroit MI 48209","zipcode":"48209","license_type":"Mobile Food Establishment","risk_category":null,"license_number":"232732","establishmentid":"51622764","establishment_type":"LHD - Mobile Food Establishmen","establishment_status":"Plan Review","review_frequency_days":"395.0","most_recent_license_date":null}},"nearbyList":[{"establishmentid":"370","name":"Los Compadres","address":"1132 Lawndale St","zipcode":"48209"},{"establishmentid":"4241","name":"Tacos El Toro #3","address":"8191 Chamberlain St","zipcode":"48209"},{"establishmentid":"5028","name":"Marisqueria El Emperio","address":"1633 Lawndale St","zipcode":"48209"},{"establishmentid":"4960","name":"El Parian Commissary","address":"1633 Lawndale St","zipcode":"48209"},{"establishmentid":"3812","name":"Tacos El Caballo","address":"8084 Rathbone St","zipcode":"48209"},{"establishmentid":"1353","name":"Vince's Italian Rest & Pizzeria","address":"1341 Springwells Ave","zipcode":"48209"},{"establishmentid":"413","name":"Charlie's Bar","address":"1503 Springwells Ave","zipcode":"48209"},{"establishmentid":"2224","name":"El Asador","address":"1312 Springwells Ave","zipcode":"48209"},{"establishmentid":"51622563","name":"La Pasada","address":"1601 Springwells St","zipcode":"48209"},{"establishmentid":"1184","name":"McDonald's #5251","address":"1101 Springwells Ave","zipcode":"48209"},{"establishmentid":"469","name":"Puerto Rican Club","address":"8050 Fort St W","zipcode":"48209"},{"establishmentid":"4050","name":"My Spot","address":"1801 Springwells","zipcode":"48209"},{"establishmentid":"1606","name":"Prelja's Ham Palace","address":"9405 Fort St W","zipcode":"48209"},{"establishmentid":"926","name":"Bennett Elementary","address":"2111 Mullane St","zipcode":"48209"},{"establishmentid":"51622803","name":"La Posada","address":"1930 Springwells St","zipcode":"48209"},{"establishmentid":"768","name":"Family Treat","address":"2010 Springwells Ave","zipcode":"48209"},{"establishmentid":"3800","name":"All Saints Soup Kitchen","address":"7824 Fort St W","zipcode":"48209"},{"establishmentid":"5173","name":"El Salpicon","address":"8600 W Vernor Hwy","zipcode":"48209"},{"establishmentid":"3926","name":"Taqueria Camino Real","address":"1100 Central","zipcode":"48209"},{"establishmentid":"5082","name":"El Caribeno","address":"8065 Vernor Hwy","zipcode":"48209"}],"inspectionsByEstablishmentidList":[{"inspectionid":"42894","inspectionDate":"2018-07-17T00:00:00","inspectionType":"Plan Review/Final/Ap","inCompliance":"Yes","violationsByInspectionidList":[]},{"inspectionid":"42893","inspectionDate":"2018-07-17T00:00:00","inspectionType":"Plan Review/Pre-Open","inCompliance":"Yes","violationsByInspectionidList":[{"violationCode":"5-402.11","violationDescription":"Except as otherwise allowed, a direct connection may not exist between the SEWAGE system and a drain originating from EQUIPMENT in which FOOD, portable EQUIPMENT, or UTENSILS are placed. (P)\r\n","violationType":"Priority","itemDescription":"Backflow/backsiphonage prevention device(s)","subItem":"Air gap","problemDescription":"Not provided on","subProblem":"Sink","location":"PREP SINK","subLocation":"At the AIR GAP","corrected":"Yes","daysToCorrect":"10.0","correctedDate":"2018-07-17T00:00:00","correctionDescription":"Provide adequate air gap."}]}]}]}},"pageContext":{"eid":"51622764"}}