{"componentChunkName":"component---src-templates-establishment-page-js","path":"/establishment/731","result":{"data":{"site":{"pathPrefix":"/restaurant-inspections"},"postgres":{"establishment":[{"establishmentid":"731","name":"Berry's Grill","address":"15515 Fenkell Ave.","zipcode":"48227","owner":"Lavara B. Berry","licenseNumber":"062306","licenseType":"Fixed Establishment","establishmentType":"Food Service Establishment","establishmentStatus":"Permanently Closed","riskCategory":null,"reviewFrequencyDays":"335","coords":"-83.19906,42.40137","geojson":{"id":"731","type":"Feature","geometry":{"type":"Point","coordinates":[-83.19905711,42.40137341]},"properties":{"name":"Berry's Grill","owner":"Lavara B. Berry","address":"15515 Fenkell Ave.","zipcode":"48227","license_type":"Fixed Establishment","risk_category":null,"license_number":"062306","establishmentid":"731","establishment_type":"Food Service Establishment","establishment_status":"Permanently Closed","review_frequency_days":"335","most_recent_license_date":"5/17/2013"}},"nearbyList":[{"establishmentid":"4610","name":"Captain Jay's Fish & Chicken #110","address":"15321 Greenfield Rd.","zipcode":"48227"},{"establishmentid":"2027","name":"Diamond Bar","address":"15350 Fenkell ave.","zipcode":"48227"},{"establishmentid":"3962","name":"The Palms","address":"15350 Fenkell Ave.","zipcode":"48227"},{"establishmentid":"51623411","name":"Sky Bar & Grill","address":"15350 Fenkell","zipcode":"48227"},{"establishmentid":"51622734","name":"Club Caribbean Bar & Grill","address":"15331 Fenkell","zipcode":"48227"},{"establishmentid":"51623066","name":"Golden Wingz Hip Hop","address":"14655 Greenfield","zipcode":"48227"},{"establishmentid":"1412","name":"Calvary COGIC","address":"15025 Fenkell","zipcode":"48227"},{"establishmentid":"51623286","name":"Cosmos Coney Island ","address":"14551 Greenfields ","zipcode":"48227"},{"establishmentid":"2393","name":"Cosmos Coney Island","address":"14551 Greenfield Rd.","zipcode":"48227"},{"establishmentid":"1189","name":"Mt. Olive Grand Lodge AYM Club","address":"14801 Fenkell Ave.","zipcode":"48227"}],"inspectionsByEstablishmentidList":[]}],"maxInspectionDate":[{"inspectionDate":"2022-08-31T00:00:00"}]}},"pageContext":{"eid":"731"}},"staticQueryHashes":["3649515864","63159454"]}