{"data":{"site":{"pathPrefix":"/restaurant-inspections"},"postgres":{"establishment":[{"establishmentid":"803","name":"Gigi's Birdcage","address":"16920 W Warren Ave","zipcode":"48228","owner":"Luis Mandujano","licenseNumber":"034828","licenseType":"Fixed Establishment","establishmentType":"Food Service Establishment","establishmentStatus":"Open","riskCategory":"High","reviewFrequencyDays":"365","coords":"-83.21124,42.34364","geojson":{"id":"803","type":"Feature","geometry":{"type":"Point","coordinates":[-83.211244679,42.343640231]},"properties":{"name":"Gigi's Birdcage","owner":"Luis Mandujano","address":"16920 W Warren Ave","zipcode":"48228","license_type":"Fixed Establishment","risk_category":"High","license_number":"034828","establishmentid":"803","establishment_type":"Food Service Establishment","establishment_status":"Open","review_frequency_days":"365","most_recent_license_date":"4/18/2019"}},"nearbyList":[{"establishmentid":"1459","name":"Rob's Deli","address":"16956-58 E Warren Ave","zipcode":"48224"},{"establishmentid":"1014","name":"L. George's Restaurant Coney Island","address":"16835 W Warren Ave","zipcode":"48228"},{"establishmentid":"212","name":"Nick's Detroit","address":"16807 W Warren Ave","zipcode":"48228"},{"establishmentid":"5315","name":"Mr. Softy","address":"7262 Memorial St","zipcode":"48228"},{"establishmentid":"5330","name":"Halal Pizza Box","address":"16645 W Warren","zipcode":"48228"},{"establishmentid":"4983","name":"Iraqi Bakery and Carry Out","address":"17022 W Warren Ave","zipcode":"48228"},{"establishmentid":"51622496","name":"Amazing Grill LLC","address":"17044 W Warren Ave","zipcode":"48228"},{"establishmentid":"5030","name":"Good Night Lounge","address":"17621 W Warren Ave","zipcode":"48228"},{"establishmentid":"4134","name":"Subway #47233","address":"17720 W Warren Ave","zipcode":"48228"},{"establishmentid":"4403","name":"Dairy King DBA Beirut Grill","address":"16251 W Warren","zipcode":"48228"}],"inspectionsByEstablishmentidList":[{"inspectionid":"50679","inspectionDate":"2019-09-24T00:00:00","inspectionType":"Routine Inspection","inCompliance":"Yes","violationsByInspectionidList":[{"violationCode":"4-602.13","violationDescription":"NonFOOD-CONTACT SURFACES of EQUIPMENT shall be cleaned at a frequency necessary to preclude accumulation of soil residues.\r\n","violationType":"Core","itemDescription":"Nonfood contact surface(s)","subItem":"","problemDescription":"Soiled","subProblem":"","location":"BAR","subLocation":"","corrected":"Not required","daysToCorrect":"30","correctedDate":null,"correctionDescription":null}]}]}],"maxInspectionDate":[{"inspectionDate":"2020-05-29T00:00:00"}]}},"pageContext":{"eid":"803"}}