{"componentChunkName":"component---src-templates-establishment-page-js","path":"/establishment/685","result":{"data":{"site":{"pathPrefix":"/restaurant-inspections"},"postgres":{"establishment":[{"establishmentid":"685","name":"George's Ham and Corned Beef","address":"19505 Grand River Ave.","zipcode":"48223","owner":"Florin Gojcaj","licenseNumber":"051283","licenseType":"Fixed Establishment","establishmentType":"Food Service Establishment","establishmentStatus":"Permanently Closed","riskCategory":null,"reviewFrequencyDays":"150","coords":"-83.23419,42.40678","geojson":{"id":"685","type":"Feature","geometry":{"type":"Point","coordinates":[-83.234187823,42.406784983]},"properties":{"name":"George's Ham and Corned Beef","owner":"Florin Gojcaj","address":"19505 Grand River Ave.","zipcode":"48223","license_type":"Fixed Establishment","risk_category":null,"license_number":"051283","establishmentid":"685","establishment_type":"Food Service Establishment","establishment_status":"Permanently Closed","review_frequency_days":"150","most_recent_license_date":null}},"nearbyList":[{"establishmentid":"51623705","name":"Pressed Juice Bar LLC (Juicing with Jai)","address":"19550 Grand River","zipcode":"48223"},{"establishmentid":"2344","name":"Auntie Betty's Cafe","address":"19601 Grand River Ave.","zipcode":"48223"},{"establishmentid":"1369","name":"Blue Moon","address":"19614 Grand River Ave.","zipcode":"48223"},{"establishmentid":"5412","name":"Detroit Vegan Soul","address":"19614 Grand River","zipcode":"48223"},{"establishmentid":"51623214","name":"Lemonade & Beyond","address":"19361 Bretton","zipcode":"48223"},{"establishmentid":"2754","name":"Cheers/Hopz","address":"19244 Grand River Ave.","zipcode":"48219"},{"establishmentid":"1514","name":"Elias Donuts","address":"19231 Grand River Ave.","zipcode":"48223"},{"establishmentid":"1995","name":"Little Caesar's Pizza #168","address":"19116 Grand River Ave.","zipcode":"48223"},{"establishmentid":"3128","name":"PJ Vending","address":"16716 Plainview","zipcode":"48219"},{"establishmentid":"3284","name":"PJ Vending","address":"16716 Plainview","zipcode":"48219"}],"inspectionsByEstablishmentidList":[]}],"maxInspectionDate":[{"inspectionDate":"2022-08-31T00:00:00"}]}},"pageContext":{"eid":"685"}},"staticQueryHashes":["3649515864","63159454"]}