{"componentChunkName":"component---src-templates-establishment-page-js","path":"/establishment/1260","result":{"data":{"site":{"pathPrefix":"/restaurant-inspections"},"postgres":{"establishment":[{"establishmentid":"1260","name":"Sophie Wright Settlements","address":"4141 Mitchell","zipcode":"48207","owner":"Sophie-Wright Settlements ","licenseNumber":"073160","licenseType":"Fixed Establishment","establishmentType":"Food Service Establishment","establishmentStatus":"New Owner/Complete Reconstruct","riskCategory":null,"reviewFrequencyDays":"335","coords":"-83.03314,42.36107","geojson":{"id":"1260","type":"Feature","geometry":{"type":"Point","coordinates":[-83.033136159,42.361072982]},"properties":{"name":"Sophie Wright Settlements","owner":"Sophie-Wright Settlements ","address":"4141 Mitchell","zipcode":"48207","license_type":"Fixed Establishment","risk_category":null,"license_number":"073160","establishmentid":"1260","establishment_type":"Food Service Establishment","establishment_status":"New Owner/Complete Reconstruct","review_frequency_days":"335","most_recent_license_date":"2013-04-23"}},"nearbyList":[{"establishmentid":"4926","name":"Boggs, James & Grace Lee Boggs School","address":"4141 Mitchell","zipcode":"48207"},{"establishmentid":"51622772","name":"Get Back Up Inc. East","address":"4216 McDougall","zipcode":"48207"},{"establishmentid":"4188","name":"St. Rose Senior Center/St. Elizabeth","address":"3127 Canfield St. E.","zipcode":"48207"},{"establishmentid":"311","name":"Odell's Lounge","address":"4200 Chene","zipcode":"48207"},{"establishmentid":"2479","name":"K & D ICE CREAM","address":"3177 MACK","zipcode":"48234"},{"establishmentid":"2137","name":"K & D","address":"3177 Mack Ave.","zipcode":"48234"},{"establishmentid":"654","name":"Gratiot Grill Coney Island","address":"3121 Gratiot","zipcode":"48207"},{"establishmentid":"600","name":"Metropolitan Prince Hall","address":"3500 McDougall Rd.","zipcode":"48207"},{"establishmentid":"1805","name":"Robinson Dairy Vending","address":"3300 Mack","zipcode":"48207"},{"establishmentid":"1682","name":"Open Door Rescue Mission","address":"3442 McDougall","zipcode":"48207"}],"inspectionsByEstablishmentidList":[]}],"maxInspectionDate":[{"inspectionDate":"2023-04-25T00:00:00"}]}},"pageContext":{"eid":"1260"}},"staticQueryHashes":["3649515864","63159454"]}