{"data":{"site":{"pathPrefix":"/restaurant-inspections"},"postgres":{"establishment":[{"establishmentid":"686","name":"West Indian Amerian Assn","address":"2015 E Seven Mile Rd","zipcode":"48234","owner":"West Indian American Assn","licenseNumber":"062424","licenseType":"Fixed Establishment","establishmentType":"Food Service Establishment","establishmentStatus":"Open","riskCategory":"Medium","reviewFrequencyDays":"365.0","coords":"-83.08129,42.43318","geojson":{"id":"686","type":"Feature","geometry":{"type":"Point","coordinates":[-83.0812922599999,42.433178222]},"properties":{"name":"West Indian Amerian Assn","owner":"West Indian American Assn","address":"2015 E Seven Mile Rd","zipcode":"48234","license_type":"Fixed Establishment","risk_category":"Medium","license_number":"062424","establishmentid":"686","establishment_type":"Food Service Establishment","establishment_status":"Open","review_frequency_days":"365.0","most_recent_license_date":"4/20/2016"}},"nearbyList":[{"establishmentid":"1197","name":"Yiu Chan Restaurant","address":"2415 E Seven Mile Rd","zipcode":"48234"},{"establishmentid":"51622598","name":"Clarks Smokehouse Grill","address":"2440 E Seven Mile Rd","zipcode":"48234"},{"establishmentid":"4486","name":"Christian Guidance Center","address":"19211 Anglin St","zipcode":"48234"},{"establishmentid":"682","name":"Mr. Mapps Lounge","address":"1627 E Seven Mile Rd","zipcode":"48203"},{"establishmentid":"2724","name":"Grinder 2","address":"1648 E Seven Mile Rd","zipcode":"48203"},{"establishmentid":"3220","name":"Hash Brown Cafe","address":"19458 Conant Ave","zipcode":"48234"},{"establishmentid":"250","name":"Erotic City","address":"19326 Conant Ave","zipcode":"48234"},{"establishmentid":"3072","name":"Munchee's Mania","address":"19310 Conant Ave","zipcode":"48234"},{"establishmentid":"1398","name":"Asian Corned Beef","address":"2847 E Seven Mile Rd","zipcode":"48234"},{"establishmentid":"2377","name":"Pete's Grill","address":"1400 E Outer Dr","zipcode":"48234"}],"inspectionsByEstablishmentidList":[{"inspectionid":"42731","inspectionDate":"2018-06-29T00:00:00","inspectionType":"Routine Inspection","inCompliance":"Yes","violationsByInspectionidList":[]},{"inspectionid":"39099","inspectionDate":"2017-06-08T00:00:00","inspectionType":"Routine Inspection","inCompliance":"Yes","violationsByInspectionidList":[]}]}],"maxInspectionDate":[{"inspectionDate":"2019-03-31T00:00:00"}]}},"pageContext":{"eid":"686"}}