{"data":{"postgres":{"establishment":[{"establishmentid":"4150","name":"Grace Bible Chapel","address":"5440 Oakman Blvd","zipcode":"48204","owner":"GRACE BIBLE CHAPEL","licenseNumber":"069260","licenseType":"Fixed Establishment","establishmentType":"Food Service Establishment","establishmentStatus":"Open","riskCategory":"Medium","reviewFrequencyDays":"365.0","coords":"-83.16131,42.35939","geojson":{"id":"4150","type":"Feature","geometry":{"type":"Point","coordinates":[-83.1613068359999,42.359385204]},"properties":{"name":"Grace Bible Chapel","owner":"GRACE BIBLE CHAPEL","address":"5440 Oakman Blvd","zipcode":"48204","license_type":"Fixed Establishment","risk_category":"Medium","license_number":"069260","establishmentid":"4150","establishment_type":"Food Service Establishment","establishment_status":"Open","review_frequency_days":"365.0","most_recent_license_date":null}},"nearbyList":[{"establishmentid":"5230","name":"Detroit Fresh Fish & Chicken Market inc.","address":"10515 Joy Rd","zipcode":"48204"},{"establishmentid":"425","name":" Dairy Queen Inc.","address":"9151 Wyoming ","zipcode":"48204"},{"establishmentid":"51622892","name":"Dairy Queen","address":"9151 Wyoming Ave","zipcode":"48204"},{"establishmentid":"505","name":"Blue Star Lounge","address":"10600 Joy Rd","zipcode":"48204"},{"establishmentid":"4337","name":"MacKenzie PK-8","address":"10147 W Chicago Ave","zipcode":"48208"},{"establishmentid":"4833","name":"GFFD Community Center Northwest","address":"8530 Joy Rd","zipcode":"48204"},{"establishmentid":"878","name":"John's Grill Coney Island","address":"10534 W Chicago","zipcode":"48204"},{"establishmentid":"4887","name":"Clara's Place","address":"8505 Joy Rd","zipcode":"48204"},{"establishmentid":"1042","name":"Charles R. Drew Transition","address":"9600 Wyoming Ave","zipcode":"48204"},{"establishmentid":"635","name":"Deb's Place","address":"8748 Tireman Ave","zipcode":"48204"},{"establishmentid":"598","name":"Elmer's LLC","address":"8515 W Chicago W","zipcode":"48204"},{"establishmentid":"51622726","name":"Genesis House 2","address":"12900 W Chicago Rd","zipcode":"48228"},{"establishmentid":"4488","name":"Sister Love Treats","address":"9126 Ward St","zipcode":"48228"},{"establishmentid":"1183","name":"Club Temptation","address":"8203 W Chicago Rd","zipcode":"48204"},{"establishmentid":"3976","name":"Manhattan Fish and Chicken","address":"8712 Schaefer Ave ","zipcode":"48228"},{"establishmentid":"1482","name":"Hollywood Coney Island","address":"12033 Grand River Ave","zipcode":"48204"},{"establishmentid":"527","name":"Lon's Ham and Corned Beef","address":"13600 Chicago Ave W","zipcode":"48228"},{"establishmentid":"3813","name":"Unity Baptist Church","address":"7500 Tireman Ave","zipcode":"48204"},{"establishmentid":"2874","name":"Fish Express","address":"12555 Grand River Ste 400","zipcode":"48204"},{"establishmentid":"3153","name":"1st Wok","address":"12555 Grand River Ave #150","zipcode":"48204"}],"inspectionsByEstablishmentidList":[{"inspectionid":"43808","inspectionDate":"2018-10-17T00:00:00","inspectionType":"Routine Inspection","inCompliance":"Yes","violationsByInspectionidList":[]},{"inspectionid":"39920","inspectionDate":"2017-09-13T00:00:00","inspectionType":"Routine Inspection","inCompliance":"Yes","violationsByInspectionidList":[]},{"inspectionid":"36417","inspectionDate":"2016-09-07T00:00:00","inspectionType":"Routine Inspection","inCompliance":"Yes","violationsByInspectionidList":[]}]}]}},"pageContext":{"eid":"4150"}}