{"componentChunkName":"component---src-templates-establishment-page-js","path":"/establishment/51623849","result":{"data":{"site":{"pathPrefix":"/restaurant-inspections"},"postgres":{"establishment":[{"establishmentid":"51623849","name":"Kabob Grill","address":"3990 John R.","zipcode":"48201","owner":"Abdullah Alahmadi","licenseNumber":"PS091622","licenseType":"Fixed Establishment","establishmentType":"Food Service Establishment","establishmentStatus":"Open","riskCategory":null,"reviewFrequencyDays":null,"coords":"-83.05615,42.35097","geojson":{"id":"51623849","type":"Feature","geometry":{"type":"Point","coordinates":[-83.056150046,42.350970116]},"properties":{"name":"Kabob Grill","owner":"Abdullah Alahmadi","address":"3990 John R.","zipcode":"48201","license_type":"Fixed Establishment","risk_category":null,"license_number":"PS091622","establishmentid":"51623849","establishment_type":"Food Service Establishment","establishment_status":"Open","review_frequency_days":null,"most_recent_license_date":null}},"nearbyList":[{"establishmentid":"5136","name":"Estia Greek Street Food","address":"3990 John R","zipcode":"48201"},{"establishmentid":"5135","name":"Chiqui Mexican","address":"3990 John R.","zipcode":"48201"},{"establishmentid":"5134","name":"Starbucks","address":"3990 John R St.","zipcode":"48201"},{"establishmentid":"4525","name":"Continental Canteen","address":"3990 John R","zipcode":null},{"establishmentid":"4994","name":"Harper Hutzel Hospital ","address":"3990  John R","zipcode":"48201"},{"establishmentid":"1636","name":"Harper Hospital #18105","address":"3990 John R.","zipcode":"48201"},{"establishmentid":"1816","name":"Wendy's-Harper Hospital #797","address":"3990 John R St.","zipcode":"48201"},{"establishmentid":"3631","name":"Quizno's Sub","address":"3990 John R St.","zipcode":"48201"},{"establishmentid":"3807","name":"Great Lakes Coffee Beanery","address":"3990 John R St.","zipcode":"48201"},{"establishmentid":"5137","name":"Detroit Burger Bar","address":"3990 John R St.","zipcode":"48201"}],"inspectionsByEstablishmentidList":[]}],"maxInspectionDate":[{"inspectionDate":"2022-08-31T00:00:00"}]}},"pageContext":{"eid":"51623849"}},"staticQueryHashes":["3649515864","63159454"]}