{"componentChunkName":"component---src-templates-establishment-page-js","path":"/establishment/4420","result":{"data":{"site":{"pathPrefix":"/restaurant-inspections"},"postgres":{"establishment":[{"establishmentid":"4420","name":"Carmines Pizza","address":"107 Monroe","zipcode":"48226","owner":"Freedom from CIP.Inc","licenseNumber":"073206","licenseType":"Fixed Establishment","establishmentType":"Food Service Establishment","establishmentStatus":"Open","riskCategory":null,"reviewFrequencyDays":"335","coords":"-83.04584,42.33365","geojson":{"id":"4420","type":"Feature","geometry":{"type":"Point","coordinates":[-83.045837749,42.333650875]},"properties":{"name":"Carmines Pizza","owner":"Freedom from CIP.Inc","address":"107 Monroe","zipcode":"48226","license_type":"Fixed Establishment","risk_category":null,"license_number":"073206","establishmentid":"4420","establishment_type":"Food Service Establishment","establishment_status":"Open","review_frequency_days":"335","most_recent_license_date":null}},"nearbyList":[{"establishmentid":"3666","name":"Papa Romano's/Mr. Pita","address":"107 Monroe","zipcode":"48226"},{"establishmentid":"3387","name":"Jimmy Johns Gourmet Sandwiches #421","address":"95 Monroe St.","zipcode":"48226"},{"establishmentid":"4022","name":"CK Mediteranian Grill","address":"119 Monroe","zipcode":"48226"},{"establishmentid":"4631","name":"Cottage Inn Pizza","address":"107 Monroe St.","zipcode":"48226"},{"establishmentid":"4146","name":"Mr. Kabob Xpress ","address":"119 Monroe St.","zipcode":"48226"},{"establishmentid":"3269","name":"Orchid Thai","address":"115 Monroe St.","zipcode":"48226"},{"establishmentid":"51623182","name":"Toast Entertainment LLC","address":"1000 Woodward Ave.","zipcode":"48226"},{"establishmentid":"4321","name":"Texas De Brazil","address":"1000 Woodward Ave.","zipcode":"48226"},{"establishmentid":"5031","name":"Standby","address":"225 Gratiot Ave.","zipcode":"48226"},{"establishmentid":"51622470","name":"Standby / The Skip-Mobile Unit","address":"225 Gratiot","zipcode":"48226"}],"inspectionsByEstablishmentidList":[]}],"maxInspectionDate":[{"inspectionDate":"2023-04-13T00:00:00"}]}},"pageContext":{"eid":"4420"}},"staticQueryHashes":["3649515864","63159454"]}