{"data":{"site":{"pathPrefix":"/restaurant-inspections"},"postgres":{"establishment":[{"establishmentid":"4423","name":"AVI- Children's Center of Wayne County","address":"19900 Evergreen Rd","zipcode":"48216","owner":"AVI Foodsystems , Inc.","licenseNumber":"073383","licenseType":"Fixed Establishment","establishmentType":"Non-Public School","establishmentStatus":"Permanently Closed","riskCategory":null,"reviewFrequencyDays":"280.0","coords":"-83.23833,42.43710","geojson":{"id":"4423","type":"Feature","geometry":{"type":"Point","coordinates":[-83.238328595,42.4371035870001]},"properties":{"name":"AVI- Children's Center of Wayne County","owner":"AVI Foodsystems , Inc.","address":"19900 Evergreen Rd","zipcode":"48216","license_type":"Fixed Establishment","risk_category":null,"license_number":"073383","establishmentid":"4423","establishment_type":"Non-Public School","establishment_status":"Permanently Closed","review_frequency_days":"280.0","most_recent_license_date":"5/4/2017"}},"nearbyList":[{"establishmentid":"867","name":"Henry Ford High School","address":"20000 Evergreen Rd","zipcode":"48219"},{"establishmentid":"2717","name":"Checkers ","address":"19801 W Eight Mile Rd","zipcode":"48219"},{"establishmentid":"2355","name":"Nicky D's","address":"20001 W Eight Mile Rd","zipcode":"48219"},{"establishmentid":"5160","name":"Olympia Coney Island","address":"19740 W Seven Mile","zipcode":"48219"},{"establishmentid":"2246","name":"Happy's Pizza #5","address":"20150 W Seven Mile Rd","zipcode":"48219"},{"establishmentid":"2816","name":"J J's Fish and Chicken","address":"20225 W Eight Mile Rd","zipcode":"48219"},{"establishmentid":"1647","name":"China One","address":"20160 W Seven Mile Rd","zipcode":"48219"},{"establishmentid":"2238","name":"Subway #15573","address":"20170 W Seven Mile Rd","zipcode":"48219"},{"establishmentid":"2592","name":"Crab House","address":"19721 W Seven Mile Rd","zipcode":"48219"},{"establishmentid":"410","name":"Lou's  Deli/Seven Mile","address":"19440 W Seven Mile Rd","zipcode":"48219"},{"establishmentid":"1739","name":"Tubby's Submarine #121","address":"20325 W Eight Mile Rd","zipcode":"48219"},{"establishmentid":"634","name":"Little Caesar's Pizza #39","address":"19400 W Seven Mile Rd","zipcode":"48201"},{"establishmentid":"5241","name":"S & T Fresh Fish & Seafood Inc.","address":"20231 W Seven Mile Rd","zipcode":"48219"},{"establishmentid":"2455","name":"Ace of Spades","address":"19245 W Eight Mile Rd","zipcode":"48219"},{"establishmentid":"1003","name":"T & J Coney Island","address":"20601 W Eight Mile Rd","zipcode":"48219"},{"establishmentid":"476","name":"Bob's Pizza Palace Inc.","address":"20510 W Seven Mile Rd","zipcode":"48219"},{"establishmentid":"1377","name":"Dynamo Corned Beef Deli","address":"20716 W Seven Mile Rd","zipcode":"48219"},{"establishmentid":"2775","name":"Penthouse","address":"20771 W Eight Mile Rd","zipcode":"48219"},{"establishmentid":"3378","name":"Ebony Lounge","address":"19029 W Seven Mile Rd","zipcode":"48219"},{"establishmentid":"5168","name":"The Real McCoy Southern Bar-B-Cue","address":"20817 W Seven Mile","zipcode":"48219"}],"inspectionsByEstablishmentidList":[]}]}},"pageContext":{"eid":"4423"}}