{"componentChunkName":"component---src-templates-establishment-page-js","path":"/establishment/255","result":{"data":{"site":{"pathPrefix":"/restaurant-inspections"},"postgres":{"establishment":[{"establishmentid":"255","name":"Last Call Bar","address":"19432 Warren Ave. W.","zipcode":"48228","owner":"Dennis Willis","licenseNumber":"078367","licenseType":"Fixed Establishment","establishmentType":"Food Service Establishment","establishmentStatus":"Open","riskCategory":"Medium","reviewFrequencyDays":"335","coords":"-83.23128,42.34342","geojson":{"id":"255","type":"Feature","geometry":{"type":"Point","coordinates":[-83.231275177,42.343422139]},"properties":{"name":"Last Call Bar","owner":"Dennis Willis","address":"19432 Warren Ave. W.","zipcode":"48228","license_type":"Fixed Establishment","risk_category":"Medium","license_number":"078367","establishmentid":"255","establishment_type":"Food Service Establishment","establishment_status":"Open","review_frequency_days":"335","most_recent_license_date":"2015-04-21"}},"nearbyList":[{"establishmentid":"256","name":"Hurry Inn ","address":"19430-32 Warren Ave. W.","zipcode":"48228"},{"establishmentid":"257","name":"Pete's Bar","address":"19421 Warren W.","zipcode":"48228"},{"establishmentid":"4137","name":"Old Fashion Hamburger Company","address":"19533 Warren Ave. W","zipcode":"48228"},{"establishmentid":"368","name":"Juan's Corned Beef","address":"19533 Warren Ave. W.","zipcode":"48228"},{"establishmentid":"51623113","name":"Captain Jack Fish & Chicken","address":"19240 Warren W.","zipcode":"48228"},{"establishmentid":"1510","name":"New Taystee's Pizza","address":"19240 Warren Ave. W.","zipcode":"48228"},{"establishmentid":"51622861","name":"Little Pizza","address":"19240 Warren W.","zipcode":"48228"},{"establishmentid":"51623190","name":"Manhattan Fish and Chicken","address":"19240 Warren W.","zipcode":"48228"},{"establishmentid":"1903","name":"Bottoms Up Bar & Grill","address":"19224 Warren Ave. W.","zipcode":"48228"},{"establishmentid":"690","name":"Diamond Jim's Saloon","address":"19650 Warren Ave. W.","zipcode":"48228"}],"inspectionsByEstablishmentidList":[]}],"maxInspectionDate":[{"inspectionDate":"2023-04-25T00:00:00"}]}},"pageContext":{"eid":"255"}},"staticQueryHashes":["3649515864","63159454"]}