{"data":{"site":{"pathPrefix":"/restaurant-inspections"},"postgres":{"establishment":[{"establishmentid":"51623028","name":"The Aretha Franklin-Bars","address":"2600 Atwater","zipcode":"48207","owner":"The Right Productions, Inc","licenseNumber":"SJ2600c","licenseType":"Fixed Establishment","establishmentType":"Food Service Establishment","establishmentStatus":"Open","riskCategory":"Medium","reviewFrequencyDays":"365.0","coords":"-83.02096,42.33508","geojson":{"id":"51623028","type":"Feature","geometry":{"type":"Point","coordinates":[-83.0209604899999,42.335076186]},"properties":{"name":"The Aretha Franklin-Bars","owner":"The Right Productions, Inc","address":"2600 Atwater","zipcode":"48207","license_type":"Fixed Establishment","risk_category":"Medium","license_number":"SJ2600c","establishmentid":"51623028","establishment_type":"Food Service Establishment","establishment_status":"Open","review_frequency_days":"365.0","most_recent_license_date":"5/31/2019"}},"nearbyList":[{"establishmentid":"2620","name":"The Aretha Franklin Amphiteatre","address":"2600 Atwater St","zipcode":"48207"},{"establishmentid":"4100","name":"University Prep Science & Math High ","address":"2664 Franklin St","zipcode":"48226"},{"establishmentid":"5143","name":"Atwater Brewery","address":"237 Joseph Campau St","zipcode":"48207"},{"establishmentid":"1247","name":"Andrew's on the Corner","address":"201 Joseph Campau Ave","zipcode":"48207"},{"establishmentid":"3974","name":"River Place Bar & Grill","address":"225 Joseph Campau","zipcode":"48201"},{"establishmentid":"5206","name":"Bucharest Grill","address":"2684 E Jefferson Ave","zipcode":"48207"},{"establishmentid":"456","name":"Lucky Dragon","address":"2664 E Jefferson Ave","zipcode":"48207"},{"establishmentid":"3425","name":"They Say/Dunco Holding LLC","address":"267 Joseph Campau","zipcode":"48207"},{"establishmentid":"1450","name":"Rattlesnake Club","address":"300 River Place","zipcode":"48207"},{"establishmentid":"4389","name":"Snake Bites","address":"300 River Place","zipcode":"48207"}],"inspectionsByEstablishmentidList":[]}],"maxInspectionDate":[{"inspectionDate":"2019-05-31T00:00:00"}]}},"pageContext":{"eid":"51623028"}}