{"componentChunkName":"component---src-templates-establishment-page-js","path":"/establishment/2716","result":{"data":{"site":{"pathPrefix":"/restaurant-inspections"},"postgres":{"establishment":[{"establishmentid":"2716","name":"Harmonie Way","address":"218 Grand River E.","zipcode":"48226","owner":"Taher Jaber","licenseNumber":"051647","licenseType":"Fixed Establishment","establishmentType":"Food Service Establishment","establishmentStatus":"Permanently Closed","riskCategory":null,"reviewFrequencyDays":"150","coords":"-83.04665,42.33558","geojson":{"id":"2716","type":"Feature","geometry":{"type":"Point","coordinates":[-83.04665374,42.33558273]},"properties":{"name":"Harmonie Way","owner":"Taher Jaber","address":"218 Grand River E.","zipcode":"48226","license_type":"Fixed Establishment","risk_category":null,"license_number":"051647","establishmentid":"2716","establishment_type":"Food Service Establishment","establishment_status":"Permanently Closed","review_frequency_days":"150","most_recent_license_date":"2008-04-28"}},"nearbyList":[{"establishmentid":"3913","name":"Al's Paradise Cafe, LLC","address":"218  Grand River","zipcode":"48226"},{"establishmentid":"4906","name":"Jose's Tacos, LLC","address":"218 Grand River E.","zipcode":"48226"},{"establishmentid":"4890","name":"Cafe Al Karar","address":"1368 Broadway","zipcode":"48226"},{"establishmentid":"5337","name":"I Luv Cheese","address":"1368  Broadway","zipcode":"48226"},{"establishmentid":"5368","name":"Chubby Duck Detroit","address":"208 Grand River E.","zipcode":"48226"},{"establishmentid":"51623358","name":"I Love You Juicery","address":"206 Grand River E.","zipcode":"48226"},{"establishmentid":"51622905","name":"Detroit Mini Donut","address":"206 Grand River E. Ste 1D","zipcode":"48226"},{"establishmentid":"51623950","name":"Detroit Mini Donut ( Oakland)","address":"214 Grand River E.","zipcode":"48226"},{"establishmentid":"2621","name":"Coaches Corner of Detroit","address":"1465 Centre","zipcode":"48226"},{"establishmentid":"4643","name":"Zante LLC DBA Paris Bar","address":"1344-46 Broadway","zipcode":"48226"}],"inspectionsByEstablishmentidList":[]}],"maxInspectionDate":[{"inspectionDate":"2023-04-25T00:00:00"}]}},"pageContext":{"eid":"2716"}},"staticQueryHashes":["3649515864","63159454"]}