{"componentChunkName":"component---src-templates-establishment-page-js","path":"/establishment/1723","result":{"data":{"site":{"pathPrefix":"/restaurant-inspections"},"postgres":{"establishment":[{"establishmentid":"1723","name":"Anthony's Complete Services","address":"2888 Grand Blvd. W.","zipcode":"48202","owner":"Anthony Scrivo","licenseNumber":"036109","licenseType":"Other","establishmentType":"LHD - Vending","establishmentStatus":"Open","riskCategory":null,"reviewFrequencyDays":"180","coords":"-83.08085,42.36697","geojson":{"id":"1723","type":"Feature","geometry":{"type":"Point","coordinates":[-83.080846577,42.366965988]},"properties":{"name":"Anthony's Complete Services","owner":"Anthony Scrivo","address":"2888 Grand Blvd. W.","zipcode":"48202","license_type":"Other","risk_category":null,"license_number":"036109","establishmentid":"1723","establishment_type":"LHD - Vending","establishment_status":"Open","review_frequency_days":"180","most_recent_license_date":null}},"nearbyList":[{"establishmentid":"4122","name":"City Wings","address":"2896 Grand Blvd. W. ","zipcode":"48202"},{"establishmentid":"51622682","name":"Zo's Good Burger","address":"2894 W. Grand Blvd.","zipcode":"48202"},{"establishmentid":"1103","name":"McDonald's","address":"2889 Grand Blvd. W.","zipcode":"48202"},{"establishmentid":"51624011","name":"Beyond Juicery + Eatery ","address":"2911 Grand Blvd. W. ","zipcode":"48202"},{"establishmentid":"51622939","name":"Beyond Juice & Eatery","address":"2911 Grand Blvd. W.","zipcode":"48202"},{"establishmentid":"1830","name":"Koolies","address":"2850 Grand Blvd. W.","zipcode":"48202"},{"establishmentid":"1755","name":"Total Vending","address":"2850 Grand Blvd. W.","zipcode":"48202"},{"establishmentid":"1727","name":"736 Java Inc.","address":"736 Lothrop","zipcode":"48202"},{"establishmentid":"5333","name":"Pause","address":"736 Lothrop","zipcode":"48202"},{"establishmentid":"1694","name":"Subway #14651","address":"2790 Grand Blvd. W.","zipcode":"48202"}],"inspectionsByEstablishmentidList":[]}],"maxInspectionDate":[{"inspectionDate":"2023-04-25T00:00:00"}]}},"pageContext":{"eid":"1723"}},"staticQueryHashes":["3649515864","63159454"]}