{"componentChunkName":"component---src-templates-establishment-page-js","path":"/establishment/726","result":{"data":{"site":{"pathPrefix":"/restaurant-inspections"},"postgres":{"establishment":[{"establishmentid":"726","name":"High Note Music Inc","address":"13624 Eight Mile Rd. E.","zipcode":"48205","owner":"Beverly J McIntyre","licenseNumber":"073942","licenseType":"Fixed Establishment","establishmentType":"Food Service Establishment","establishmentStatus":"Open","riskCategory":"Low","reviewFrequencyDays":"335","coords":"-82.98471,42.44909","geojson":{"id":"726","type":"Feature","geometry":{"type":"Point","coordinates":[-82.984713712,42.449087432]},"properties":{"name":"High Note Music Inc","owner":"Beverly J McIntyre","address":"13624 Eight Mile Rd. E.","zipcode":"48205","license_type":"Fixed Establishment","risk_category":"Low","license_number":"073942","establishmentid":"726","establishment_type":"Food Service Establishment","establishment_status":"Open","review_frequency_days":"335","most_recent_license_date":"2015-04-30"}},"nearbyList":[{"establishmentid":"725","name":"Player's","address":"13710 Eight Mile Rd. E.","zipcode":"48205"},{"establishmentid":"2144","name":"Pizza to Go","address":"13450 Eight Mile Rd. E.","zipcode":"48205"},{"establishmentid":"1143","name":"Boys & Girls Clubs of S.E. Michigan","address":"20100 Schoenherr","zipcode":"48205"},{"establishmentid":"1165","name":"Trix Elementary","address":"13700 Bringard","zipcode":"48205"},{"establishmentid":"2141","name":"Maitais","address":"13310-18 Eight Mile Rd. E.","zipcode":"48205"},{"establishmentid":"668","name":"New York Diner","address":"12930 Eight Mile Rd. E.","zipcode":"48205"},{"establishmentid":"51622450","name":"Detroit's Finest Coney Island","address":"12930 Eight Mile E.","zipcode":"48205"},{"establishmentid":"51623606","name":"Valentino's Diner","address":"12930 Eight Mile E.","zipcode":"48205"},{"establishmentid":"4729","name":"Brook's Catering Service ","address":"13847 Pfent","zipcode":"48205"},{"establishmentid":"1991","name":"Mama's, Inc.","address":"14620 Eight Mile Rd. E.","zipcode":"48205"}],"inspectionsByEstablishmentidList":[]}],"maxInspectionDate":[{"inspectionDate":"2023-04-25T00:00:00"}]}},"pageContext":{"eid":"726"}},"staticQueryHashes":["3649515864","63159454"]}