{"componentChunkName":"component---src-templates-establishment-page-js","path":"/establishment/4693","result":{"data":{"site":{"pathPrefix":"/restaurant-inspections"},"postgres":{"establishment":[{"establishmentid":"4693","name":"Little Mason","address":"18200 McNichols Rd.","zipcode":"48203","owner":"Mohsin O. Giryoun","licenseNumber":"533-5996","licenseType":"Other","establishmentType":"Food Service Establishment","establishmentStatus":null,"riskCategory":null,"reviewFrequencyDays":null,"coords":"-83.22028,42.41572","geojson":{"id":"4693","type":"Feature","geometry":{"type":"Point","coordinates":[-83.22027835,42.415723804]},"properties":{"name":"Little Mason","owner":"Mohsin O. Giryoun","address":"18200 McNichols Rd.","zipcode":"48203","license_type":"Other","risk_category":null,"license_number":"533-5996","establishmentid":"4693","establishment_type":"Food Service Establishment","establishment_status":null,"review_frequency_days":null,"most_recent_license_date":null}},"nearbyList":[{"establishmentid":"4464","name":"Caribbean Chill & Grill","address":"18200 McNichols Rd. W.","zipcode":"48219"},{"establishmentid":"51622610","name":"Island Spice Caribbean Food Restaurant","address":"18200 McNichols W.","zipcode":"48219"},{"establishmentid":"4327","name":"Mason's Chill & Grill","address":"18200 McNichols Rd. W.","zipcode":"48219"},{"establishmentid":"5178","name":"Great Lakes Burger Bar","address":"18200 McNichols W.","zipcode":"48219"},{"establishmentid":"51623272","name":"Mr. C's Fresh Fish LLC ","address":"18203 W. McNichols ","zipcode":"48219"},{"establishmentid":"2604","name":"Moski Fish and Shrimp","address":"18203 McNichols ave. W.","zipcode":"48219"},{"establishmentid":"4959","name":"Cheng's Garden","address":"18205 McNichols Rd. W.","zipcode":"48219"},{"establishmentid":"5238","name":"Mr. C Fish Market Inc.","address":"18203 McNichols W.","zipcode":"48219"},{"establishmentid":"3090","name":"Mr. FoFo's Express","address":"18151 McNichols Rd. W.","zipcode":"48219"},{"establishmentid":"3591","name":"Asian Corned Beef","address":"18149 McNichols Rd. W. ","zipcode":"48219"}],"inspectionsByEstablishmentidList":[]}],"maxInspectionDate":[{"inspectionDate":"2022-08-31T00:00:00"}]}},"pageContext":{"eid":"4693"}},"staticQueryHashes":["3649515864","63159454"]}