{"componentChunkName":"component---src-templates-establishment-page-js","path":"/establishment/3111","result":{"data":{"site":{"pathPrefix":"/restaurant-inspections"},"postgres":{"establishment":[{"establishmentid":"3111","name":"Super Softy","address":"4000 Miller","zipcode":"48211","owner":"Mukhtar Hasan Nagi Ahmed","licenseNumber":"037378","licenseType":"Mobile Food Establishment","establishmentType":"LHD - Mobile Food Establishmen","establishmentStatus":"Open","riskCategory":null,"reviewFrequencyDays":null,"coords":"-83.04067,42.39035","geojson":{"id":"3111","type":"Feature","geometry":{"type":"Point","coordinates":[-83.040665735,42.390351473]},"properties":{"name":"Super Softy","owner":"Mukhtar Hasan Nagi Ahmed","address":"4000 Miller","zipcode":"48211","license_type":"Mobile Food Establishment","risk_category":null,"license_number":"037378","establishmentid":"3111","establishment_type":"LHD - Mobile Food Establishmen","establishment_status":"Open","review_frequency_days":null,"most_recent_license_date":null}},"nearbyList":[{"establishmentid":"4043","name":"A - H Soft Ice Cream","address":"4000 Miller","zipcode":"48211"},{"establishmentid":"5343","name":"Oakland International Academy","address":"4001 Miller","zipcode":"48212"},{"establishmentid":"4777","name":"Mr. Primo Softy","address":"8215 Winkelman St.","zipcode":"48211"},{"establishmentid":"5342","name":"Oakland International Academy","address":"6111 Miller","zipcode":"48211"},{"establishmentid":"5218","name":"S & A Ice Cream","address":"8189 Winkelman St.","zipcode":"48211"},{"establishmentid":"51623726","name":"Spiderman Soft Serve","address":"8154 Winkleman St","zipcode":"48211"},{"establishmentid":"4059","name":"Mr. Amigo Softey Ice cream","address":"6134 Dorothy","zipcode":"48211"},{"establishmentid":"4893","name":"Detroit Softy","address":"4112 Oliver","zipcode":"48211"},{"establishmentid":"5344","name":"Oakland International Academy","address":"8228 Conant","zipcode":"48211"},{"establishmentid":"2175","name":"Detroit Mr. Softy","address":"7934 Klein","zipcode":"48211"}],"inspectionsByEstablishmentidList":[]}],"maxInspectionDate":[{"inspectionDate":"2023-04-25T00:00:00"}]}},"pageContext":{"eid":"3111"}},"staticQueryHashes":["3649515864","63159454"]}