{"componentChunkName":"component---src-templates-establishment-page-js","path":"/establishment/4304","result":{"data":{"site":{"pathPrefix":"/restaurant-inspections"},"postgres":{"establishment":[{"establishmentid":"4304","name":"Aisha Shule/W.E.B. Dubois Preparatory ","address":"20119 Wisconsin","zipcode":"48221","owner":"Detroit Public School","licenseNumber":"072939","licenseType":"Fixed Establishment","establishmentType":"Public School","establishmentStatus":"Permanently Closed","riskCategory":null,"reviewFrequencyDays":"180","coords":"-83.15862,42.44144","geojson":{"id":"4304","type":"Feature","geometry":{"type":"Point","coordinates":[-83.158621531,42.441438982]},"properties":{"name":"Aisha Shule/W.E.B. Dubois Preparatory ","owner":"Detroit Public School","address":"20119 Wisconsin","zipcode":"48221","license_type":"Fixed Establishment","risk_category":null,"license_number":"072939","establishmentid":"4304","establishment_type":"Public School","establishment_status":"Permanently Closed","review_frequency_days":"180","most_recent_license_date":"2013-06-28"}},"nearbyList":[{"establishmentid":"1676","name":"HIGH SCHOOL OF COMMERCE","address":"20119 Wisconsin","zipcode":"48221"},{"establishmentid":"1249","name":"Johnson Recreation Center","address":"8640 Chippewa","zipcode":"48207"},{"establishmentid":"51623556","name":"Wyoming Avenue Church of Christ","address":"20131 Wyoming","zipcode":"48221"},{"establishmentid":"825","name":"Bates Academy","address":"19701 Wyoming Ave.","zipcode":"48221"},{"establishmentid":"3716","name":"Chik-N-Wings","address":"10145 Eight Mile Rd. W.","zipcode":"48221"},{"establishmentid":"51623609","name":"The Main Ingredient-U Cheffin Right LLC","address":"20515 Griggs","zipcode":"48221"},{"establishmentid":"1584","name":"U Of D Jesuit High School","address":"8400 Cambridge S.","zipcode":"48221"},{"establishmentid":"51623974","name":"BBQ Mike Mike Flammin Grill ","address":"8626  W. Seven Mile ","zipcode":"48221"},{"establishmentid":"4717","name":"New Horizon Grill","address":"10038  W. 7 Mile Rd.","zipcode":"48221"},{"establishmentid":"1364","name":"Michigan Coney Island","address":"10038 Seven Mile W.","zipcode":"48221"}],"inspectionsByEstablishmentidList":[]}],"maxInspectionDate":[{"inspectionDate":"2023-04-25T00:00:00"}]}},"pageContext":{"eid":"4304"}},"staticQueryHashes":["3649515864","63159454"]}