{"componentChunkName":"component---src-templates-establishment-page-js","path":"/establishment/51624019","result":{"data":{"site":{"pathPrefix":"/restaurant-inspections"},"postgres":{"establishment":[{"establishmentid":"51624019","name":"Green Mile Grille","address":"12201 Harper","zipcode":"48213","owner":"","licenseNumber":"000000","licenseType":"Special Transitory Food Unit","establishmentType":null,"establishmentStatus":null,"riskCategory":null,"reviewFrequencyDays":null,"coords":"-82.98199,42.39972","geojson":{"id":"51624019","type":"Feature","geometry":{"type":"Point","coordinates":[-82.981993124,42.399718591]},"properties":{"name":"Green Mile Grille","owner":"","address":"12201 Harper","zipcode":"48213","license_type":"Special Transitory Food Unit","risk_category":null,"license_number":"000000","establishmentid":"51624019","establishment_type":null,"establishment_status":null,"review_frequency_days":null,"most_recent_license_date":null}},"nearbyList":[{"establishmentid":"1716","name":"Joy of Jesus","address":"12255 Camden","zipcode":"48213"},{"establishmentid":"1060","name":"Macomb Elementary","address":"12021 Evanston","zipcode":"48213"},{"establishmentid":"4820","name":"Bates & Company","address":"11585  Harper Ave.","zipcode":"48205"},{"establishmentid":"3656","name":"#2 Soul Brother","address":"12715 Harper Ave.","zipcode":"48213"},{"establishmentid":"4190","name":"Ginas Soul Food","address":"12715 Harper","zipcode":"48213"},{"establishmentid":"4961","name":"New Harper Seafood & Chicken","address":"12715 Harper","zipcode":"48213"},{"establishmentid":"1918","name":"Sambo's Fish & Chicken Coop","address":"12715 Harper","zipcode":"48215"},{"establishmentid":"3546","name":"Mr. Rick's Soul Food Headquarters","address":"12715 Harper Ave.","zipcode":"48213"},{"establishmentid":"1832","name":"Robinson Dairy Vending","address":"5901 Conner","zipcode":"48213"},{"establishmentid":"3165","name":"Subway WCCC","address":"5901 Conner Ave.","zipcode":"48213"}],"inspectionsByEstablishmentidList":[]}],"maxInspectionDate":[{"inspectionDate":"2023-04-13T00:00:00"}]}},"pageContext":{"eid":"51624019"}},"staticQueryHashes":["3649515864","63159454"]}