{"data":{"site":{"pathPrefix":"/restaurant-inspections"},"postgres":{"establishment":[{"establishmentid":"51623014","name":"Saleh Ice Cream","address":"6356 Selkirk St","zipcode":"48211","owner":"Saleh Saleh","licenseNumber":"238081","licenseType":"Mobile Food Establishment","establishmentType":"LHD - Mobile Food Establishmen","establishmentStatus":"Seasonal","riskCategory":null,"reviewFrequencyDays":"90.0","coords":"-83.03647,42.38951","geojson":{"id":"51623014","type":"Feature","geometry":{"type":"Point","coordinates":[-83.036467541,42.389510445]},"properties":{"name":"Saleh Ice Cream","owner":"Saleh Saleh","address":"6356 Selkirk St","zipcode":"48211","license_type":"Mobile Food Establishment","risk_category":null,"license_number":"238081","establishmentid":"51623014","establishment_type":"LHD - Mobile Food Establishmen","establishment_status":"Seasonal","review_frequency_days":"90.0","most_recent_license_date":"5/15/2019"}},"nearbyList":[{"establishmentid":"3944","name":"Ice Cream Land","address":"6338 Selkirk St","zipcode":"48211"},{"establishmentid":"5342","name":"Oakland International Academy","address":"6111 Miller St","zipcode":"48211"},{"establishmentid":"5343","name":"Oakland International Academy","address":"4001 Miller St","zipcode":null},{"establishmentid":"51623019","name":"Detroit Soft Serve","address":"6116 Georgia St","zipcode":"48211"},{"establishmentid":"4777","name":"Mr. Primo Softy","address":"8215 Winkelman Street","zipcode":"48211"},{"establishmentid":"5218","name":"S & A Ice Cream","address":"8189 Winkelman St","zipcode":"48211"},{"establishmentid":"4005","name":"M H Soft Serve","address":"4177 Dodge St","zipcode":"48211"},{"establishmentid":"5344","name":"Oakland International Academy","address":"8228 Conant St","zipcode":"48211"},{"establishmentid":"4810","name":"U.S.A Ice Cream","address":"4069 Dodge St","zipcode":"48211"},{"establishmentid":"5353","name":"Fresh Land","address":"6185 Marcos","zipcode":"48211"}],"inspectionsByEstablishmentidList":[{"inspectionid":"47755","inspectionDate":"2019-05-20T00:00:00","inspectionType":"Mobile Inspection","inCompliance":"Yes","violationsByInspectionidList":[{"violationCode":"4-602.13","violationDescription":"NonFOOD-CONTACT SURFACES of EQUIPMENT shall be cleaned at a frequency necessary to preclude accumulation of soil residues.\r\n","violationType":"Core","itemDescription":"Nonfood contact surface(s)","subItem":"","problemDescription":"Soiled","subProblem":"","location":"MOBILE UNIT","subLocation":"","corrected":"Not required","daysToCorrect":"30.0","correctedDate":null,"correctionDescription":null}]}]}],"maxInspectionDate":[{"inspectionDate":"2019-10-31T00:00:00"}]}},"pageContext":{"eid":"51623014"}}