{"data":{"site":{"pathPrefix":"/restaurant-inspections"},"postgres":{"establishment":[{"establishmentid":"5064","name":"Salvation Army #12","address":"3737 Lawton St","zipcode":"48208","owner":"The Salvation Army","licenseNumber":"234789","licenseType":"Mobile Food Establishment","establishmentType":"LHD - Mobile Food Establishmen","establishmentStatus":"Seasonal","riskCategory":null,"reviewFrequencyDays":"210","coords":"-83.09026,42.33823","geojson":{"id":"5064","type":"Feature","geometry":{"type":"Point","coordinates":[-83.090262927,42.338228243]},"properties":{"name":"Salvation Army #12","owner":"The Salvation Army","address":"3737 Lawton St","zipcode":"48208","license_type":"Mobile Food Establishment","risk_category":null,"license_number":"234789","establishmentid":"5064","establishment_type":"LHD - Mobile Food Establishmen","establishment_status":"Seasonal","review_frequency_days":"210","most_recent_license_date":"4/25/2019"}},"nearbyList":[{"establishmentid":"3854","name":"Salvation Army #2","address":"3737 Lawton St","zipcode":"48208"},{"establishmentid":"3855","name":"Salvation Army #3","address":"3737 Lawton St","zipcode":"48208"},{"establishmentid":"3853","name":"Salvation Army #1","address":"3737 Lawton St","zipcode":"48208"},{"establishmentid":"3856","name":"Salvation Army #4","address":"3737 Lawton St","zipcode":"48208"},{"establishmentid":"2727","name":"Salvation Army","address":"3737 Lawton St","zipcode":"48208"},{"establishmentid":"1527","name":"Ferguson Building","address":"2750 Selden St","zipcode":"48208"},{"establishmentid":"51622907","name":"Covenant House Academy-Central","address":"2959 Martin Luther King Blvd","zipcode":"48208"},{"establishmentid":"4673","name":"Covenant Central-Covenent House Michigan","address":"2959 Martin Luther King ","zipcode":"48208"},{"establishmentid":"1640","name":"University of Detroit Dental School","address":"2700 Martin L King Jr. Blvd","zipcode":"48208"},{"establishmentid":"595","name":"Hy-Grade Delicatessen Restaurant, Inc.","address":"3640 Michigan Ave","zipcode":"48216"}],"inspectionsByEstablishmentidList":[{"inspectionid":"42854","inspectionDate":"2018-07-10T00:00:00","inspectionType":"Mobile Inspection","inCompliance":"Yes","violationsByInspectionidList":[{"violationCode":"5-205.15","violationDescription":"A PLUMBING SYSTEM shall be:\r\n(A) Repaired according to LAW; (P) and\r\n(B) Maintained in good repair.\r\n","violationType":"Core","itemDescription":"Plumbing system","subItem":"","problemDescription":"Not maintained","subProblem":"","location":"TRUCK","subLocation":"At the Handsink","corrected":"Not required","daysToCorrect":"10","correctedDate":null,"correctionDescription":"Maintain in good repair"}]}]}],"maxInspectionDate":[{"inspectionDate":"2020-05-29T00:00:00"}]}},"pageContext":{"eid":"5064"}}