{"data":{"site":{"pathPrefix":"/restaurant-inspections"},"postgres":{"establishment":[{"establishmentid":"51622897","name":"Yum Village LLC","address":"6500 Woodward Ave","zipcode":"48202","owner":"Godwin Ihentuge","licenseNumber":"234398","licenseType":"Fixed Establishment","establishmentType":"Food Service Establishment","establishmentStatus":"Open","riskCategory":"High","reviewFrequencyDays":"180.0","coords":"-83.07225,42.36937","geojson":{"id":"51622897","type":"Feature","geometry":{"type":"Point","coordinates":[-83.072252868,42.3693666500001]},"properties":{"name":"Yum Village LLC","owner":"Godwin Ihentuge","address":"6500 Woodward Ave","zipcode":"48202","license_type":"Fixed Establishment","risk_category":"High","license_number":"234398","establishmentid":"51622897","establishment_type":"Food Service Establishment","establishment_status":"Open","review_frequency_days":"180.0","most_recent_license_date":"12/19/2018"}},"nearbyList":[{"establishmentid":"5183","name":"Atomic Chicken","address":"6500 Woodward Ave","zipcode":"48202"},{"establishmentid":"529","name":"Woodward Cocktail Bar","address":"6426 Woodward Ave","zipcode":"48202"},{"establishmentid":"4119","name":"Motown Coney Island","address":"6501 Woodward Ave","zipcode":"48202"},{"establishmentid":"2153","name":"White Castle #44","address":"6364 Woodward Ave","zipcode":"48202"},{"establishmentid":"3608","name":"Firewater Bar & Grill II","address":"107 E Milwaukee Ave.  ","zipcode":"48202"},{"establishmentid":"2165","name":"New Center Eatery","address":"3100 W Grand Blvd","zipcode":"48202"},{"establishmentid":"698","name":"New China Wang","address":"7414 Woodward Ave","zipcode":"48202"},{"establishmentid":"5413","name":"Franklin Wright Settlement Inc.","address":"7375 Woodward Ave","zipcode":"48202"},{"establishmentid":"4958","name":"Don Bosco Hall/YouthVille Detroit","address":"7375 Woodward Ave","zipcode":"48202"},{"establishmentid":"51622452","name":"Matrix Human Services","address":"7375 Woodward Ave","zipcode":"48202"}],"inspectionsByEstablishmentidList":[{"inspectionid":"44574","inspectionDate":"2018-12-19T00:00:00","inspectionType":"Preopening/New","inCompliance":"Yes","violationsByInspectionidList":[]}]}],"maxInspectionDate":[{"inspectionDate":"2019-01-31T00:00:00"}]}},"pageContext":{"eid":"51622897"}}