{"data":{"site":{"pathPrefix":"/restaurant-inspections"},"postgres":{"establishment":[{"establishmentid":"51623138","name":"Beyond Juicery & Eatery Ren Center","address":"400 Renaissance Center","zipcode":"48243","owner":"Joe Bonanni","licenseNumber":"247258","licenseType":"Fixed Establishment","establishmentType":"Food Service Establishment","establishmentStatus":"Plan Review","riskCategory":"High","reviewFrequencyDays":"180","coords":"-83.03977,42.32903","geojson":{"id":"51623138","type":"Feature","geometry":{"type":"Point","coordinates":[-83.039765058,42.32902788]},"properties":{"name":"Beyond Juicery & Eatery Ren Center","owner":"Joe Bonanni","address":"400 Renaissance Center","zipcode":"48243","license_type":"Fixed Establishment","risk_category":"High","license_number":"247258","establishmentid":"51623138","establishment_type":"Food Service Establishment","establishment_status":"Plan Review","review_frequency_days":"180","most_recent_license_date":"12/17/2019"}},"nearbyList":[{"establishmentid":"3242","name":"Coffee Beanery","address":"300 Renaissance Center","zipcode":"48226"},{"establishmentid":"1135","name":"Detroit Marriott Main Kitchen Hotel","address":"400 Renaissance Center","zipcode":"48243"},{"establishmentid":"4523","name":"Chop Fresh Salad Co.","address":"100 Renaissance Center","zipcode":"48234"},{"establishmentid":"3390","name":"Coach Insignia","address":"400 Renaissance Center","zipcode":"48243"},{"establishmentid":"3389","name":"Andiamo Riverfront","address":"400 Renaissance Center","zipcode":"48243"},{"establishmentid":"5109","name":"Andiamo Concert Venue","address":"400 Renaissance Center","zipcode":"48234"},{"establishmentid":"4279","name":"Andiamo Pizza Pie Company","address":"100 Renassiance Center ","zipcode":"48243"},{"establishmentid":"5404","name":"Bozii Restaurant","address":"100 Renaissance Center","zipcode":"48226"},{"establishmentid":"1359","name":"Burger King Corp #13332","address":"200 Renaissance Center","zipcode":"48243"},{"establishmentid":"51622829","name":"Golden Express Chinese","address":"200 Renaissance Center","zipcode":"48243"}],"inspectionsByEstablishmentidList":[{"inspectionid":"50786","inspectionDate":"2020-02-19T00:00:00","inspectionType":"Routine Inspection","inCompliance":"Yes","violationsByInspectionidList":[{"violationCode":"6-201.11","violationDescription":"Except otherwise approved, and except for antislip floor coverings or applications may be used for safety reasons, floors, floor coverings, walls, wall coverings, and ceilings shall be designed, constructed, and installed so they are SMOOTH and EASILY CLEANABLE.\r\n","violationType":"Core","itemDescription":"wall(s)","subItem":"","problemDescription":"Not constructed, designed, installed to be","subProblem":"Easily cleanable","location":"KITCHEN","subLocation":"","corrected":"Not required","daysToCorrect":"30","correctedDate":null,"correctionDescription":null}]}]}],"maxInspectionDate":[{"inspectionDate":"2020-05-29T00:00:00"}]}},"pageContext":{"eid":"51623138"}}