{"data":{"site":{"pathPrefix":null},"postgres":{"establishment":[{"establishmentid":"51622490","name":"Foundation Hotel- Chef's Table","address":"250 W Larned","zipcode":"48226","owner":"250 W Larned MT LLC","licenseNumber":"218011","licenseType":"Fixed Establishment","establishmentType":"Food Service Establishment","establishmentStatus":"Open","riskCategory":"High","reviewFrequencyDays":"180.0","coords":"-83.04843,42.32832","geojson":{"id":"51622490","type":"Feature","geometry":{"type":"Point","coordinates":[-83.048432524,42.3283203020001]},"properties":{"name":"Foundation Hotel- Chef's Table","owner":"250 W Larned MT LLC","address":"250 W Larned","zipcode":"48226","license_type":"Fixed Establishment","risk_category":"High","license_number":"218011","establishmentid":"51622490","establishment_type":"Food Service Establishment","establishment_status":"Open","review_frequency_days":"180.0","most_recent_license_date":"4/19/2018"}},"nearbyList":[{"establishmentid":"51622491","name":"Foundation Hotel- Banquet","address":"250 W Larned","zipcode":"48226"},{"establishmentid":"5396","name":"Foundation Hotel- Apparatus Room","address":"250 W Larned","zipcode":"48226"},{"establishmentid":"51622489","name":"Foundation Hotel- Employee Dining","address":"250 W Larned","zipcode":"48226"},{"establishmentid":"3496","name":"The Bean Bar","address":"249 W Congress St","zipcode":"48226"},{"establishmentid":"3513","name":"Blue Star Cafe","address":"239 W Congress St","zipcode":"48226"},{"establishmentid":"5149","name":"Epitome Lounge","address":"205 W Congress","zipcode":"48226"},{"establishmentid":"51622749","name":"Trust Night Club","address":"205 W Congress","zipcode":"4821"},{"establishmentid":"4628","name":"La Dulce","address":"2 Washington Blvd","zipcode":"48226"},{"establishmentid":"4918","name":"Pontchartrain Hotel- Top of the Pontch","address":"2 Washington Blvd","zipcode":"48226"},{"establishmentid":"51622736","name":"Pontchartrain Hotel-Jefferson House/Main","address":"2 Washington Blvd","zipcode":"48226"}],"inspectionsByEstablishmentidList":[{"inspectionid":"44233","inspectionDate":"2018-11-01T00:00:00","inspectionType":"Routine Inspection","inCompliance":"Yes","violationsByInspectionidList":[]},{"inspectionid":"41999","inspectionDate":"2018-04-24T00:00:00","inspectionType":"Routine Inspection","inCompliance":"Yes","violationsByInspectionidList":[]},{"inspectionid":"40145","inspectionDate":"2017-09-29T00:00:00","inspectionType":"Routine Inspection","inCompliance":"Yes","violationsByInspectionidList":[{"violationCode":"4-501.114","violationDescription":"A chemical SANITIZER used in a SANITIZING solution for a manual or\r\nmechanical operation shall meet these limits or as otherwise approved: (P)\r\n\tChlorine        ppm           pH<10             pH<8\r\n\t\t      25              120 F              120 F\r\n\t\t      50              100 F              75 F\r\n\t\t     100              55 F               55 F\r\n                 Iodine           a concentration of between 12.5 and 25 ppm and minimum temp of 75 F and pH of 5 or less or meets manufacturer's specifications. (P)\r\n\r\n                Quats            minimum temperature of 75 F, hardness of 500 ppm or less and meet manufacturers use directions. (P)\r\n","violationType":"Priority","itemDescription":"Quaternary ammonia solution","subItem":"","problemDescription":"Below 100 ppm","subProblem":"","location":"SANITIZER BUCKETS","subLocation":"","corrected":"Yes","daysToCorrect":"10.0","correctedDate":"2017-09-29T00:00:00","correctionDescription":"Provide correct concentration as stated above."}]}]}]}},"pageContext":{"eid":"51622490"}}