{"data":{"site":{"pathPrefix":"/restaurant-inspections"},"postgres":{"establishment":[{"establishmentid":"51622586","name":"A Taste of Motown","address":"11559 Kenmoor St","zipcode":"48205","owner":"Derrick Johnson","licenseNumber":"229340","licenseType":"Special Transitory Food Unit","establishmentType":"LHD - Mobile Food Establishmen","establishmentStatus":"Seasonal","riskCategory":"Medium","reviewFrequencyDays":"395.0","coords":"-83.00282,42.41861","geojson":{"id":"51622586","type":"Feature","geometry":{"type":"Point","coordinates":[-83.0028229489999,42.4186052250001]},"properties":{"name":"A Taste of Motown","owner":"Derrick Johnson","address":"11559 Kenmoor St","zipcode":"48205","license_type":"Special Transitory Food Unit","risk_category":"Medium","license_number":"229340","establishmentid":"51622586","establishment_type":"LHD - Mobile Food Establishmen","establishment_status":"Seasonal","review_frequency_days":"395.0","most_recent_license_date":"3/12/2018"}},"nearbyList":[{"establishmentid":"309","name":"P.P.H. Lounge","address":"11526 Portlance St","zipcode":"48205"},{"establishmentid":"3750","name":"Zorba's Coney Island","address":"11701 E McNichols Ave","zipcode":"48205"},{"establishmentid":"5271","name":"S & T Fresh Fish & Seafood 2 Inc.","address":"11395 E McNichols Rd","zipcode":"48234"},{"establishmentid":"3321","name":"Brenda Scott Middle School","address":"18400 Hoover Rd","zipcode":"48214"},{"establishmentid":"1385","name":"Little Caesar's Pizza #81","address":"12039 Gratiot Ave","zipcode":"48205"},{"establishmentid":"951","name":"Turning Point Academy","address":"12300 Linnhurst","zipcode":"48205"},{"establishmentid":"1311","name":"Long John Silvers #3464","address":"11288 Gratiot Ave","zipcode":"48213"},{"establishmentid":"1167","name":"Fleming Elementary","address":"18501 Waltham St","zipcode":"48205"},{"establishmentid":"5003","name":"Coney Connection","address":"10993 Gratiot Ave","zipcode":"48205"},{"establishmentid":"51622640","name":"Rio's Coney Island","address":"10993 Gratiot Ave","zipcode":"48213"}],"inspectionsByEstablishmentidList":[]}],"maxInspectionDate":[{"inspectionDate":"2019-03-31T00:00:00"}]}},"pageContext":{"eid":"51622586"}}