{"componentChunkName":"component---src-templates-establishment-page-js","path":"/establishment/51623196","result":{"data":{"site":{"pathPrefix":"/restaurant-inspections"},"postgres":{"establishment":[{"establishmentid":"51623196","name":"Front Page Deli","address":"14744 W. Chicago Ave.","zipcode":"48228","owner":"Anthony Thompson","licenseNumber":"249314","licenseType":"Fixed Establishment","establishmentType":"Food Service Establishment","establishmentStatus":"Temporarily Closed","riskCategory":null,"reviewFrequencyDays":null,"coords":"-83.18950,42.36575","geojson":{"id":"51623196","type":"Feature","geometry":{"type":"Point","coordinates":[-83.1894989,42.36575317]},"properties":{"name":"Front Page Deli","owner":"Anthony Thompson","address":"14744 W. Chicago Ave.","zipcode":"48228","license_type":"Fixed Establishment","risk_category":null,"license_number":"249314","establishmentid":"51623196","establishment_type":"Food Service Establishment","establishment_status":"Temporarily Closed","review_frequency_days":null,"most_recent_license_date":null}},"nearbyList":[{"establishmentid":"3535","name":"Front Page Deli","address":"14744  Chicago W.","zipcode":"48228"},{"establishmentid":"1484","name":"Mr. B's Golden Apple","address":"9429 Hubbell","zipcode":"48228"},{"establishmentid":"3463","name":"Breithaupt Career/Technical Center","address":"9300  Hubbell","zipcode":"48228"},{"establishmentid":"51623406","name":"TP's Eat & Treat ","address":"9982 Hubbell ","zipcode":null},{"establishmentid":"1072","name":"Chuck's Millionaire","address":"14701 Plymouth Rd.","zipcode":"48227"},{"establishmentid":"5065","name":"Johnson's Southern Bar And Grille","address":"14701 Plymouth","zipcode":"48227"},{"establishmentid":"3136","name":"B'There Lounge","address":"15410 Chicago W.","zipcode":"48228"},{"establishmentid":"734","name":"Verdell's Lounge","address":"14826 Plymouth Rd.","zipcode":"48227"},{"establishmentid":"4991","name":"Renaissance Grill","address":"14620 Plymouth","zipcode":"48227"},{"establishmentid":"928","name":"GEORGES KONEY TIME","address":"14620 Plymouth Rd.","zipcode":"48227"}],"inspectionsByEstablishmentidList":[]}],"maxInspectionDate":[{"inspectionDate":"2023-04-25T00:00:00"}]}},"pageContext":{"eid":"51623196"}},"staticQueryHashes":["3649515864","63159454"]}