{"componentChunkName":"component---src-templates-establishment-page-js","path":"/establishment/4347","result":{"data":{"site":{"pathPrefix":"/restaurant-inspections"},"postgres":{"establishment":[{"establishmentid":"4347","name":"Canstrong Catering","address":"18100 Meyers Ave.","zipcode":"48235","owner":"Canstrong, LLC","licenseNumber":"PR101011","licenseType":"Fixed Establishment","establishmentType":"Food Service Establishment","establishmentStatus":"Permanently Closed","riskCategory":null,"reviewFrequencyDays":"335","coords":"-83.16948,42.42305","geojson":{"id":"4347","type":"Feature","geometry":{"type":"Point","coordinates":[-83.169477626,42.42305461]},"properties":{"name":"Canstrong Catering","owner":"Canstrong, LLC","address":"18100 Meyers Ave.","zipcode":"48235","license_type":"Fixed Establishment","risk_category":null,"license_number":"PR101011","establishmentid":"4347","establishment_type":"Food Service Establishment","establishment_status":"Permanently Closed","review_frequency_days":"335","most_recent_license_date":null}},"nearbyList":[{"establishmentid":"1705","name":"Northwest Community Programs, Inc.","address":"18100 Meyers","zipcode":"48235"},{"establishmentid":"4618","name":"L.A. Taste Therapy","address":"18100 Meyers","zipcode":"48238"},{"establishmentid":"850","name":"Schulze Elementary School","address":"10700 Santa Maria","zipcode":"48221"},{"establishmentid":"51623584","name":"Lil' Chuck's Grubox LLC","address":"17338 Pinehurst","zipcode":"48221"},{"establishmentid":"911","name":"Mumford High School","address":"17525 Wyoming Ave.","zipcode":"48221"},{"establishmentid":"51623821","name":"N and L Mini Kitchen Serving","address":"10701 Santa Maria #25","zipcode":"48221"},{"establishmentid":"3879","name":"Franks Anatra","address":"18700 Meyers","zipcode":"48221"},{"establishmentid":"2846","name":"Continental Canteen","address":"18700 Meyers","zipcode":"48235"},{"establishmentid":"1228","name":"Lon's Coney Island","address":"10741 McNichols Rd. W.","zipcode":"48221"},{"establishmentid":"1160","name":"Caribbean Citchen","address":"10500 McNichols Rd. W.","zipcode":"48221"}],"inspectionsByEstablishmentidList":[]}],"maxInspectionDate":[{"inspectionDate":"2022-08-31T00:00:00"}]}},"pageContext":{"eid":"4347"}},"staticQueryHashes":["3649515864","63159454"]}