{"data":{"site":{"pathPrefix":"/restaurant-inspections"},"postgres":{"establishment":[{"establishmentid":"1524","name":"North American Indian Association","address":"22720 Plymouth Rd","zipcode":"48239","owner":"North American Indian Associat","licenseNumber":"073176","licenseType":"Fixed Establishment","establishmentType":"Food Service Establishment","establishmentStatus":"Open","riskCategory":null,"reviewFrequencyDays":"365.0","coords":"-83.26489,42.37181","geojson":{"id":"1524","type":"Feature","geometry":{"type":"Point","coordinates":[-83.264887108,42.371813423]},"properties":{"name":"North American Indian Association","owner":"North American Indian Associat","address":"22720 Plymouth Rd","zipcode":"48239","license_type":"Fixed Establishment","risk_category":null,"license_number":"073176","establishmentid":"1524","establishment_type":"Food Service Establishment","establishment_status":"Open","review_frequency_days":"365.0","most_recent_license_date":null}},"nearbyList":[{"establishmentid":"2605","name":"Prince Pizza II","address":"22507 Plymouth Rd","zipcode":"48239"},{"establishmentid":"3921","name":"Westside Christian Academy","address":"9540 Bramell St","zipcode":"48239"},{"establishmentid":"4181","name":"Detroit Leadership Academy","address":"13550 Virgil","zipcode":"48223"},{"establishmentid":"261","name":"Park-Joy Bar","address":"23220 Joy Rd","zipcode":"48239"},{"establishmentid":"991","name":"Rouge Park Golf Course","address":"11701 Burt Rd","zipcode":"48228"},{"establishmentid":"4368","name":"Club Yesterdays","address":"14060 Telegraph Rd","zipcode":"48239"},{"establishmentid":"956","name":"La Chambre Lounge","address":"14090 Telegraph Rd","zipcode":"48239"},{"establishmentid":"5176","name":"Mary's Grill #2","address":"20804 Plymouth","zipcode":"48228"},{"establishmentid":"3447","name":"Detroit Community Schools","address":"12675 Burt Rd","zipcode":"48223"},{"establishmentid":"890","name":"Dixon Educational Learning Center","address":"8401 Trinity St","zipcode":"48228"},{"establishmentid":"262","name":"B. M. G. Bar & Grill","address":"20809 Joy Rd","zipcode":"48228"},{"establishmentid":"1236","name":"Ann Arbor Trail Magnet School","address":"7635 Chatham St","zipcode":"48228"},{"establishmentid":"1786","name":"Burger King","address":"20240 Plymouth Rd","zipcode":"48228"},{"establishmentid":"5299","name":"Plymouth Ocean Delight- Manhattan Fish","address":"20100 Plymouth Rd Suite B","zipcode":"48228"},{"establishmentid":"977","name":"Olympia Coney Island","address":"20040 Plymouth Rd","zipcode":"48228"},{"establishmentid":"4175","name":"Samuel Gompers Learning Academy PK-8","address":"14450 Burt Rd","zipcode":"48223"},{"establishmentid":"4036","name":"Ronald Brown Academy (Annex)","address":"11450 E Outer Drive","zipcode":"48224"},{"establishmentid":"4823","name":"City Covenant Church","address":"13624 Stout","zipcode":"48223"},{"establishmentid":"51622718","name":"Green House Soups & Chili","address":"22735 Fenkell St","zipcode":"48223"},{"establishmentid":"51622831","name":"Soula Culinary Ambition LLC","address":"22735 Fenkell","zipcode":"48214"}],"inspectionsByEstablishmentidList":[{"inspectionid":"42982","inspectionDate":"2018-07-26T00:00:00","inspectionType":"Routine Inspection","inCompliance":"Yes","violationsByInspectionidList":[]},{"inspectionid":"39364","inspectionDate":"2017-07-18T00:00:00","inspectionType":"Routine Inspection","inCompliance":"Yes","violationsByInspectionidList":[]}]}]}},"pageContext":{"eid":"1524"}}