{"componentChunkName":"component---src-templates-establishment-page-js","path":"/establishment/4488","result":{"data":{"site":{"pathPrefix":"/restaurant-inspections"},"postgres":{"establishment":[{"establishmentid":"4488","name":"Sister Love Treats","address":"9126 Ward St.","zipcode":"48228","owner":"Renita McCoy Smith","licenseNumber":"039093","licenseType":"Special Transitory Food Unit","establishmentType":"LHD - Special Transitory Food","establishmentStatus":"Seasonal","riskCategory":"Medium","reviewFrequencyDays":"335","coords":"-83.17242,42.36136","geojson":{"id":"4488","type":"Feature","geometry":{"type":"Point","coordinates":[-83.172423928,42.361364225]},"properties":{"name":"Sister Love Treats","owner":"Renita McCoy Smith","address":"9126 Ward St.","zipcode":"48228","license_type":"Special Transitory Food Unit","risk_category":"Medium","license_number":"039093","establishmentid":"4488","establishment_type":"LHD - Special Transitory Food","establishment_status":"Seasonal","review_frequency_days":"335","most_recent_license_date":"5/1/2013"}},"nearbyList":[{"establishmentid":"930","name":"McFarlane Elementary","address":"8900 Cheyenne","zipcode":"48238"},{"establishmentid":"51622726","name":"Genesis House II","address":"12900 W. Chicago ","zipcode":"48228"},{"establishmentid":"2338","name":"Joy Grill Coney Island","address":"12701 Joy Rd.","zipcode":"48228"},{"establishmentid":"3976","name":"Manhattan Fish and Chicken","address":"8712 Schaefer Ave. ","zipcode":"48228"},{"establishmentid":"3515","name":"Mr. C's Deli & Ice Cream","address":"13344 Chicago W. ","zipcode":"48228"},{"establishmentid":"1612","name":"Oscar's Coney Island #8","address":"10801 Chicago W.","zipcode":"48204"},{"establishmentid":"51623187","name":"Subway/ S & S General Services ","address":"13603 W. Chicago","zipcode":"48220"},{"establishmentid":"527","name":"Lon's Ham and Corned Beef","address":"13600 Chicago  Ave.W.","zipcode":"48228"},{"establishmentid":"1287","name":"Napolean's Retreat","address":"13635 Chicago W.","zipcode":"48228"},{"establishmentid":"505","name":"Blue Star Lounge","address":"10600 Joy Rd.","zipcode":"48204"}],"inspectionsByEstablishmentidList":[]}],"maxInspectionDate":[{"inspectionDate":"2022-07-25T00:00:00"}]}},"pageContext":{"eid":"4488"}},"staticQueryHashes":["3649515864","63159454"]}