{"componentChunkName":"component---src-templates-establishment-page-js","path":"/establishment/4439","result":{"data":{"site":{"pathPrefix":"/restaurant-inspections"},"postgres":{"establishment":[{"establishmentid":"4439","name":"Pat's Roll Call Cafe ","address":"1600 Clay St.","zipcode":"48211","owner":"Patricia Jones","licenseNumber":"073849","licenseType":"Fixed Establishment","establishmentType":"Food Service Establishment","establishmentStatus":"Open","riskCategory":"High","reviewFrequencyDays":"150","coords":"-83.06041,42.37842","geojson":{"id":"4439","type":"Feature","geometry":{"type":"Point","coordinates":[-83.060413351,42.378418224]},"properties":{"name":"Pat's Roll Call Cafe ","owner":"Patricia Jones","address":"1600 Clay St.","zipcode":"48211","license_type":"Fixed Establishment","risk_category":"High","license_number":"073849","establishmentid":"4439","establishment_type":"Food Service Establishment","establishment_status":"Open","review_frequency_days":"150","most_recent_license_date":null}},"nearbyList":[{"establishmentid":"3794","name":"Sam & Ada's Special Delight Dollar Deli","address":"1600 Clay St.","zipcode":"48211"},{"establishmentid":"4328","name":"Karen's Cornbeef and Things","address":"1600 Clay St.","zipcode":"48216"},{"establishmentid":"5346","name":"Clay Street Entertainment","address":"1600 Clay St.","zipcode":"48211"},{"establishmentid":"5262","name":"Total Vending","address":"1601 Clay","zipcode":"48211"},{"establishmentid":"51622948","name":"Krispy Chicken/WSM Group LLC","address":"1140 Clay St.","zipcode":"48211"},{"establishmentid":"51622938","name":"WSM Group LLC","address":"1140 Clay","zipcode":"48212"},{"establishmentid":"1871","name":"Clay Super Coney Island","address":"1141 Clay St.","zipcode":"48211"},{"establishmentid":"4686","name":"Sharky's 1900 Clay Lounge ","address":"1900 Clay","zipcode":"48209"},{"establishmentid":"4411","name":"Triumph Church","address":"2760 Grand Blvd. E. ","zipcode":"48211"},{"establishmentid":"1558","name":"Second Ebenezer Baptist Church","address":"2760 Grand Blvd. E.","zipcode":"48211"}],"inspectionsByEstablishmentidList":[]}],"maxInspectionDate":[{"inspectionDate":"2022-07-25T00:00:00"}]}},"pageContext":{"eid":"4439"}},"staticQueryHashes":["3649515864","63159454"]}