{"data":{"site":{"pathPrefix":null},"postgres":{"establishment":[{"establishmentid":"5290","name":"Charlie's Jolly Cones","address":"9194 Whittier Ave","zipcode":"48204","owner":"Charles Johnson","licenseNumber":"229334","licenseType":"Mobile Food Establishment","establishmentType":"LHD - Mobile Food Establishmen","establishmentStatus":"Open","riskCategory":null,"reviewFrequencyDays":"395.0","coords":"-82.94469,42.41387","geojson":{"id":"5290","type":"Feature","geometry":{"type":"Point","coordinates":[-82.9446858269999,42.413865544]},"properties":{"name":"Charlie's Jolly Cones","owner":"Charles Johnson","address":"9194 Whittier Ave","zipcode":"48204","license_type":"Mobile Food Establishment","risk_category":null,"license_number":"229334","establishmentid":"5290","establishment_type":"LHD - Mobile Food Establishmen","establishment_status":"Open","review_frequency_days":"395.0","most_recent_license_date":null}},"nearbyList":[{"establishmentid":"4936","name":"Checker's Drive In Restuarant","address":"16511 Harper Rd","zipcode":"48224"},{"establishmentid":"5243","name":"Vergotes Poultry & Fish Inc.","address":"16523 Harper","zipcode":"48224"},{"establishmentid":"955","name":"Marvin L. Winans Academy K-8","address":"9740 McKinney St","zipcode":"48224"},{"establishmentid":"2265","name":"Louie's Ham & Corn Beef","address":"16661 Harper Ave","zipcode":"48224"},{"establishmentid":"3738","name":"Popeye's Chicken & Biscuits","address":"16701 Harper Ave","zipcode":"48205"},{"establishmentid":"2162","name":"White Castle #59","address":"16737 Harper Ave ","zipcode":"48224"},{"establishmentid":"465","name":"Firewater Bar & Grill","address":"16801 Harper Ave","zipcode":"48224"},{"establishmentid":"4366","name":"Sweetwater Express (Harper)","address":"16849 Harper Ave","zipcode":"48224"},{"establishmentid":"705","name":"First Place Lounge","address":"16921 Harper Ave","zipcode":"48224"},{"establishmentid":"1295","name":"McDonald's #5459 ","address":"16950 Harper Ave","zipcode":"48224"}],"inspectionsByEstablishmentidList":[{"inspectionid":"42220","inspectionDate":"2018-05-16T00:00:00","inspectionType":"Routine Inspection","inCompliance":"No","violationsByInspectionidList":[{"violationCode":"4-302.14","violationDescription":"A test kit or other device that accurately measures the concentration in mg/L of SANITIZING solutions shall be provided. (Pf)\r\n","violationType":"Foundation","itemDescription":"Sanitizer test kit","subItem":"","problemDescription":"Not provided","subProblem":"","location":"TRUCK","subLocation":"","corrected":"No","daysToCorrect":"10.0","correctedDate":null,"correctionDescription":"Provide."}]}]}]}},"pageContext":{"eid":"5290"}}