{"componentChunkName":"component---src-templates-establishment-page-js","path":"/establishment/51623551","result":{"data":{"site":{"pathPrefix":"/restaurant-inspections"},"postgres":{"establishment":[{"establishmentid":"51623551","name":"Reef Kitchens #10 (Fixed Trailer)","address":"1551 Lafayette W.","zipcode":"48216","owner":"Vessel Operations LLC","licenseNumber":"260878","licenseType":"Fixed Establishment","establishmentType":"Food Service Establishment","establishmentStatus":"Plan Review","riskCategory":null,"reviewFrequencyDays":null,"coords":"-83.06316,42.32479","geojson":{"id":"51623551","type":"Feature","geometry":{"type":"Point","coordinates":[-83.063156848,42.324792754]},"properties":{"name":"Reef Kitchens #10 (Fixed Trailer)","owner":"Vessel Operations LLC","address":"1551 Lafayette W.","zipcode":"48216","license_type":"Fixed Establishment","risk_category":null,"license_number":"260878","establishmentid":"51623551","establishment_type":"Food Service Establishment","establishment_status":"Plan Review","review_frequency_days":null,"most_recent_license_date":"9/22/2021"}},"nearbyList":[{"establishmentid":"497","name":"Steak Hut","address":"1551 Lafayette W.","zipcode":"48216"},{"establishmentid":"391","name":"McCarthy's","address":"1600 Fort St. W.","zipcode":"48216"},{"establishmentid":"51622727","name":"Lafayette West LLC.","address":"1625 Lafayette W.","zipcode":"48216"},{"establishmentid":"4013","name":"Le Petit Zinc","address":"1055 Trumbull","zipcode":"48216"},{"establishmentid":"1082","name":"Salvation Army","address":"1627 Fort W.","zipcode":"48216"},{"establishmentid":"1134","name":"Burger King #4724","address":"1425 Lafayette W.","zipcode":"48216"},{"establishmentid":"51622835","name":"Burger King #1191","address":"1425  W. Lafayette Blvd.","zipcode":"48216"},{"establishmentid":"2866","name":"Michigan Commission for the Blind","address":"1401 Fort W.","zipcode":"48233-9998"},{"establishmentid":"2868","name":"Michigan Commission for the Blind","address":"1401  Fort W.","zipcode":"48233-9998"},{"establishmentid":"2865","name":"Michigan Commission for the Blind","address":"1401 Fort W.","zipcode":"48233-9998"}],"inspectionsByEstablishmentidList":[]}],"maxInspectionDate":[{"inspectionDate":"2022-07-25T00:00:00"}]}},"pageContext":{"eid":"51623551"}},"staticQueryHashes":["3649515864","63159454"]}