{"componentChunkName":"component---src-templates-establishment-page-js","path":"/establishment/5182","result":{"data":{"site":{"pathPrefix":"/restaurant-inspections"},"postgres":{"establishment":[{"establishmentid":"5182","name":"Simply Spanish","address":"2990 Grand Blvd. W.","zipcode":"48202","owner":"Francisco Javier Jorda-Vidal","licenseNumber":"083446","licenseType":"Fixed Establishment","establishmentType":"Food Service Establishment","establishmentStatus":"Permanently Closed","riskCategory":"High","reviewFrequencyDays":"335","coords":"-83.06926,42.37212","geojson":{"id":"5182","type":"Feature","geometry":{"type":"Point","coordinates":[-83.069264372,42.372118958]},"properties":{"name":"Simply Spanish","owner":"Francisco Javier Jorda-Vidal","address":"2990 Grand Blvd. W.","zipcode":"48202","license_type":"Fixed Establishment","risk_category":"High","license_number":"083446","establishmentid":"5182","establishment_type":"Food Service Establishment","establishment_status":"Permanently Closed","review_frequency_days":"335","most_recent_license_date":null}},"nearbyList":[{"establishmentid":"51623848","name":"Thyme & Honey Cafe and Bodega","address":"2990 Grand Blvd. W.","zipcode":"48202"},{"establishmentid":"3950","name":"Fisher Theatre","address":"3011 Grand Blvd. W.","zipcode":"48202"},{"establishmentid":"1422","name":"Motown Soul Food Cafe/South Beach Pizza ","address":"3011 Grand Blvd. W.","zipcode":"48202"},{"establishmentid":"4832","name":"Zenith","address":"3011 Grand Blvd. W. Ste. 111","zipcode":"48202"},{"establishmentid":"1534","name":"N-Joy Concessions","address":"3011 Grand Blvd. W.","zipcode":"48202"},{"establishmentid":"3908","name":"Cloud Nine Restaurant","address":"3011 Grand Blvd. W.","zipcode":"48202"},{"establishmentid":"2706","name":"Stella International Cafe","address":"3011 Grand Blvd. W.","zipcode":"48202"},{"establishmentid":"1697","name":"Clubhouse Tavern","address":"3011 Grand Blvd. W.","zipcode":"48202"},{"establishmentid":"1460","name":"Joe's Deli (Birmingham Deli)","address":"3011 Grand Blvd. W.","zipcode":"48202"},{"establishmentid":"51622616","name":"The City Bakery","address":"3011 Grand Blvd. W.","zipcode":"48202"}],"inspectionsByEstablishmentidList":[]}],"maxInspectionDate":[{"inspectionDate":"2023-04-13T00:00:00"}]}},"pageContext":{"eid":"5182"}},"staticQueryHashes":["3649515864","63159454"]}