{"data":{"site":{"pathPrefix":"/restaurant-inspections"},"postgres":{"establishment":[{"establishmentid":"4413","name":"U of Detroit Mercy-Subway","address":"4001 W McNichols Rd","zipcode":"48221","owner":"J Mark Carone","licenseNumber":"222063","licenseType":"Fixed Establishment","establishmentType":"Food Service Establishment","establishmentStatus":"New License ","riskCategory":"Medium","reviewFrequencyDays":"365","coords":"-83.13708,42.41295","geojson":{"id":"4413","type":"Feature","geometry":{"type":"Point","coordinates":[-83.137082725,42.412946784]},"properties":{"name":"U of Detroit Mercy-Subway","owner":"J Mark Carone","address":"4001 W McNichols Rd","zipcode":"48221","license_type":"Fixed Establishment","risk_category":"Medium","license_number":"222063","establishmentid":"4413","establishment_type":"Food Service Establishment","establishment_status":"New License ","review_frequency_days":"365","most_recent_license_date":null}},"nearbyList":[{"establishmentid":"4143","name":"U of Detroit Mercy-Library Cafe","address":"4001 W McNichols Rd","zipcode":"48221"},{"establishmentid":"1577","name":"U of Detroit Mercy-Student Cafe/Poblanos","address":"4001 W McNichols Rd","zipcode":"48221"},{"establishmentid":"4438","name":"U of Detroit Mercy-Tommy's Smoothies","address":"4001 W McNichols Rd","zipcode":"48221"},{"establishmentid":"880","name":"U of Detroit Mercy- Calihan Hall","address":"4001 W McNichols Rd","zipcode":"48221"},{"establishmentid":"5164","name":"Burger King #21688","address":"16245 Livernois Ave","zipcode":"48221"},{"establishmentid":"1023","name":"U Of D Coney Island #1","address":"16126 Livernois Ave","zipcode":"48221"},{"establishmentid":"1144","name":"Church's Fried Chicken #785","address":"16100 Livernois Ave","zipcode":"48221"},{"establishmentid":"5306","name":"Livernois Ocean Delight Inc","address":"16817 Livernois Ave","zipcode":"48221"},{"establishmentid":"1547","name":"Gesu Elementary","address":"17139 Oak Dr","zipcode":"48221"},{"establishmentid":"1674","name":"Nicky D's Coney Island","address":"16953 Livernois Ave","zipcode":"48221"}],"inspectionsByEstablishmentidList":[{"inspectionid":"49956","inspectionDate":"2019-11-21T00:00:00","inspectionType":"Routine Inspection","inCompliance":"Yes","violationsByInspectionidList":[{"violationCode":"4-603.15","violationDescription":"If washing in sink compartments or a WAREWASHING machine is impractical such as when the EQUIPMENT is fixed or the UTENSILS are too large, washing shall be done by using alternative manual WAREWASHING EQUIPMENT as specified in ¶ 4-301.12(C) in accordance with the following procedures:\r\n    (A) EQUIPMENT shall be disassembled as necessary to allow access of the detergent solution to all parts;\r\n    (B) EQUIPMENT components and UTENSILS shall be scrapped or rough cleaned to remove FOOD particle accumulation; and\r\n    (C) EQUIPMENT and UTENSILS shall be washed as specified under ¶ 4-603.14(A).","violationType":"Core","itemDescription":"Alternative warewashing procedure(s)","subItem":"","problemDescription":"Improperly used","subProblem":"With out use of washing agents","location":"SANDWICH STATION","subLocation":"Attached to Counter(s)","corrected":"Not required","daysToCorrect":"30","correctedDate":null,"correctionDescription":null}]}]}],"maxInspectionDate":[{"inspectionDate":"2020-10-30T00:00:00"}]}},"pageContext":{"eid":"4413"}}