{"componentChunkName":"component---src-templates-establishment-page-js","path":"/establishment/3368","result":{"data":{"site":{"pathPrefix":"/restaurant-inspections"},"postgres":{"establishment":[{"establishmentid":"3368","name":"Captain D's Seafood #6161","address":"10711 Seven Mile Rd. W.","zipcode":"48221","owner":"Alpha Restaurant Group","licenseNumber":"053714","licenseType":"Fixed Establishment","establishmentType":"Food Service Establishment","establishmentStatus":"Open","riskCategory":null,"reviewFrequencyDays":"335","coords":"-83.16898,42.43087","geojson":{"id":"3368","type":"Feature","geometry":{"type":"Point","coordinates":[-83.168981053,42.430874391]},"properties":{"name":"Captain D's Seafood #6161","owner":"Alpha Restaurant Group","address":"10711 Seven Mile Rd. W.","zipcode":"48221","license_type":"Fixed Establishment","risk_category":null,"license_number":"053714","establishmentid":"3368","establishment_type":"Food Service Establishment","establishment_status":"Open","review_frequency_days":"335","most_recent_license_date":"4/21/2011"}},"nearbyList":[{"establishmentid":"4098","name":"Checkers #3310","address":"10711 Seven Mile Rd. W.","zipcode":"48221"},{"establishmentid":"51623520","name":"Bobby's World","address":"10615 Seven Mile W. ","zipcode":"48221"},{"establishmentid":"51622575","name":"Capital Hook Fish & Chicken Inc","address":"10600 W. Seven Mile Rd.","zipcode":"48221"},{"establishmentid":"51623544","name":"Capital Hook Fish & Chicken Plus Inc.","address":"10600 Seven Mile W.","zipcode":"48221"},{"establishmentid":"3357","name":"Hook Fish & Chicken","address":"10600 Seven Mile Rd. W.","zipcode":"48221"},{"establishmentid":"5280","name":"Capital Hook Fish & Chicken Inc","address":"10600 W. Seven MIle Rd.","zipcode":"48221"},{"establishmentid":"723","name":"Motor City Soul Food","address":"12700 Seven Mile Rd. W.","zipcode":"48235"},{"establishmentid":"2557","name":"Double Diamond Vending","address":"18901 Meyers","zipcode":"48235"},{"establishmentid":"3028","name":"Robinson Dairy Vending","address":"18901 Meyers","zipcode":"48235"},{"establishmentid":"51623134","name":"BBQ Central","address":"12729 W 7 Mile Rd. ","zipcode":"48235"}],"inspectionsByEstablishmentidList":[]}],"maxInspectionDate":[{"inspectionDate":"2022-07-25T00:00:00"}]}},"pageContext":{"eid":"3368"}},"staticQueryHashes":["3649515864","63159454"]}