{"componentChunkName":"component---src-templates-establishment-page-js","path":"/establishment/51623643","result":{"data":{"site":{"pathPrefix":"/restaurant-inspections"},"postgres":{"establishment":[{"establishmentid":"51623643","name":"Shell Shock'd Taco","address":"2547 Bagley","zipcode":"48216","owner":"Mr. Bigham","licenseNumber":"262930","licenseType":"Mobile Food Establishment","establishmentType":"LHD - Mobile Food Establishmen","establishmentStatus":"Open","riskCategory":null,"reviewFrequencyDays":"150","coords":"-83.07744,42.32547","geojson":{"id":"51623643","type":"Feature","geometry":{"type":"Point","coordinates":[-83.07743835,42.32547378]},"properties":{"name":"Shell Shock'd Taco","owner":"Mr. Bigham","address":"2547 Bagley","zipcode":"48216","license_type":"Mobile Food Establishment","risk_category":null,"license_number":"262930","establishmentid":"51623643","establishment_type":"LHD - Mobile Food Establishmen","establishment_status":"Open","review_frequency_days":"150","most_recent_license_date":"2022-04-21"}},"nearbyList":[{"establishmentid":"51623136","name":"Dr. Sushi","address":"2547 Bagley Ave.","zipcode":"48216"},{"establishmentid":"51622959","name":"Peso Bar","address":"2547 Bagley","zipcode":"48216"},{"establishmentid":"51623455","name":"The Goblin","address":"2547  Bagley","zipcode":"48216"},{"establishmentid":"51623677","name":"Village Hand Pies LLC","address":"2547 Bagley","zipcode":"48216"},{"establishmentid":"5013","name":"Fist of Curry","address":"2547 Bagley","zipcode":"48216"},{"establishmentid":"525","name":"Mexican Village Of Detroit","address":"2600 Bagley  ","zipcode":"48216"},{"establishmentid":"1532","name":"Clemente Center","address":"2631 Bagley","zipcode":"48207"},{"establishmentid":"1056","name":"Tameleria Nuevo Leon","address":"2669 Vernor St.W.","zipcode":"48216"},{"establishmentid":"2061","name":"Casa Richard Charter School","address":"2635 Howard","zipcode":"48216"},{"establishmentid":"51622952","name":"Escuela Avencemos/Acad ofAmerica's High ","address":"2635 Howard","zipcode":"48216"}],"inspectionsByEstablishmentidList":[{"inspectionid":"59610","inspectionDate":"2022-06-12T00:00:00","inspectionType":"Complaint","inCompliance":"Yes","violationsByInspectionidList":[]},{"inspectionid":"57134","inspectionDate":"2022-01-24T00:00:00","inspectionType":"Preopening/New","inCompliance":"Yes","violationsByInspectionidList":[]}]}],"maxInspectionDate":[{"inspectionDate":"2023-04-25T00:00:00"}]}},"pageContext":{"eid":"51623643"}},"staticQueryHashes":["3649515864","63159454"]}