{"componentChunkName":"component---src-templates-establishment-page-js","path":"/establishment/4714","result":{"data":{"site":{"pathPrefix":"/restaurant-inspections"},"postgres":{"establishment":[{"establishmentid":"4714","name":"J.A.M. Night Club","address":"35 Grand River","zipcode":"48226","owner":"Adam Crawford","licenseNumber":"995-5908","licenseType":"Other","establishmentType":null,"establishmentStatus":null,"riskCategory":null,"reviewFrequencyDays":null,"coords":"-83.04925,42.33367","geojson":{"id":"4714","type":"Feature","geometry":{"type":"Point","coordinates":[-83.049253015,42.333669258]},"properties":{"name":"J.A.M. Night Club","owner":"Adam Crawford","address":"35 Grand River","zipcode":"48226","license_type":"Other","risk_category":null,"license_number":"995-5908","establishmentid":"4714","establishment_type":null,"establishment_status":null,"review_frequency_days":null,"most_recent_license_date":null}},"nearbyList":[{"establishmentid":"5155","name":"Shopper's Lounge DBA Queens Bar","address":"35 Grand River E.","zipcode":"48226"},{"establishmentid":"51622763","name":"Cannelle Detroit LLC","address":"45 Grand River W.","zipcode":"48226"},{"establishmentid":"1626","name":"Detroit Pizza","address":"1250 Griswold","zipcode":"48226"},{"establishmentid":"5322","name":"Go! Sy Thai Griswold. LLC","address":"1226 Griswold","zipcode":"48226"},{"establishmentid":"5114","name":"Dessert Oasis Coffee Roasters","address":"1220 Griswold","zipcode":"48226"},{"establishmentid":"51622457","name":"La Lanterna","address":"1224 Griswold","zipcode":"48226"},{"establishmentid":"4334","name":"The Hudson Cafe","address":"1241 Woodward","zipcode":"48226"},{"establishmentid":"3300","name":"Detroit Breakfast House & Grill","address":"1241 Woodward Ave.","zipcode":"48226"},{"establishmentid":"51622771","name":"Clementina Cocina & Libaciones- Bar","address":"150 State St.","zipcode":"48226"},{"establishmentid":"51622773","name":"Clementina Cocina & Libaciones- Mobile","address":"150 State St.","zipcode":"48226"}],"inspectionsByEstablishmentidList":[]}],"maxInspectionDate":[{"inspectionDate":"2023-04-25T00:00:00"}]}},"pageContext":{"eid":"4714"}},"staticQueryHashes":["3649515864","63159454"]}