{"data":{"site":{"pathPrefix":"/restaurant-inspections"},"postgres":{"establishment":[{"establishmentid":"51622830","name":"Detroit Receiving Hospital","address":"4201 St Antoine St","zipcode":"48201","owner":null,"licenseNumber":"229342","licenseType":"Fixed Establishment","establishmentType":"Food Service Establishment","establishmentStatus":"Open","riskCategory":"High","reviewFrequencyDays":"180","coords":"-83.05472,42.35350","geojson":{"id":"51622830","type":"Feature","geometry":{"type":"Point","coordinates":[-83.054716847,42.353501399]},"properties":{"name":"Detroit Receiving Hospital","owner":null,"address":"4201 St Antoine St","zipcode":"48201","license_type":"Fixed Establishment","risk_category":"High","license_number":"229342","establishmentid":"51622830","establishment_type":"Food Service Establishment","establishment_status":"Open","review_frequency_days":"180","most_recent_license_date":"9/21/2018"}},"nearbyList":[{"establishmentid":"5277","name":"Detroit Receiving Sub Shops LLC/Subway","address":"4201 St Antoine St","zipcode":"48202"},{"establishmentid":"4982","name":"Detroit Receiving Hospital","address":"4201 St Antoine","zipcode":"48201"},{"establishmentid":"51623123","name":"MMS/DMC Detroit Receiving Hosp. #51717","address":"4201 St Antoine St","zipcode":"48201"},{"establishmentid":"51622467","name":"Hungry Howie's","address":"4201 St Antoine St","zipcode":"48201"},{"establishmentid":"5278","name":"Det Receiving Cafe Stores LLC/Biggby","address":"4201 St Antoine St","zipcode":"48201"},{"establishmentid":"4996","name":"Children's Hospital of Michigan","address":"3901 Beaubien St","zipcode":"48201"},{"establishmentid":"3870","name":"Subway #11819","address":"3901 Beaubien St","zipcode":"48201"},{"establishmentid":"5279","name":"Childrens Cafe Stores LLC/Biggby","address":"3901 Beaubien St","zipcode":"48201"},{"establishmentid":"1700","name":"Friendship Baptist","address":"3900 Beaubien St","zipcode":"48201"},{"establishmentid":"900","name":"Spain Middle/Elementary School","address":"3700 Beaubien St","zipcode":"48201"}],"inspectionsByEstablishmentidList":[]}],"maxInspectionDate":[{"inspectionDate":"2020-05-29T00:00:00"}]}},"pageContext":{"eid":"51622830"}}