{"componentChunkName":"component---src-templates-establishment-page-js","path":"/establishment/2099","result":{"data":{"site":{"pathPrefix":"/restaurant-inspections"},"postgres":{"establishment":[{"establishmentid":"2099","name":"Club Rendezvous","address":"16139 Meyers","zipcode":"48235","owner":"Elwood Miller","licenseNumber":"040065","licenseType":"Fixed Establishment","establishmentType":"Food Service Establishment","establishmentStatus":"Open","riskCategory":null,"reviewFrequencyDays":"335","coords":"-83.17005,42.41015","geojson":{"id":"2099","type":"Feature","geometry":{"type":"Point","coordinates":[-83.170049613,42.410153246]},"properties":{"name":"Club Rendezvous","owner":"Elwood Miller","address":"16139 Meyers","zipcode":"48235","license_type":"Fixed Establishment","risk_category":null,"license_number":"040065","establishmentid":"2099","establishment_type":"Food Service Establishment","establishment_status":"Open","review_frequency_days":"335","most_recent_license_date":"12/4/2006"}},"nearbyList":[{"establishmentid":"2431","name":"Hot Dog King","address":"16146 Meyers","zipcode":"48235"},{"establishmentid":"2487","name":"Rite Time Delight","address":"16146 MEYERS","zipcode":"48238"},{"establishmentid":"3278","name":"Times Square Deli","address":"16146 Meyers","zipcode":"48235"},{"establishmentid":"2815","name":"VIP Deli & Grill","address":"16146 Meyers","zipcode":"48235"},{"establishmentid":"3494","name":"Times Square Deli","address":"16146 Meyers","zipcode":"48235"},{"establishmentid":"2405","name":"Mark's A. Eagles #4 Coney Island","address":"12701 Puritan Ave.","zipcode":"48227"},{"establishmentid":"51623005","name":"Bull Dogs","address":"10811 Puritan","zipcode":"48238"},{"establishmentid":"1406","name":"Christland Missionary Baptist Church","address":"12901 Puritan Ave.","zipcode":"48227"},{"establishmentid":"273","name":"Gibson's Lounge","address":"12924 Puritan Ave.","zipcode":"48227"},{"establishmentid":"5391","name":"Desmond's Elegant Affairs","address":"12924 Puritan","zipcode":"48227"}],"inspectionsByEstablishmentidList":[]}],"maxInspectionDate":[{"inspectionDate":"2022-07-25T00:00:00"}]}},"pageContext":{"eid":"2099"}},"staticQueryHashes":["3649515864","63159454"]}