{"data":{"postgres":{"establishment":[{"establishmentid":"51622833","name":"Legends Pizza on the Ave","address":"19163 Livernois Ave","zipcode":"48221","owner":"Matrice Dudley","licenseNumber":"ps081718","licenseType":"Fixed Establishment","establishmentType":"Food Service Establishment","establishmentStatus":"Open","riskCategory":null,"reviewFrequencyDays":"90.0","coords":"-83.14189,42.43254","geojson":{"id":"51622833","type":"Feature","geometry":{"type":"Point","coordinates":[-83.141890003,42.4325438750001]},"properties":{"name":"Legends Pizza on the Ave","owner":"Matrice Dudley","address":"19163 Livernois Ave","zipcode":"48221","license_type":"Fixed Establishment","risk_category":null,"license_number":"ps081718","establishmentid":"51622833","establishment_type":"Food Service Establishment","establishment_status":"Open","review_frequency_days":"90.0","most_recent_license_date":null}},"nearbyList":[{"establishmentid":"5301","name":"Mr. Fofo's Deli","address":"19166 Livernois","zipcode":"48221"},{"establishmentid":"51622453","name":"Narrow Way Cafe LLC","address":"19331 Livernois Ave","zipcode":"48221"},{"establishmentid":"4617","name":"Kuzzo's Chicken & Waffles LLC","address":"19345 Livernois Ave","zipcode":"48221"},{"establishmentid":"5428","name":"BabyBack's Open Pit","address":"7108 W Seven Mile Rd","zipcode":"48221"},{"establishmentid":"3928","name":"1917 American Bistro","address":"19416 Livernois","zipcode":"48221"},{"establishmentid":"51622673","name":"Biggby Coffee","address":"18685 Livernois","zipcode":"48221"},{"establishmentid":"1656","name":"Boston Market #976","address":"18610 Livernois Ave","zipcode":"48221"},{"establishmentid":"51622487","name":"Bucharest Grill","address":"19492 Livernois","zipcode":"48221"},{"establishmentid":"2467","name":"China Wok","address":"18670 Livernois Ave ","zipcode":"48221"},{"establishmentid":"5078","name":"Papa's Pizza - JNL Pizzaria, Inc.","address":"7410 W Seven Mile Rd","zipcode":"48221"},{"establishmentid":"1469","name":"Noni's Sherwood Grille","address":"19700 Livernois Ave","zipcode":"48221"},{"establishmentid":"1243","name":"Pasteur Elementary School","address":"19811 Stoepel St","zipcode":"48221"},{"establishmentid":"1174","name":"Palmer Park Preparatory Academy","address":"3901 Margareta","zipcode":"48221"},{"establishmentid":"4245","name":"New Prospect Missionary Baptist Church","address":"6330 Pembroke St","zipcode":"48221"},{"establishmentid":"1168","name":"Locker Room Lounge","address":"18290 Livernois Ave","zipcode":"48221"},{"establishmentid":"5251","name":"Livernois Fresh Fish","address":"18280 Livernois Ave","zipcode":"48221"},{"establishmentid":"4452","name":"Happy's Pizza #100","address":"7731 E Seven Mile Rd","zipcode":"48234"},{"establishmentid":"2110","name":"Hangover's Lounge","address":"20143 Livernois Ave","zipcode":"48221"},{"establishmentid":"5190","name":"D and D Cuisine LLC","address":"17521 Livernois Ave","zipcode":"48221"},{"establishmentid":"1584","name":"U Of D Jesuit High School","address":"8400 S Cambridge St","zipcode":"48221"}],"inspectionsByEstablishmentidList":[{"inspectionid":"44859","inspectionDate":"2019-01-14T00:00:00","inspectionType":"Routine Inspection","inCompliance":"Yes","violationsByInspectionidList":[]}]}]}},"pageContext":{"eid":"51622833"}}