{"data":{"postgres":{"establishment":[{"establishmentid":"4459","name":"Legend's Coney Island","address":"5210 W Grand River","zipcode":"48208","owner":"Pashk Gjonlleshi","licenseNumber":"ps102312","licenseType":"Fixed Establishment","establishmentType":"Food Service Establishment","establishmentStatus":"Open","riskCategory":null,"reviewFrequencyDays":"180.0","coords":"-83.09348,42.35063","geojson":{"id":"4459","type":"Feature","geometry":{"type":"Point","coordinates":[-83.093477262,42.3506263140001]},"properties":{"name":"Legend's Coney Island","owner":"Pashk Gjonlleshi","address":"5210 W Grand River","zipcode":"48208","license_type":"Fixed Establishment","risk_category":null,"license_number":"ps102312","establishmentid":"4459","establishment_type":"Food Service Establishment","establishment_status":"Open","review_frequency_days":"180.0","most_recent_license_date":null}},"nearbyList":[{"establishmentid":"3865","name":"Monte Bello Pizzeria","address":"5181 Grand River Ave","zipcode":"48208"},{"establishmentid":"1411","name":"St. Leo's","address":"4860 Fifteenth St","zipcode":"48208"},{"establishmentid":"2442","name":"George Crockett Academy","address":"4851 Fourteenth St","zipcode":"48208"},{"establishmentid":"952","name":"Douglass Academy For Young Men","address":"2001 W Warren Ave","zipcode":"48208"},{"establishmentid":"1527","name":"Ferguson Building","address":"2750 Selden St","zipcode":"48208"},{"establishmentid":"3749","name":"Crossroads of Michigan","address":"2424 W Grand Blvd","zipcode":"48208"},{"establishmentid":"1306","name":"Detroit Collegiate Prep. High School","address":"2200 W Grand Blvd","zipcode":"48208"},{"establishmentid":"3856","name":"Salvation Army #4","address":"3737 Lawton","zipcode":"48208"},{"establishmentid":"5064","name":"Salvation Army Truck #12","address":"3737 Lawton ","zipcode":"48208"},{"establishmentid":"3854","name":"Salvation Army #2","address":"3737 Lawton","zipcode":"48208"},{"establishmentid":"3855","name":"Salvation Army #3","address":"3737 Lawton","zipcode":"48208"},{"establishmentid":"3853","name":"Salvation Army #1","address":"3737 Lawton","zipcode":"48208"},{"establishmentid":"2727","name":"Salvation Army","address":"3737 Lawton","zipcode":"48208"},{"establishmentid":"2060","name":"Westside Academy Alternative Education","address":"4701 McKinley St","zipcode":"48208"},{"establishmentid":"526","name":"Vicki's Bar-B-Que","address":"3845 W Warren Ave","zipcode":"48208"},{"establishmentid":"3801","name":"Woodbridge Pub","address":"5169 Trumbull Ave","zipcode":"48208"},{"establishmentid":"5156","name":"Pie-Sci Pizza","address":"5163 Trumbull Ave","zipcode":"48208"},{"establishmentid":"51622728","name":"Good Krispy Fish & Chicken","address":"5001 Trumbull St","zipcode":"48208"},{"establishmentid":"1640","name":"University of Detroit Dental School","address":"2700 Martin L King Jr. Blvd","zipcode":"48208"},{"establishmentid":"5129","name":"The Marble Bar","address":"1501 Holden ","zipcode":"48208"}],"inspectionsByEstablishmentidList":[]}]}},"pageContext":{"eid":"4459"}}