{"data":{"site":{"pathPrefix":"/restaurant-inspections"},"postgres":{"establishment":[{"establishmentid":"51623034","name":"Manhattan Fish & Chicken","address":"20100 Plymouth Rd","zipcode":null,"owner":"AFM FOOD MARKET INC","licenseNumber":"20100KP","licenseType":"Fixed Establishment","establishmentType":"Food Service Establishment","establishmentStatus":"Open","riskCategory":null,"reviewFrequencyDays":"180.0","coords":"-83.23779,42.37214","geojson":{"id":"51623034","type":"Feature","geometry":{"type":"Point","coordinates":[-83.237789854,42.3721406290001]},"properties":{"name":"Manhattan Fish & Chicken","owner":"AFM FOOD MARKET INC","address":"20100 Plymouth Rd","zipcode":null,"license_type":"Fixed Establishment","risk_category":null,"license_number":"20100KP","establishmentid":"51623034","establishment_type":"Food Service Establishment","establishment_status":"Open","review_frequency_days":"180.0","most_recent_license_date":null}},"nearbyList":[{"establishmentid":"5299","name":"Plymouth Ocean Delight- Manhattan Fish","address":"20100 Plymouth Rd Suite B","zipcode":"48228"},{"establishmentid":"977","name":"Olympia Coney Island","address":"20040 Plymouth Rd","zipcode":"48228"},{"establishmentid":"1786","name":"Burger King","address":"20240 Plymouth Rd","zipcode":"48228"},{"establishmentid":"5025","name":"New Bentley Lounge","address":"19631 Plymouth Rd","zipcode":"48228"},{"establishmentid":"2471","name":"Ply Produce and Deli","address":"19615 Plymouth Rd","zipcode":"48228"},{"establishmentid":"1241","name":"Mann Elementary School","address":"19625 Elmira St","zipcode":"48228"},{"establishmentid":"5176","name":"Mary's Grill #2","address":"20804 Plymouth","zipcode":"48228"},{"establishmentid":"991","name":"Rouge Park Golf Course","address":"11701 Burt Rd","zipcode":"48228"},{"establishmentid":"4816","name":"WAY Academy West Campus","address":"19321 Chicago W","zipcode":"48228"},{"establishmentid":"3447","name":"Detroit Community Schools","address":"12675 Burt Rd","zipcode":"48223"}],"inspectionsByEstablishmentidList":[]}],"maxInspectionDate":[{"inspectionDate":"2019-05-31T00:00:00"}]}},"pageContext":{"eid":"51623034"}}