{"componentChunkName":"component---src-templates-establishment-page-js","path":"/establishment/4873","result":{"data":{"site":{"pathPrefix":"/restaurant-inspections"},"postgres":{"establishment":[{"establishmentid":"4873","name":"Neveria La Chilindrina","address":"7431 Vernor W","zipcode":"48209","owner":"Abdo Zandani","licenseNumber":"078796","licenseType":"Fixed Establishment","establishmentType":"Food Service Establishment","establishmentStatus":"Open","riskCategory":null,"reviewFrequencyDays":null,"coords":"-83.12243,42.31304","geojson":{"id":"4873","type":"Feature","geometry":{"type":"Point","coordinates":[-83.122433854,42.313035664]},"properties":{"name":"Neveria La Chilindrina","owner":"Abdo Zandani","address":"7431 Vernor W","zipcode":"48209","license_type":"Fixed Establishment","risk_category":null,"license_number":"078796","establishmentid":"4873","establishment_type":"Food Service Establishment","establishment_status":"Open","review_frequency_days":null,"most_recent_license_date":null}},"nearbyList":[{"establishmentid":"3255","name":"West Vernor Subway","address":"7431 Vernor St.W.","zipcode":"48209"},{"establishmentid":"51623109","name":"Ice Cream & Cafe La Ni√±a","address":"7431 Vernor W.","zipcode":"48209"},{"establishmentid":"5007","name":"Famous Tasty Chicken","address":"7431  Vernor W.","zipcode":"48209"},{"establishmentid":"51623383","name":"Mi Mundo","address":"7400 Vernor Hwy. W","zipcode":"48209"},{"establishmentid":"201","name":"Taqueria El Nacimiento","address":"7400 Vernor St.W.","zipcode":"48209"},{"establishmentid":"51623300","name":"Taqueria El Nacimiento Food Truck ","address":"7400 W. Vernor ","zipcode":"48209"},{"establishmentid":"4358","name":"Domino's Pizza","address":"7603 Vernor W.","zipcode":"48209"},{"establishmentid":"51623784","name":"La Casa Ice Cream ","address":"7615 W. Vernor Hwy","zipcode":"48209"},{"establishmentid":"51623382","name":"Utila Juices","address":"7600 Vernor W.","zipcode":"48209"},{"establishmentid":"857","name":"Sherry Lee's Place","address":"7631 Vernor St.W.","zipcode":"48209"}],"inspectionsByEstablishmentidList":[]}],"maxInspectionDate":[{"inspectionDate":"2022-08-31T00:00:00"}]}},"pageContext":{"eid":"4873"}},"staticQueryHashes":["3649515864","63159454"]}