{"componentChunkName":"component---src-templates-establishment-page-js","path":"/establishment/889","result":{"data":{"site":{"pathPrefix":"/restaurant-inspections"},"postgres":{"establishment":[{"establishmentid":"889","name":"Malcolm X Academy","address":"3550 John C. Lodge Service Dr.","zipcode":"48238","owner":"BOARD OF ED CITY OF DETROIT","licenseNumber":"49402219","licenseType":"Fixed Establishment","establishmentType":"Public School","establishmentStatus":"Permanently Closed","riskCategory":null,"reviewFrequencyDays":"250","coords":"-83.06720,42.34414","geojson":{"id":"889","type":"Feature","geometry":{"type":"Point","coordinates":[-83.067203946,42.344139627]},"properties":{"name":"Malcolm X Academy","owner":"BOARD OF ED CITY OF DETROIT","address":"3550 John C. Lodge Service Dr.","zipcode":"48238","license_type":"Fixed Establishment","risk_category":null,"license_number":"49402219","establishmentid":"889","establishment_type":"Public School","establishment_status":"Permanently Closed","review_frequency_days":"250","most_recent_license_date":"2010-06-23"}},"nearbyList":[{"establishmentid":"4951","name":"Det. Delta Prep. Acad for Social Justice","address":"3550 John C. Lodge","zipcode":"48201"},{"establishmentid":"1563","name":"Detroit Rescue Mission","address":"3535 Third","zipcode":"48201"},{"establishmentid":"4649","name":"Woodbridge Senior Village","address":"3521 John C Lodge","zipcode":"48201"},{"establishmentid":"436","name":"Jumbo's Bar","address":"3736 Third","zipcode":"48201"},{"establishmentid":"2521","name":"Robinson Dairy Vending","address":"3200 Hobson","zipcode":"48201"},{"establishmentid":"3850","name":"DTE Noble","address":"3200 Hobson","zipcode":"48201"},{"establishmentid":"2409","name":"Aramark - DTE Noble","address":"3200 Hobson St","zipcode":"48201"},{"establishmentid":"303","name":"Sterling Services","address":"3200 Hobson","zipcode":"48201"},{"establishmentid":"1756","name":"Detroit Midtown Academy","address":"950 Selden","zipcode":"48201"},{"establishmentid":"4802","name":"Experiencia Preparatory","address":"950 Selden St.","zipcode":"48201"}],"inspectionsByEstablishmentidList":[]}],"maxInspectionDate":[{"inspectionDate":"2023-04-25T00:00:00"}]}},"pageContext":{"eid":"889"}},"staticQueryHashes":["3649515864","63159454"]}