{"componentChunkName":"component---src-templates-establishment-page-js","path":"/establishment/51624021","result":{"data":{"site":{"pathPrefix":"/restaurant-inspections"},"postgres":{"establishment":[{"establishmentid":"51624021","name":"Joy Mart LLC","address":"15800 Joy Rd","zipcode":"48228","owner":"Moe Mackie","licenseNumber":"PR23048A","licenseType":"Fixed Establishment","establishmentType":"Food Service Establishment","establishmentStatus":"Plan Review","riskCategory":null,"reviewFrequencyDays":null,"coords":"-83.20124,42.35852","geojson":{"id":"51624021","type":"Feature","geometry":{"type":"Point","coordinates":[-83.201242595,42.358520917]},"properties":{"name":"Joy Mart LLC","owner":"Moe Mackie","address":"15800 Joy Rd","zipcode":"48228","license_type":"Fixed Establishment","risk_category":null,"license_number":"PR23048A","establishmentid":"51624021","establishment_type":"Food Service Establishment","establishment_status":"Plan Review","review_frequency_days":null,"most_recent_license_date":null}},"nearbyList":[{"establishmentid":"2556","name":"Double Diamond Vending","address":"15750 Joy Rd.","zipcode":"48228"},{"establishmentid":"51623253","name":"New Tai Hing","address":"15686 Joy Rd.","zipcode":"48228"},{"establishmentid":"1669","name":"Chopstick Carry-out","address":"15686 Joy Rd.","zipcode":"48228"},{"establishmentid":"1888","name":"BAL Inc/ Touch Lounge","address":"15606 Joy Rd.","zipcode":"48228"},{"establishmentid":"1976","name":"CANTEEN","address":"8551 GREENFIELD","zipcode":"48228"},{"establishmentid":"708","name":"Wayne County Community College District","address":"8551 Greenfield","zipcode":"48228"},{"establishmentid":"1833","name":"Robinson Dairy Vending","address":"8551 Greenfield","zipcode":"48228"},{"establishmentid":"2155","name":"White Castle #40","address":"8811 Greenfield","zipcode":"48228"},{"establishmentid":"51623418","name":"Happy's Pizza / Savvy Sliders","address":"8997 Greenfield","zipcode":"48228"},{"establishmentid":"1190","name":"Popeye's Chicken & Biscuits","address":"8997 Greenfield","zipcode":"48228"}],"inspectionsByEstablishmentidList":[]}],"maxInspectionDate":[{"inspectionDate":"2023-04-25T00:00:00"}]}},"pageContext":{"eid":"51624021"}},"staticQueryHashes":["3649515864","63159454"]}