{"data":{"site":{"pathPrefix":"/restaurant-inspections"},"postgres":{"establishment":[{"establishmentid":"51623025","name":"Bayview Yacht - Queen City","address":"100 Clairpointe St","zipcode":"48215","owner":"Tim Gardella","licenseNumber":"247260","licenseType":"Special Transitory Food Unit","establishmentType":"LHD - Special Transitory Food","establishmentStatus":"Open","riskCategory":null,"reviewFrequencyDays":"365","coords":"-82.95245,42.35586","geojson":{"id":"51623025","type":"Feature","geometry":{"type":"Point","coordinates":[-82.952447253,42.355857014]},"properties":{"name":"Bayview Yacht - Queen City","owner":"Tim Gardella","address":"100 Clairpointe St","zipcode":"48215","license_type":"Special Transitory Food Unit","risk_category":null,"license_number":"247260","establishmentid":"51623025","establishment_type":"LHD - Special Transitory Food","establishment_status":"Open","review_frequency_days":"365","most_recent_license_date":"12/12/2019"}},"nearbyList":[{"establishmentid":"424","name":"Bayview Yacht Club","address":"100 Clairpoint St","zipcode":"48215"},{"establishmentid":"626","name":"Detroit Edison Boat Club","address":"100 Lycaste St","zipcode":"48214"},{"establishmentid":"4537","name":"Govinda's at the Fisher Mansion","address":"383 Lenox Ave","zipcode":"48215"},{"establishmentid":"1030","name":"Carstens at Remus Robinson School","address":"13000 Essex St","zipcode":"48215"},{"establishmentid":"1388","name":"Golightly  Career Tech","address":"900 Dickerson Ave","zipcode":"48215"},{"establishmentid":"4927","name":"Davis Aerospace Tech High @ Golightly Te","address":"900 Dickerson Ave","zipcode":"48215"},{"establishmentid":"51622576","name":"Gingerberry LLC","address":"12626 E Jefferson Avenue","zipcode":"48215"},{"establishmentid":"1961","name":"Subway 12011","address":"13222 E Jefferson Ave","zipcode":"48215"},{"establishmentid":"1391","name":"Joseph's Coney Island","address":"12500 E Jefferson Ave","zipcode":"48215"},{"establishmentid":"1711","name":"Dynasty Chinese","address":"13340 E Jefferson Ave","zipcode":"48215"}],"inspectionsByEstablishmentidList":[]}],"maxInspectionDate":[{"inspectionDate":"2020-10-30T00:00:00"}]}},"pageContext":{"eid":"51623025"}}