{"componentChunkName":"component---src-templates-establishment-page-js","path":"/establishment/51623481","result":{"data":{"site":{"pathPrefix":"/restaurant-inspections"},"postgres":{"establishment":[{"establishmentid":"51623481","name":"Slows to Go Food Truck","address":"2940 Iroquois","zipcode":"48214","owner":"Brian Perrone","licenseNumber":"255928","licenseType":"Special Transitory Food Unit","establishmentType":"LHD - Special Transitory Food","establishmentStatus":"Open","riskCategory":null,"reviewFrequencyDays":null,"coords":"-82.99889,42.36517","geojson":{"id":"51623481","type":"Feature","geometry":{"type":"Point","coordinates":[-82.998891317,42.365173809]},"properties":{"name":"Slows to Go Food Truck","owner":"Brian Perrone","address":"2940 Iroquois","zipcode":"48214","license_type":"Special Transitory Food Unit","risk_category":null,"license_number":"255928","establishmentid":"51623481","establishment_type":"LHD - Special Transitory Food","establishment_status":"Open","review_frequency_days":null,"most_recent_license_date":"7/21/2021"}},"nearbyList":[{"establishmentid":"1006","name":"John Nichols Elementary","address":"3020 Burns","zipcode":"48214"},{"establishmentid":"1600","name":"Cornerstone School","address":"2411 Iroquois","zipcode":"48214"},{"establishmentid":"51622619","name":"Detroit Prep","address":"2411 Iroquois","zipcode":"48214"},{"establishmentid":"5284","name":"Conventional Missionary Baptist Church","address":"2255  Seminole","zipcode":"48214"},{"establishmentid":"316","name":"Cesar Chavez Academy Elementary","address":"8126 Vernor St.W.","zipcode":"48209"},{"establishmentid":"1158","name":"Franklin Gourmet Dairy Bar","address":"8405 Mack Ave.","zipcode":"48214"},{"establishmentid":"3803","name":"Diamondstar Pizza","address":"7927 Charlesvoix","zipcode":"48214"},{"establishmentid":"51622821","name":"Destination 1905","address":"8130 Kercheval","zipcode":"48214"},{"establishmentid":"51623432","name":"Two Birds","address":"8130 Kercheval","zipcode":"48214"},{"establishmentid":"51623205","name":"Mumma Maria Enterprises","address":"8122 Kercheval Ave.","zipcode":"48214"}],"inspectionsByEstablishmentidList":[{"inspectionid":"55284","inspectionDate":"2021-07-06T00:00:00","inspectionType":"Preopening/New","inCompliance":"Yes","violationsByInspectionidList":[{"violationCode":"4-501.11","violationDescription":"EQUIPMENT shall be maintained in a state of repair and condition that meets the requirements of the code.\n","violationType":"Core","itemDescription":"Equipment","subItem":null,"problemDescription":"Do not meet requirements of rule","subProblem":null,"location":"FOOD TRUCK","subLocation":null,"corrected":"False","daysToCorrect":"30","correctedDate":"2021-08-20T00:00:00","correctionDescription":null}]}]}],"maxInspectionDate":[{"inspectionDate":"2022-07-25T00:00:00"}]}},"pageContext":{"eid":"51623481"}},"staticQueryHashes":["3649515864","63159454"]}