{"componentChunkName":"component---src-templates-establishment-page-js","path":"/establishment/5146","result":{"data":{"site":{"pathPrefix":"/restaurant-inspections"},"postgres":{"establishment":[{"establishmentid":"5146","name":"Frita Airstream","address":"66 Columbia","zipcode":"48201","owner":"Eve Aronoff-Fernandez","licenseNumber":"249313","licenseType":"Special Transitory Food Unit","establishmentType":"LHD - Special Transitory Food","establishmentStatus":"Open","riskCategory":null,"reviewFrequencyDays":"335","coords":"-83.05322,42.33790","geojson":{"id":"5146","type":"Feature","geometry":{"type":"Point","coordinates":[-83.053222285,42.337895216]},"properties":{"name":"Frita Airstream","owner":"Eve Aronoff-Fernandez","address":"66 Columbia","zipcode":"48201","license_type":"Special Transitory Food Unit","risk_category":null,"license_number":"249313","establishmentid":"5146","establishment_type":"LHD - Special Transitory Food","establishment_status":"Open","review_frequency_days":"335","most_recent_license_date":"4/24/2022"}},"nearbyList":[{"establishmentid":"51622841","name":"Frita Batidos","address":"66 Columbia","zipcode":"48201"},{"establishmentid":"51622916","name":"Starbucks Coffee #54775","address":"2211 Woodward Ave.","zipcode":"48224"},{"establishmentid":"4585","name":"Total Vending","address":"2211 Woodward Ave.","zipcode":"48201"},{"establishmentid":"377","name":"Fox Theatre","address":"2211 Woodward Ave.","zipcode":"48201"},{"establishmentid":"3274","name":"Little Caesar's","address":"2211 Woodward Ave.","zipcode":"48201"},{"establishmentid":"2630","name":"Continental Services","address":"2211 Woodward","zipcode":"48201"},{"establishmentid":"4340","name":"Hot Taco","address":"2233 Park Ave","zipcode":"48201"},{"establishmentid":"3172","name":"Centaur Bar","address":"2233 Park Ave.","zipcode":"48201-3400"},{"establishmentid":"51622957","name":"Town Pump Tavern","address":"2233 Park Ave.","zipcode":"48226"},{"establishmentid":"51622958","name":"Deatroit LLC.","address":"2125 Woodward","zipcode":null}],"inspectionsByEstablishmentidList":[{"inspectionid":"50726","inspectionDate":"2020-02-07T00:00:00","inspectionType":"Preopening/New","inCompliance":"Yes","violationsByInspectionidList":[]}]}],"maxInspectionDate":[{"inspectionDate":"2022-07-25T00:00:00"}]}},"pageContext":{"eid":"5146"}},"staticQueryHashes":["3649515864","63159454"]}