{"data":{"postgres":{"establishment":[{"establishmentid":"5214","name":"NYC Yogurt","address":"2261 Faber St","zipcode":"48212","owner":"Nagi K. Pady","licenseNumber":"202868","licenseType":"Mobile Food Establishment","establishmentType":null,"establishmentStatus":null,"riskCategory":"High","reviewFrequencyDays":"180.0","coords":"-83.05883,42.38913","geojson":{"id":"5214","type":"Feature","geometry":{"type":"Point","coordinates":[-83.0588338859999,42.3891295540001]},"properties":{"name":"NYC Yogurt","owner":"Nagi K. Pady","address":"2261 Faber St","zipcode":"48212","license_type":"Mobile Food Establishment","risk_category":"High","license_number":"202868","establishmentid":"5214","establishment_type":null,"establishment_status":null,"review_frequency_days":"180.0","most_recent_license_date":null}},"nearbyList":[{"establishmentid":"5217","name":"Fresh Creamer","address":"2236 Wyandotte St","zipcode":"48212"},{"establishmentid":"5216","name":"OW Soft Serve","address":"2456 Faber","zipcode":"48212"},{"establishmentid":"51622747","name":"S.L Ice Cream","address":"2455 Andrus St","zipcode":"48212"},{"establishmentid":"51622748","name":"S.E Ice Cream","address":"2455 Andrus St","zipcode":"48212"},{"establishmentid":"51622689","name":"American Axle Plant #6","address":"2020 Holbrook Ave","zipcode":"48212"},{"establishmentid":"4453","name":"Beignet's, LLC","address":"2424 Florian St","zipcode":"48212"},{"establishmentid":"4199","name":"Simpson Softy","address":"3005 Jacob St","zipcode":"48212"},{"establishmentid":"5390","name":"Premier Ice Cream","address":"2217 Evaline St","zipcode":"48212"},{"establishmentid":"3650","name":"American Axle","address":"1 Dauch Dr","zipcode":"48211"},{"establishmentid":"5346","name":"Clay Street Entertainment","address":"1680 Clay St","zipcode":"48211"},{"establishmentid":"696","name":"Grandy's Coney Island","address":"1200 Holbrook Rd","zipcode":"48211"},{"establishmentid":"1871","name":"Clay Super Coney Island","address":"1141 Clay St","zipcode":"48211"},{"establishmentid":"4047","name":"Omar's Soft Serve","address":"3833 Evaline","zipcode":"48212"},{"establishmentid":"4809","name":"Moe's Ice Cream","address":"3833 Evaline","zipcode":"48212"},{"establishmentid":"2404","name":"The Schvitz ","address":"8295 Oakland Ave","zipcode":"48211"},{"establishmentid":"5204","name":"Miss Virginia's Ice Cream Parlor","address":"8801 Oakland Ave","zipcode":"48211"},{"establishmentid":"51622757","name":"Supa Flavor ","address":"11514 St Aubin St","zipcode":"48212"},{"establishmentid":"5314","name":"Radda Soft","address":"11516 Saint Aubin St","zipcode":"48212"},{"establishmentid":"5312","name":"Wonka Soft Serve","address":"11609 Lumpkin St","zipcode":"48212"},{"establishmentid":"4016","name":"Mr. Soft Serve","address":"11613 Lumpkin Street","zipcode":"48212"}],"inspectionsByEstablishmentidList":[]}]}},"pageContext":{"eid":"5214"}}