{"data":{"postgres":{"establishment":[{"establishmentid":"4143","name":"U of Detroit Mercy-Library Cafe","address":"4001 W McNichols Rd","zipcode":"48221","owner":"Mark Corone","licenseNumber":"22064","licenseType":"Fixed Establishment","establishmentType":"Food Service Establishment","establishmentStatus":"Open","riskCategory":"Medium","reviewFrequencyDays":"365.0","coords":"-83.13708,42.41295","geojson":{"id":"4143","type":"Feature","geometry":{"type":"Point","coordinates":[-83.137082725,42.412946784]},"properties":{"name":"U of Detroit Mercy-Library Cafe","owner":"Mark Corone","address":"4001 W McNichols Rd","zipcode":"48221","license_type":"Fixed Establishment","risk_category":"Medium","license_number":"22064","establishmentid":"4143","establishment_type":"Food Service Establishment","establishment_status":"Open","review_frequency_days":"365.0","most_recent_license_date":"4/27/2018"}},"nearbyList":[{"establishmentid":"5164","name":"Burger King","address":"16245 Livernois Ave","zipcode":"48221"},{"establishmentid":"1023","name":"U Of D Coney Island #1","address":"16126 Livernois Ave","zipcode":"48221"},{"establishmentid":"1144","name":"Church's Fried Chicken #785","address":"16100 Livernois Ave","zipcode":"48221"},{"establishmentid":"5306","name":"Livernois Ocean Delight Inc","address":"16817 Livernois Ave","zipcode":"48221"},{"establishmentid":"1547","name":"Gesu Elementary","address":"17139 Oak Dr","zipcode":"48221"},{"establishmentid":"1674","name":"Nicky D's Coney Island","address":"16953 Livernois Ave","zipcode":"48221"},{"establishmentid":"51622638","name":"Jam Jomar XXV II (McDonalds)","address":"17121 Livernois #10902","zipcode":"48221"},{"establishmentid":"1490","name":"McDonald's #10902","address":"17121 Livernois Ave","zipcode":"48221"},{"establishmentid":"331","name":"Gregg's Pizza BBQ","address":"17160 Livernois Ave","zipcode":"48221"},{"establishmentid":"1528","name":"Little Caesar's Pizza #167","address":"17200 Livernois Ave","zipcode":"48221"},{"establishmentid":"3986","name":"Captain Jay's Fish & Chicken #111","address":"17171 Livernois Ave","zipcode":"48221"},{"establishmentid":"1556","name":"Uptown Bar B Que","address":"15700 Livernois Ave","zipcode":"48238"},{"establishmentid":"4903","name":"Babyback's Open Pit","address":"17310 Livernois Ave","zipcode":"48221"},{"establishmentid":"5350","name":"Detroit Sip, LLC","address":"7420 W McNichols Rd","zipcode":"48221"},{"establishmentid":"1119","name":"Paul Roberson/ Malcolm X. Academy","address":"2585 Grove St","zipcode":"48221"},{"establishmentid":"1894","name":"Thurgood Marshall Elementary","address":"15531 Linwood","zipcode":"48238"},{"establishmentid":"3478","name":"Joy Preparatory Academy - Dexter Campus","address":"15055 Dexter Ave","zipcode":"48238"},{"establishmentid":"5251","name":"Livernois Fresh Fish","address":"18280 Livernois Ave","zipcode":"48221"},{"establishmentid":"1168","name":"Locker Room Lounge","address":"18290 Livernois Ave","zipcode":"48221"},{"establishmentid":"1174","name":"Palmer Park Preparatory Academy","address":"3901 Margareta","zipcode":"48221"}],"inspectionsByEstablishmentidList":[{"inspectionid":"44193","inspectionDate":"2018-11-20T00:00:00","inspectionType":"Routine Inspection","inCompliance":"Yes","violationsByInspectionidList":[]},{"inspectionid":"40511","inspectionDate":"2017-10-20T00:00:00","inspectionType":"Routine Inspection","inCompliance":"Yes","violationsByInspectionidList":[]},{"inspectionid":"36425","inspectionDate":"2016-09-13T00:00:00","inspectionType":"Routine Inspection","inCompliance":"Yes","violationsByInspectionidList":[]}]}]}},"pageContext":{"eid":"4143"}}