{"componentChunkName":"component---src-templates-establishment-page-js","path":"/establishment/4700","result":{"data":{"site":{"pathPrefix":"/restaurant-inspections"},"postgres":{"establishment":[{"establishmentid":"4700","name":"The Auction Block","address":"12660 Greenfield","zipcode":"48227","owner":"Obie Moore","licenseNumber":null,"licenseType":"Special Transitory Food Unit","establishmentType":"LHD - Special Transitory Food","establishmentStatus":null,"riskCategory":null,"reviewFrequencyDays":"335","coords":"-83.19731,42.38088","geojson":{"id":"4700","type":"Feature","geometry":{"type":"Point","coordinates":[-83.197314293,42.380883016]},"properties":{"name":"The Auction Block","owner":"Obie Moore","address":"12660 Greenfield","zipcode":"48227","license_type":"Special Transitory Food Unit","risk_category":null,"license_number":null,"establishmentid":"4700","establishment_type":"LHD - Special Transitory Food","establishment_status":null,"review_frequency_days":"335","most_recent_license_date":null}},"nearbyList":[{"establishmentid":"2492","name":"HIREY ICE CREAM","address":"12874 Greenfield Rd.","zipcode":"48227"},{"establishmentid":"2302","name":"Love Joys","address":"12874 Greenfield Rd.","zipcode":"48227"},{"establishmentid":"2482","name":"YUMMY TRUCK","address":"12874 Greenfield Rd.","zipcode":"48235"},{"establishmentid":"2182","name":"KAHEE PLUS...","address":"12900 Greenfield Ave.","zipcode":"48227"},{"establishmentid":"2168","name":"THREE SCOOPS ICE CREAM","address":"12900 Greenfield Rd.","zipcode":"48209"},{"establishmentid":"2490","name":"C B R","address":"12900 Greenfield Rd.","zipcode":"48227"},{"establishmentid":"2229","name":"Eats & Treats","address":"12900 Greenfield Rd.","zipcode":"48227"},{"establishmentid":"2177","name":"My Man Ice Cream","address":"12900 Greenfield Rd.","zipcode":"48227"},{"establishmentid":"2484","name":"MISTER SOFTY TREAT #3","address":"12900 Greenfield Rd.","zipcode":"48227"},{"establishmentid":"3113","name":"Uhuru Softee","address":"12900 Greenfield Rd.","zipcode":"48227"}],"inspectionsByEstablishmentidList":[]}],"maxInspectionDate":[{"inspectionDate":"2022-08-31T00:00:00"}]}},"pageContext":{"eid":"4700"}},"staticQueryHashes":["3649515864","63159454"]}