{"componentChunkName":"component---src-templates-establishment-page-js","path":"/establishment/631","result":{"data":{"site":{"pathPrefix":"/restaurant-inspections"},"postgres":{"establishment":[{"establishmentid":"631","name":"Ice Night Club","address":"9933 Greenfield Ave.","zipcode":"48227","owner":"Rabih Baydoun","licenseNumber":"078651","licenseType":"Fixed Establishment","establishmentType":"Food Service Establishment","establishmentStatus":"Open","riskCategory":"High","reviewFrequencyDays":"150","coords":"-83.19768,42.36856","geojson":{"id":"631","type":"Feature","geometry":{"type":"Point","coordinates":[-83.197683206,42.368561786]},"properties":{"name":"Ice Night Club","owner":"Rabih Baydoun","address":"9933 Greenfield Ave.","zipcode":"48227","license_type":"Fixed Establishment","risk_category":"High","license_number":"078651","establishmentid":"631","establishment_type":"Food Service Establishment","establishment_status":"Open","review_frequency_days":"150","most_recent_license_date":"12/6/2017"}},"nearbyList":[{"establishmentid":"51622850","name":"Ice Nightclub","address":"9933 Greenfield","zipcode":"48227"},{"establishmentid":"51622945","name":"LYT Lounge","address":"9933 Greenfield","zipcode":"48227"},{"establishmentid":"5295","name":"Hungry Howies #79","address":"9911 Greenfield","zipcode":"48227"},{"establishmentid":"1560","name":"Mr. Steve's Pizza","address":"9911 Greenfield","zipcode":"48227"},{"establishmentid":"2625","name":"Chewz-A-Snack","address":"10000  Greenfield","zipcode":"48227"},{"establishmentid":"1075","name":"Omega Coney Island","address":"9500 Greenfield Ave.","zipcode":"48227"},{"establishmentid":"3136","name":"B'There Lounge","address":"15410 Chicago W.","zipcode":"48228"},{"establishmentid":"1162","name":"Church's Fried Chicken #868","address":"15525 Chicago W.","zipcode":"48228"},{"establishmentid":"1587","name":"McDonald's #12308","address":"15501 Plymouth Rd.","zipcode":"48227"},{"establishmentid":"2010","name":"Super Coney Island","address":"15540 Plymouth","zipcode":"48227"}],"inspectionsByEstablishmentidList":[{"inspectionid":"39040","inspectionDate":"2017-06-14T00:00:00","inspectionType":"Routine Inspection","inCompliance":"Yes","violationsByInspectionidList":[{"violationCode":"MFL289.2129","violationDescription":"Sec. 2129. (1) All food establishments shall employ a minimum of 1 managerial employee as a food safety manager, who must be an individual who is currently certified under a personnel certification program accredited by the American National Standards Institute, utilizing the Conference for Food Protection standards:\n(2) Beginning January 14, 2017 and every 5 years thereafter, a certified  food safety manager who supervises the operations of a food service establishment shall have completed a food safety training program\ncontaining an allergen awareness  component that has been approved by  the department. A food service establishment shall retain records on the  site of the food service establishment documenting compliance of its  certified food safety managers with this subsection. ","violationType":"Core","itemDescription":"Person-in-charge","subItem":"","problemDescription":null,"subProblem":"","location":"EAST BUILDING","subLocation":"","corrected":"False","daysToCorrect":"30","correctedDate":null,"correctionDescription":null}]}]}],"maxInspectionDate":[{"inspectionDate":"2023-04-13T00:00:00"}]}},"pageContext":{"eid":"631"}},"staticQueryHashes":["3649515864","63159454"]}