{"componentChunkName":"component---src-templates-establishment-page-js","path":"/establishment/4798","result":{"data":{"site":{"pathPrefix":"/restaurant-inspections"},"postgres":{"establishment":[{"establishmentid":"4798","name":"Real Deal Chicken","address":"428 Grand Blvd. E.","zipcode":"48207","owner":"Khalid Maroof","licenseNumber":"ps081213","licenseType":"Fixed Establishment","establishmentType":"Food Service Establishment","establishmentStatus":"Plan Review","riskCategory":null,"reviewFrequencyDays":null,"coords":"-83.00681,42.35565","geojson":{"id":"4798","type":"Feature","geometry":{"type":"Point","coordinates":[-83.006811183,42.355646103]},"properties":{"name":"Real Deal Chicken","owner":"Khalid Maroof","address":"428 Grand Blvd. E.","zipcode":"48207","license_type":"Fixed Establishment","risk_category":null,"license_number":"ps081213","establishmentid":"4798","establishment_type":"Food Service Establishment","establishment_status":"Plan Review","review_frequency_days":null,"most_recent_license_date":null}},"nearbyList":[{"establishmentid":"51623692","name":"Julio's Taco's","address":"341 Grand Blvd. W.","zipcode":"48216"},{"establishmentid":"895","name":"Southeast Head Start","address":"1501 Canton","zipcode":"48207"},{"establishmentid":"3171","name":"Delray Senior Pavilion","address":"275 Grand Blvd. W. ","zipcode":"48216"},{"establishmentid":"1099","name":"Butzel Recreation Center","address":"7737 Kercheval","zipcode":"48214"},{"establishmentid":"4233","name":"St. Charles","address":"1491 Baldwin","zipcode":"48214"},{"establishmentid":"2593","name":"Moses Field School","address":"1100 Sheridan","zipcode":"48214"},{"establishmentid":"4237","name":"Harambee Center at Marcus Garvey-DPS","address":"2301 Van Dyke","zipcode":"48214"},{"establishmentid":"833","name":"Marcus Garvey","address":"2301 Van Dyke Ave.","zipcode":"48207"},{"establishmentid":"1325","name":"Nita's Coney Island","address":"201 Grand River Ave. W.","zipcode":null},{"establishmentid":"51622946","name":"Zell's Corner","address":"7748 Charlevoix","zipcode":"48214"}],"inspectionsByEstablishmentidList":[]}],"maxInspectionDate":[{"inspectionDate":"2022-08-31T00:00:00"}]}},"pageContext":{"eid":"4798"}},"staticQueryHashes":["3649515864","63159454"]}