{"data":{"postgres":{"establishment":[{"establishmentid":"51622856","name":"T.A. Krispy Chicken","address":"18525 W Seven Mile Rd","zipcode":"48219","owner":"Alaam S. Fadel","licenseNumber":"100518jb","licenseType":"Fixed Establishment","establishmentType":"Food Service Establishment","establishmentStatus":"Open","riskCategory":"High","reviewFrequencyDays":"180.0","coords":"-83.22499,42.42962","geojson":{"id":"51622856","type":"Feature","geometry":{"type":"Point","coordinates":[-83.224989992,42.429615095]},"properties":{"name":"T.A. Krispy Chicken","owner":"Alaam S. Fadel","address":"18525 W Seven Mile Rd","zipcode":"48219","license_type":"Fixed Establishment","risk_category":"High","license_number":"100518jb","establishmentid":"51622856","establishment_type":"Food Service Establishment","establishment_status":"Open","review_frequency_days":"180.0","most_recent_license_date":null}},"nearbyList":[{"establishmentid":"51622494","name":"Saxony Lounge","address":"18300 W Seven Mile Rd","zipcode":"48219"},{"establishmentid":"4168","name":"Star Lite Bar & Grill","address":"18300 W Seven Mile Rd","zipcode":"48219"},{"establishmentid":"1305","name":"Teenie's Deli Inc.","address":"18244 W Seven Mile Rd","zipcode":"48219"},{"establishmentid":"3378","name":"Ebony Lounge","address":"19029 W Seven Mile Rd","zipcode":"48219"},{"establishmentid":"1267","name":"Church's Fried Chicken #991","address":"18138 W Seven Mile Rd","zipcode":"48219"},{"establishmentid":"51622600","name":"Mr. Corn Beef","address":"17819 W Seven Mile Rd","zipcode":"48235"},{"establishmentid":"5355","name":"Los Chapos Restaurante Mexicano","address":"17805 W Seven Mile Rd","zipcode":"48235"},{"establishmentid":"3798","name":"Subway ","address":"8200 W Outer Dr","zipcode":"48235"},{"establishmentid":"634","name":"Little Caesar's Pizza #39","address":"19400 W Seven Mile Rd","zipcode":"48201"},{"establishmentid":"51622648","name":"Great Lakes Sport Bar","address":"17602 W Seven Mile Rd","zipcode":"48235"},{"establishmentid":"5107","name":"Mighty Sub Shop","address":"17602 W Seven Mile","zipcode":"48235"},{"establishmentid":"410","name":"Lou's  Deli/Seven Mile","address":"19440 W Seven Mile Rd","zipcode":"48219"},{"establishmentid":"5246","name":"Jamaica Jamaica Restaurant","address":"17550 W Seven Mile Rd","zipcode":"48227"},{"establishmentid":"352","name":"Lon's Coney Island","address":"17501 W Seven Mile Rd","zipcode":"48235"},{"establishmentid":"907","name":"Emerson K-8 School","address":"18240 Huntington Ave","zipcode":"48219"},{"establishmentid":"2603","name":"Emerson Annex","address":"19500 Curtis Ave","zipcode":"48219"},{"establishmentid":"2366","name":"Old Redford Academy Prep. High School","address":"8001 W Outer Dr","zipcode":"48235"},{"establishmentid":"2464","name":"Subway #24532","address":"7950 W Outer Dr","zipcode":"48235"},{"establishmentid":"2592","name":"Crab House","address":"19721 W Seven Mile Rd","zipcode":"48219"},{"establishmentid":"5160","name":"Olympia Coney Island","address":"19740 W Seven Mile","zipcode":"48219"}],"inspectionsByEstablishmentidList":[{"inspectionid":"43896","inspectionDate":"2018-10-26T00:00:00","inspectionType":"Preopening/COO","inCompliance":"Yes","violationsByInspectionidList":[]}]}]}},"pageContext":{"eid":"51622856"}}