{"data":{"site":{"pathPrefix":"/restaurant-inspections"},"postgres":{"establishment":[{"establishmentid":"4877","name":"AC's Hot Dog Express #1","address":"14155 Manor St","zipcode":"48238","owner":"AC's Ice Cream LLC","licenseNumber":"039800","licenseType":"Special Transitory Food Unit","establishmentType":"LHD - Special Transitory Food","establishmentStatus":"Seasonal","riskCategory":"Medium","reviewFrequencyDays":"365","coords":"-83.16804,42.39092","geojson":{"id":"4877","type":"Feature","geometry":{"type":"Point","coordinates":[-83.168040699,42.390923492]},"properties":{"name":"AC's Hot Dog Express #1","owner":"AC's Ice Cream LLC","address":"14155 Manor St","zipcode":"48238","license_type":"Special Transitory Food Unit","risk_category":"Medium","license_number":"039800","establishmentid":"4877","establishment_type":"LHD - Special Transitory Food","establishment_status":"Seasonal","review_frequency_days":"365","most_recent_license_date":"3/30/2015"}},"nearbyList":[{"establishmentid":"3444","name":"Adams-Butzel Recreation Center","address":"10500 Lyndon Ave","zipcode":"48238"},{"establishmentid":"1688","name":"Banko's Lounge","address":"14168 Wyoming St","zipcode":"48238"},{"establishmentid":"4800","name":"Asian Corned Beef","address":"13660 Wyoming St","zipcode":"48238"},{"establishmentid":"2744","name":"Super 3 Coney Island","address":"14508 Wyoming Ave","zipcode":"48238"},{"establishmentid":"2280","name":"Mary's Grille","address":"13900 Schaefer Hwy","zipcode":"48227"},{"establishmentid":"3153","name":"1st Wok","address":"12555 Grand River Ave #150","zipcode":"48204"},{"establishmentid":"2874","name":"Fish Express","address":"12555 Grand River Ste 400","zipcode":"48204"},{"establishmentid":"1366","name":"Little Caesar's Pizza #64","address":"12712 Fenkell Ave","zipcode":"48227"},{"establishmentid":"4907","name":"Javon's Kitchen","address":"14445 Schaefer Hwy","zipcode":"48227"},{"establishmentid":"51622832","name":"Fred's Fish & Chicken-Schaefer","address":"13465 Schaefer","zipcode":"48227"}],"inspectionsByEstablishmentidList":[]}],"maxInspectionDate":[{"inspectionDate":"2020-05-29T00:00:00"}]}},"pageContext":{"eid":"4877"}}