{"componentChunkName":"component---src-templates-establishment-page-js","path":"/establishment/2539","result":{"data":{"site":{"pathPrefix":"/restaurant-inspections"},"postgres":{"establishment":[{"establishmentid":"2539","name":"Robinson Dairy Vending","address":"11187 Gratiot","zipcode":"48213","owner":"Frank Caramagno","licenseNumber":"038938","licenseType":"Other","establishmentType":"LHD - Vending","establishmentStatus":"Open","riskCategory":null,"reviewFrequencyDays":"180","coords":"-82.99511,42.40942","geojson":{"id":"2539","type":"Feature","geometry":{"type":"Point","coordinates":[-82.995112864,42.409416653]},"properties":{"name":"Robinson Dairy Vending","owner":"Frank Caramagno","address":"11187 Gratiot","zipcode":"48213","license_type":"Other","risk_category":null,"license_number":"038938","establishmentid":"2539","establishment_type":"LHD - Vending","establishment_status":"Open","review_frequency_days":"180","most_recent_license_date":null}},"nearbyList":[{"establishmentid":"3670","name":"Long John Silvers","address":"11288 Gratiot Ave.","zipcode":"48213"},{"establishmentid":"1311","name":"Long John Silvers #3464","address":"11288 Gratiot Ave.","zipcode":"48213"},{"establishmentid":"51623085","name":"Long John Silvers","address":"11288 Gratiot","zipcode":"48213"},{"establishmentid":"1145","name":"Great Wall Carryout Restaurant","address":"11065 Gratiot Ave.","zipcode":"48213"},{"establishmentid":"920","name":"Edward Duke Ellington Conservatory","address":"8030 Outer Drive E.","zipcode":"48213"},{"establishmentid":"958","name":"Burger King #615","address":"11981 Gratiot Ave.","zipcode":"48213"},{"establishmentid":"51623511","name":"Denise Welons-Glover Welcome Center","address":"8200 Outer Drive W.","zipcode":"48219"},{"establishmentid":"812","name":"University of Detroit Mercy","address":"8200 OUTER DR W.","zipcode":"48219"},{"establishmentid":"3798","name":"Subway ","address":"8200 Outer Dr. W.","zipcode":"48235"},{"establishmentid":"5003","name":"Coney Connection","address":"10993 Gratiot Ave.","zipcode":"48205"}],"inspectionsByEstablishmentidList":[]}],"maxInspectionDate":[{"inspectionDate":"2023-04-25T00:00:00"}]}},"pageContext":{"eid":"2539"}},"staticQueryHashes":["3649515864","63159454"]}