{"componentChunkName":"component---src-templates-establishment-page-js","path":"/establishment/4298","result":{"data":{"site":{"pathPrefix":"/restaurant-inspections"},"postgres":{"establishment":[{"establishmentid":"4298","name":"Michigan Starz Dairy","address":"14501 Fenkell St.","zipcode":"48227","owner":"Florine Cosby","licenseNumber":"072191","licenseType":"Fixed Establishment","establishmentType":"Food Service Establishment","establishmentStatus":null,"riskCategory":null,"reviewFrequencyDays":"335","coords":"-83.18797,42.40169","geojson":{"id":"4298","type":"Feature","geometry":{"type":"Point","coordinates":[-83.187973674,42.401694845]},"properties":{"name":"Michigan Starz Dairy","owner":"Florine Cosby","address":"14501 Fenkell St.","zipcode":"48227","license_type":"Fixed Establishment","risk_category":null,"license_number":"072191","establishmentid":"4298","establishment_type":"Food Service Establishment","establishment_status":null,"review_frequency_days":"335","most_recent_license_date":"7/24/2014"}},"nearbyList":[{"establishmentid":"51623546","name":"Urban Grill  ","address":"14501 Fenkell ","zipcode":"48227"},{"establishmentid":"5184","name":"Fats Pizza & Grill LLC","address":"14535 Fenkell Ave.","zipcode":"48227"},{"establishmentid":"4144","name":"Lucky's Pizza","address":"14535 Fenkell St.","zipcode":"48227"},{"establishmentid":"5400","name":"Hubbell Fish & Chicken","address":"14535 Fenkell","zipcode":"48227"},{"establishmentid":"4108","name":"Captain Crust II","address":"14535 Fenkell","zipcode":"48227"},{"establishmentid":"51622917","name":"Yoshi Hibachi Grille/Yum Yoshi LLC","address":"14535 Fenkell","zipcode":"48203"},{"establishmentid":"3406","name":"Poppy's Pizza","address":"14545 Fenkell","zipcode":"48227"},{"establishmentid":"51623360","name":"5 Mile Grill","address":"14300 Fenkell","zipcode":"48227"},{"establishmentid":"871","name":"Cooley High School","address":"15055 Hubbell","zipcode":"48227"},{"establishmentid":"5153","name":"Davis Coney Island","address":"14228 Fenkell Ave.","zipcode":"48227"}],"inspectionsByEstablishmentidList":[]}],"maxInspectionDate":[{"inspectionDate":"2022-08-31T00:00:00"}]}},"pageContext":{"eid":"4298"}},"staticQueryHashes":["3649515864","63159454"]}