{"componentChunkName":"component---src-templates-establishment-page-js","path":"/establishment/972","result":{"data":{"site":{"pathPrefix":"/restaurant-inspections"},"postgres":{"establishment":[{"establishmentid":"972","name":"Royal Barbeque and Grill","address":"5844 Mt. Elliott","zipcode":"48211","owner":"Pashko Gojcaj","licenseNumber":"062256","licenseType":"Fixed Establishment","establishmentType":"Food Service Establishment","establishmentStatus":"Temporarily Closed","riskCategory":null,"reviewFrequencyDays":"150","coords":"-83.03192,42.37764","geojson":{"id":"972","type":"Feature","geometry":{"type":"Point","coordinates":[-83.031916171,42.377643652]},"properties":{"name":"Royal Barbeque and Grill","owner":"Pashko Gojcaj","address":"5844 Mt. Elliott","zipcode":"48211","license_type":"Fixed Establishment","risk_category":null,"license_number":"062256","establishmentid":"972","establishment_type":"Food Service Establishment","establishment_status":"Temporarily Closed","review_frequency_days":"150","most_recent_license_date":null}},"nearbyList":[{"establishmentid":"3814","name":"Royal Barbecue","address":"5844 Mt. Elliott Ave.","zipcode":"48211"},{"establishmentid":"2400","name":"Legends Grill","address":"5805 Mt. Elliott","zipcode":"48211"},{"establishmentid":"4254","name":"Nikolla Legends Grill","address":"5805 Mt. Elliott Ave.","zipcode":"48211"},{"establishmentid":"313","name":"R.A.R.D. El Capri Bar","address":"1673 Grand Blvd. E.","zipcode":"48211"},{"establishmentid":"1969","name":"All Star Services","address":"1600 Grand Blvd. E.","zipcode":"48211"},{"establishmentid":"2203","name":"C & M Vending","address":"6400 Harper","zipcode":"48211"},{"establishmentid":"2068","name":"Metropol Vending","address":"6515 Mt. Elliott","zipcode":"48211"},{"establishmentid":"1878","name":"DUBLIN","address":"6500 MT ELLIOTT","zipcode":"48221"},{"establishmentid":"1302","name":"Krystal's Korner","address":"5700 Canton","zipcode":"48211"},{"establishmentid":"3410","name":"A to Z Vending","address":"6600 Mt. Elliott Ave.","zipcode":"48211"}],"inspectionsByEstablishmentidList":[]}],"maxInspectionDate":[{"inspectionDate":"2023-04-25T00:00:00"}]}},"pageContext":{"eid":"972"}},"staticQueryHashes":["3649515864","63159454"]}