{"componentChunkName":"component---src-templates-establishment-page-js","path":"/establishment/51623790","result":{"data":{"site":{"pathPrefix":"/restaurant-inspections"},"postgres":{"establishment":[{"establishmentid":"51623790","name":"Big Black Food Trailer LLC","address":"3424 Bishop St.","zipcode":"48224","owner":"Cass Hawkins","licenseNumber":"PR22103D","licenseType":"Special Transitory Food Unit","establishmentType":"LHD - Special Transitory Food","establishmentStatus":"Open","riskCategory":null,"reviewFrequencyDays":null,"coords":"-82.92575,42.39413","geojson":{"id":"51623790","type":"Feature","geometry":{"type":"Point","coordinates":[-82.925749301,42.39412597]},"properties":{"name":"Big Black Food Trailer LLC","owner":"Cass Hawkins","address":"3424 Bishop St.","zipcode":"48224","license_type":"Special Transitory Food Unit","risk_category":null,"license_number":"PR22103D","establishmentid":"51623790","establishment_type":"LHD - Special Transitory Food","establishment_status":"Open","review_frequency_days":null,"most_recent_license_date":null}},"nearbyList":[{"establishmentid":"3195","name":"La Cina","address":"17201  Mack Ave.","zipcode":"48224"},{"establishmentid":"51623736","name":"Dulce Cafe and Bakery","address":"17233 Mack","zipcode":"48201"},{"establishmentid":"4969","name":"Cornerstone Village & Bar","address":"17315 Mack","zipcode":"48224"},{"establishmentid":"3184","name":"Trolley's","address":"17315 Mack Ave.","zipcode":"48224"},{"establishmentid":"4061","name":"Hot Dog Girlz","address":"4245  Cadieux Rd.","zipcode":"48224"},{"establishmentid":"318","name":"Cadieux Cafe","address":"4300 Cadieux ave.","zipcode":"48224"},{"establishmentid":"2274","name":"Kelly's Beans and Bagel","address":"17425 Mack Ave.","zipcode":"48224"},{"establishmentid":"2813","name":"Bogartz Food and Spirits","address":"17441  Mack Ave.","zipcode":"48224"},{"establishmentid":"2516","name":"Koolies","address":"4800 Cadieux","zipcode":"48224"},{"establishmentid":"1982","name":"Dragon Star All Meat Halal","address":"17022 Warren Ave. W.","zipcode":"48228"}],"inspectionsByEstablishmentidList":[{"inspectionid":"60368","inspectionDate":"2022-08-22T00:00:00","inspectionType":"Preopening/New","inCompliance":"Yes","violationsByInspectionidList":[]}]}],"maxInspectionDate":[{"inspectionDate":"2023-04-25T00:00:00"}]}},"pageContext":{"eid":"51623790"}},"staticQueryHashes":["3649515864","63159454"]}