{"data":{"postgres":{"establishment":[{"establishmentid":"262","name":"B. M. G. Bar & Grill","address":"20809 Joy Rd","zipcode":"48228","owner":"BMG Inc.","licenseNumber":"033915","licenseType":"Fixed Establishment","establishmentType":"Food Service Establishment","establishmentStatus":"Open","riskCategory":"High","reviewFrequencyDays":"365.0","coords":"-83.24475,42.35713","geojson":{"id":"262","type":"Feature","geometry":{"type":"Point","coordinates":[-83.244748857,42.3571334530001]},"properties":{"name":"B. M. G. Bar & Grill","owner":"BMG Inc.","address":"20809 Joy Rd","zipcode":"48228","license_type":"Fixed Establishment","risk_category":"High","license_number":"033915","establishmentid":"262","establishment_type":"Food Service Establishment","establishment_status":"Open","review_frequency_days":"365.0","most_recent_license_date":null}},"nearbyList":[{"establishmentid":"890","name":"Dixon Educational Learning Center","address":"8401 Trinity St","zipcode":"48228"},{"establishmentid":"51622775","name":"Joy & Green Mart LLC","address":"20000 Joy Rd","zipcode":"48228"},{"establishmentid":"719","name":"L. George Coney Island #7","address":"20003 Joy Rd","zipcode":"48228"},{"establishmentid":"5176","name":"Mary's Grill #2","address":"20804 Plymouth","zipcode":"48228"},{"establishmentid":"1130","name":"Mike's Coney Island","address":"19241 Joy Rd","zipcode":"48228"},{"establishmentid":"1241","name":"Mann Elementary School","address":"19625 Elmira","zipcode":"48228"},{"establishmentid":"4816","name":"WAY Academy West Campus","address":"19321 Chicago W","zipcode":"48228"},{"establishmentid":"1786","name":"Burger King","address":"20240 Plymouth Rd","zipcode":"48228"},{"establishmentid":"5299","name":"Plymouth Ocean Delight- Manhattan Fish","address":"20100 Plymouth Rd Suite B","zipcode":"48228"},{"establishmentid":"991","name":"Rouge Park Golf Course","address":"11701 Burt Rd","zipcode":"48228"}],"inspectionsByEstablishmentidList":[{"inspectionid":"43309","inspectionDate":"2018-08-31T00:00:00","inspectionType":"Routine Inspection","inCompliance":"No","violationsByInspectionidList":[{"violationCode":"4-302.14","violationDescription":"A test kit or other device that accurately measures the concentration in mg/L of SANITIZING solutions shall be provided. (Pf)\r\n","violationType":"Foundation","itemDescription":"Sanitizer test kit","subItem":"","problemDescription":"Not provided","subProblem":"","location":"WARE WASHING AREA","subLocation":"","corrected":"No","daysToCorrect":"10.0","correctedDate":null,"correctionDescription":"Provide."}]},{"inspectionid":"39452","inspectionDate":"2017-08-02T00:00:00","inspectionType":"Routine Inspection","inCompliance":"Yes","violationsByInspectionidList":[]}]}]}},"pageContext":{"eid":"262"}}