{"componentChunkName":"component---src-templates-establishment-page-js","path":"/establishment/51623218","result":{"data":{"site":{"pathPrefix":"/restaurant-inspections"},"postgres":{"establishment":[{"establishmentid":"51623218","name":"Coriander LLC (Oakland Co.)","address":"1792 Parker St.","zipcode":"48212","owner":"Coriander LLC","licenseNumber":"218853","licenseType":"Special Transitory Food Unit","establishmentType":null,"establishmentStatus":null,"riskCategory":null,"reviewFrequencyDays":null,"coords":"-82.99795,42.35845","geojson":{"id":"51623218","type":"Feature","geometry":{"type":"Point","coordinates":[-82.997951661,42.358453087]},"properties":{"name":"Coriander LLC (Oakland Co.)","owner":"Coriander LLC","address":"1792 Parker St.","zipcode":"48212","license_type":"Special Transitory Food Unit","risk_category":null,"license_number":"218853","establishmentid":"51623218","establishment_type":null,"establishment_status":null,"review_frequency_days":null,"most_recent_license_date":null}},"nearbyList":[{"establishmentid":"51622513","name":"La Boheme","address":"8100 Kercheval","zipcode":"48214"},{"establishmentid":"51622733","name":"Brudders Woodfired Pizza","address":"8122 Kercheval","zipcode":"48214"},{"establishmentid":"51623205","name":"Mumma Maria Enterprises","address":"8122 Kercheval Ave.","zipcode":"48214"},{"establishmentid":"51623432","name":"Two Birds","address":"8130 Kercheval","zipcode":"48214"},{"establishmentid":"51622821","name":"Destination 1905","address":"8130 Kercheval","zipcode":"48214"},{"establishmentid":"51622614","name":"Marrow, LLC","address":"8044 Kercheval","zipcode":"48214"},{"establishmentid":"51623702","name":"La Cantina","address":"8016 Kercheval","zipcode":"48214"},{"establishmentid":"51623002","name":"Gabriel Hall","address":"8002 Kercheval","zipcode":"48214"},{"establishmentid":"51623399","name":"Slyde","address":"7960 Kercheval","zipcode":"48214"},{"establishmentid":"681","name":"Dominos Pizza #1084","address":"7968 Kercheval","zipcode":"48207"}],"inspectionsByEstablishmentidList":[]}],"maxInspectionDate":[{"inspectionDate":"2022-07-25T00:00:00"}]}},"pageContext":{"eid":"51623218"}},"staticQueryHashes":["3649515864","63159454"]}