{"componentChunkName":"component---src-templates-establishment-page-js","path":"/establishment/3062","result":{"data":{"site":{"pathPrefix":"/restaurant-inspections"},"postgres":{"establishment":[{"establishmentid":"3062","name":"Variety Vending","address":"One Ford Place","zipcode":"48202","owner":"Variety Vending","licenseNumber":"040458","licenseType":"Other","establishmentType":"LHD - Vending","establishmentStatus":"Open","riskCategory":null,"reviewFrequencyDays":null,"coords":"-83.07516,42.36358","geojson":{"id":"3062","type":"Feature","geometry":{"type":"Point","coordinates":[-83.075158776,42.363580373]},"properties":{"name":"Variety Vending","owner":"Variety Vending","address":"One Ford Place","zipcode":"48202","license_type":"Other","risk_category":null,"license_number":"040458","establishmentid":"3062","establishment_type":"LHD - Vending","establishment_status":"Open","review_frequency_days":null,"most_recent_license_date":"2006-12-04"}},"nearbyList":[{"establishmentid":"2843","name":"Sterling Services","address":"One Ford Place","zipcode":"48202"},{"establishmentid":"51623451","name":"Midtown Market LLC/Henry Ford Hospital","address":"1 Ford Place","zipcode":"48202"},{"establishmentid":"612","name":"Cafe 1 - Henry Ford Health System","address":"1 Ford Place","zipcode":"48202"},{"establishmentid":"51622961","name":"University Prep Academy HS--Purple Bldg.","address":"600  Antoinette St.","zipcode":"48202"},{"establishmentid":"4092","name":"University Prep Academy HS--Blue Bldg.","address":"600 Antoinette St.","zipcode":"48202"},{"establishmentid":"51622960","name":"University Prep Academy HS--Green Bldg.","address":"600 Antoinette St.","zipcode":"48202"},{"establishmentid":"51622962","name":"University Prep Academy HS--Yellow Bldg.","address":"600 Antoinette St.","zipcode":"48202"},{"establishmentid":"51623046","name":"Pistons Kit (PPC) PlumMrktFoodServiceLLC","address":"6201 Second Ave.","zipcode":"48202"},{"establishmentid":"51622990","name":"Plum Mrkt Store(1stFl)/Wayne Co Mrkt LLC","address":"6201  Second Ave.","zipcode":"48202"},{"establishmentid":"51623081","name":"Wayne Co Mrkt LLC dba Plum Mrkt (Events)","address":"6201 Second Ave.","zipcode":"48202"}],"inspectionsByEstablishmentidList":[]}],"maxInspectionDate":[{"inspectionDate":"2023-04-25T00:00:00"}]}},"pageContext":{"eid":"3062"}},"staticQueryHashes":["3649515864","63159454"]}