{"componentChunkName":"component---src-templates-establishment-page-js","path":"/establishment/1529","result":{"data":{"site":{"pathPrefix":"/restaurant-inspections"},"postgres":{"establishment":[{"establishmentid":"1529","name":"Latino Family Services","address":"3815 Fort St. W.","zipcode":"48216","owner":"Alicia Villarreal","licenseNumber":"035755","licenseType":"Fixed Establishment","establishmentType":"Food Service Establishment","establishmentStatus":"Open","riskCategory":null,"reviewFrequencyDays":"335","coords":"-83.08387,42.31451","geojson":{"id":"1529","type":"Feature","geometry":{"type":"Point","coordinates":[-83.083869691,42.314510145]},"properties":{"name":"Latino Family Services","owner":"Alicia Villarreal","address":"3815 Fort St. W.","zipcode":"48216","license_type":"Fixed Establishment","risk_category":null,"license_number":"035755","establishmentid":"1529","establishment_type":"Food Service Establishment","establishment_status":"Open","review_frequency_days":"335","most_recent_license_date":null}},"nearbyList":[{"establishmentid":"3042","name":"Sterling Services","address":"4005 Fort W.","zipcode":"48209"},{"establishmentid":"4557","name":"Koolies","address":"4333 West Fort","zipcode":"48212"},{"establishmentid":"2544","name":"Robinson Dairy Vending","address":"4333 Fort W.","zipcode":"48209"},{"establishmentid":"51623068","name":"Dr. Sushi","address":"323 Grand Blv. W.","zipcode":"48216"},{"establishmentid":"4176","name":"Amelia Earhart Elementary/Middle School","address":"1000 Scotten","zipcode":"48209"},{"establishmentid":"875","name":"Earhart Middle School","address":"1000 Scotten Ave.","zipcode":"48209"},{"establishmentid":"4485","name":"Subway","address":"4276 Fort W.","zipcode":"48209"},{"establishmentid":"51623477","name":"Covenant House Academy-Southwest","address":"1450 25th Street","zipcode":"48216"},{"establishmentid":"821","name":"Covenant House Academy-Southwest","address":"1450 25th St.","zipcode":"48216"},{"establishmentid":"471","name":"Adela's Place","address":"4442 Fort St. W.","zipcode":"48209"}],"inspectionsByEstablishmentidList":[]}],"maxInspectionDate":[{"inspectionDate":"2023-04-25T00:00:00"}]}},"pageContext":{"eid":"1529"}},"staticQueryHashes":["3649515864","63159454"]}