{"data":{"site":{"pathPrefix":"/restaurant-inspections"},"postgres":{"establishment":[{"establishmentid":"51623311","name":"Big Mama Pizzeria LLC","address":"5181 Grand River","zipcode":"48208","owner":"Randy Mio","licenseNumber":"PS091820","licenseType":"Fixed Establishment","establishmentType":"Food Service Establishment","establishmentStatus":null,"riskCategory":null,"reviewFrequencyDays":"90.0","coords":"-83.09253,42.34914","geojson":{"id":"51623311","type":"Feature","geometry":{"type":"Point","coordinates":[-83.092527066,42.34914117]},"properties":{"name":"Big Mama Pizzeria LLC","owner":"Randy Mio","address":"5181 Grand River","zipcode":"48208","license_type":"Fixed Establishment","risk_category":null,"license_number":"PS091820","establishmentid":"51623311","establishment_type":"Food Service Establishment","establishment_status":null,"review_frequency_days":"90.0","most_recent_license_date":null}},"nearbyList":[{"establishmentid":"3865","name":"Monte Bello Pizzeria","address":"5181 Grand River Ave","zipcode":"48208"},{"establishmentid":"4459","name":"Legend's Coney Island","address":"5210 W Grand River","zipcode":"48208"},{"establishmentid":"4572","name":"Legends Grill","address":"5210 Grand River Ave","zipcode":"48208"},{"establishmentid":"5205","name":"Coriander","address":"4848 Grand River Blvd","zipcode":"48207"},{"establishmentid":"51622649","name":"The Commissary","address":"4848 Grand River Ste 1A","zipcode":"48208"},{"establishmentid":"51622688","name":"Magnet","address":"4842 Grand River Ave","zipcode":"48208"},{"establishmentid":"1411","name":"St. Leo's","address":"4860 Fifteenth St","zipcode":"48208"},{"establishmentid":"51623197","name":"St. Leos Soup Kitchen","address":"4800 Grand River Ave","zipcode":"48208"},{"establishmentid":"2442","name":"George Crockett Academy","address":"4851 Fourteenth St","zipcode":"48208"},{"establishmentid":"952","name":"Douglass Academy For Young Men","address":"2001 W Warren Ave","zipcode":"48208"}],"inspectionsByEstablishmentidList":[]}],"maxInspectionDate":[{"inspectionDate":"2020-10-30T00:00:00"}]}},"pageContext":{"eid":"51623311"}}