{"componentChunkName":"component---src-templates-establishment-page-js","path":"/establishment/980","result":{"data":{"site":{"pathPrefix":"/restaurant-inspections"},"postgres":{"establishment":[{"establishmentid":"980","name":"Hanneman Elementary","address":"6420 McGraw","zipcode":"48210","owner":"Detroit Board of Education","licenseNumber":"035023","licenseType":"Fixed Establishment","establishmentType":"Public School","establishmentStatus":"Permanently Closed","riskCategory":null,"reviewFrequencyDays":"335","coords":"-83.12951,42.34034","geojson":{"id":"980","type":"Feature","geometry":{"type":"Point","coordinates":[-83.129509455,42.340340475]},"properties":{"name":"Hanneman Elementary","owner":"Detroit Board of Education","address":"6420 McGraw","zipcode":"48210","license_type":"Fixed Establishment","risk_category":null,"license_number":"035023","establishmentid":"980","establishment_type":"Public School","establishment_status":"Permanently Closed","review_frequency_days":"335","most_recent_license_date":"2005-04-08"}},"nearbyList":[{"establishmentid":"1959","name":"L. B. Cafe","address":"6500 Hanson","zipcode":"48210"},{"establishmentid":"4232","name":"Round 2 Sports Bar","address":"6500 Hanson","zipcode":"48210"},{"establishmentid":"2255","name":"Modern Vending","address":"5625 Military","zipcode":"48210"},{"establishmentid":"51622782","name":"Fast Treats","address":"6211 Warren W.","zipcode":"48210"},{"establishmentid":"4934","name":"Nicky D's Coney Island","address":"6211  W. Warren Ave","zipcode":"48210"},{"establishmentid":"2416","name":"Metro Grill & Coney  Island","address":"6211 Warren W.","zipcode":"48210"},{"establishmentid":"51623306","name":"Speedy's Coney Island","address":"6211 Warren W.","zipcode":"48239"},{"establishmentid":"3906","name":"Nicky D's Coney Island","address":"6211  Warren Ave. W. ","zipcode":"48210"},{"establishmentid":"5367","name":"Nicky D's","address":"6211 Warren W.","zipcode":"48210"},{"establishmentid":"1794","name":"White Castle #18","address":"6301 Warren Ave. W.","zipcode":"48210"}],"inspectionsByEstablishmentidList":[]}],"maxInspectionDate":[{"inspectionDate":"2023-04-25T00:00:00"}]}},"pageContext":{"eid":"980"}},"staticQueryHashes":["3649515864","63159454"]}