{"componentChunkName":"component---src-templates-establishment-page-js","path":"/establishment/811","result":{"data":{"site":{"pathPrefix":"/restaurant-inspections"},"postgres":{"establishment":[{"establishmentid":"811","name":"Reflections Bar & Grill","address":"10011 Fort St. W.","zipcode":"48209","owner":"Kenneth Allen","licenseNumber":"059572","licenseType":"Fixed Establishment","establishmentType":"Food Service Establishment","establishmentStatus":"Open","riskCategory":null,"reviewFrequencyDays":"335","coords":"-83.13639,42.29342","geojson":{"id":"811","type":"Feature","geometry":{"type":"Point","coordinates":[-83.136394569,42.29341822]},"properties":{"name":"Reflections Bar & Grill","owner":"Kenneth Allen","address":"10011 Fort St. W.","zipcode":"48209","license_type":"Fixed Establishment","risk_category":null,"license_number":"059572","establishmentid":"811","establishment_type":"Food Service Establishment","establishment_status":"Open","review_frequency_days":"335","most_recent_license_date":"4/24/2014"}},"nearbyList":[{"establishmentid":"506","name":"Carbon Athletics Club","address":"111 Gates St N.","zipcode":"48209"},{"establishmentid":"1606","name":"Prelja's Ham Palace","address":"9405 Fort St. W.","zipcode":"48209"},{"establishmentid":"927","name":"Higgins Elementary","address":"9200 Olivet","zipcode":"48209"},{"establishmentid":"51622511","name":"Soulful Grub","address":"9180  Fort St. W.","zipcode":"48209"},{"establishmentid":"3115","name":"Blue Water Exploration--Diamond Queen","address":"13000 Denmark","zipcode":"48217"},{"establishmentid":"1818","name":"Blue Water Exploration--Diamond Belle","address":"13000 Denmark","zipcode":"48217"},{"establishmentid":"1580","name":"Diamond Jack-Blue Water Exploration","address":"13000 Denmark","zipcode":"48217"},{"establishmentid":"2608","name":"A to Z Vending","address":"9333  Dearborn St.","zipcode":"48209"},{"establishmentid":"5302","name":"Estos Garage","address":"9227 Mason Place","zipcode":"48209"},{"establishmentid":"1021","name":"Giovanni's Ristorante","address":"330 Oakwood Blvd.S.","zipcode":"48217"}],"inspectionsByEstablishmentidList":[]}],"maxInspectionDate":[{"inspectionDate":"2022-08-31T00:00:00"}]}},"pageContext":{"eid":"811"}},"staticQueryHashes":["3649515864","63159454"]}