{"componentChunkName":"component---src-templates-establishment-page-js","path":"/establishment/737","result":{"data":{"site":{"pathPrefix":"/restaurant-inspections"},"postgres":{"establishment":[{"establishmentid":"737","name":"Mormando's Pizzeria","address":"3940 Third","zipcode":"48201","owner":"William Mormando","licenseNumber":"034718","licenseType":"Fixed Establishment","establishmentType":"Food Service Establishment","establishmentStatus":"Open","riskCategory":null,"reviewFrequencyDays":"150","coords":"-83.06673,42.34734","geojson":{"id":"737","type":"Feature","geometry":{"type":"Point","coordinates":[-83.066733605,42.347338215]},"properties":{"name":"Mormando's Pizzeria","owner":"William Mormando","address":"3940 Third","zipcode":"48201","license_type":"Fixed Establishment","risk_category":null,"license_number":"034718","establishmentid":"737","establishment_type":"Food Service Establishment","establishment_status":"Open","review_frequency_days":"150","most_recent_license_date":"4/30/2007"}},"nearbyList":[{"establishmentid":"4753","name":"Breakfast Lunch & Deli","address":"3940 Third St.","zipcode":"48201"},{"establishmentid":"51623799","name":"Detroit Public Theatre","address":"3960 Third Ave.","zipcode":"48201"},{"establishmentid":"51623023","name":"Nain Rouge Brewery","address":"666 Selden St.","zipcode":"48201"},{"establishmentid":"51623163","name":"Barcade","address":"666 Selden St.","zipcode":"48201"},{"establishmentid":"5193","name":"Gus's Fried Chicken","address":"4101 Third Ave.","zipcode":"48201"},{"establishmentid":"51623440","name":"Vecino","address":"4100 Third St.","zipcode":"48201"},{"establishmentid":"51622936","name":"Smith & Co. ","address":"644 Selden St.","zipcode":"48201"},{"establishmentid":"436","name":"Jumbo's Bar","address":"3736 Third","zipcode":"48201"},{"establishmentid":"5180","name":"Cinema Detroit","address":"4126 Third Ave.","zipcode":"48201"},{"establishmentid":"4827","name":"Selden Standard","address":"3921-29  Second Ave.","zipcode":"48201"}],"inspectionsByEstablishmentidList":[]}],"maxInspectionDate":[{"inspectionDate":"2022-07-25T00:00:00"}]}},"pageContext":{"eid":"737"}},"staticQueryHashes":["3649515864","63159454"]}