{"data":{"site":{"pathPrefix":"/restaurant-inspections"},"postgres":{"establishment":[{"establishmentid":"51622656","name":"Pao","address":"114 W Adams Ave","zipcode":"48226","owner":"Joe Barbat ","licenseNumber":"237720","licenseType":"Fixed Establishment","establishmentType":"Food Service Establishment","establishmentStatus":"Open","riskCategory":"High","reviewFrequencyDays":"180.0","coords":"-83.05307,42.33632","geojson":{"id":"51622656","type":"Feature","geometry":{"type":"Point","coordinates":[-83.0530736159999,42.3363202890001]},"properties":{"name":"Pao","owner":"Joe Barbat ","address":"114 W Adams Ave","zipcode":"48226","license_type":"Fixed Establishment","risk_category":"High","license_number":"237720","establishmentid":"51622656","establishment_type":"Food Service Establishment","establishment_status":"Open","review_frequency_days":"180.0","most_recent_license_date":"6/6/2018"}},"nearbyList":[{"establishmentid":"3996","name":"Park Bar","address":"2040 Park Ave","zipcode":"48201"},{"establishmentid":"3584","name":"Cliff Bells","address":"2030 Park Ave","zipcode":"48201"},{"establishmentid":"5207","name":"Rusted Crow Detroit","address":"78 W Adams St","zipcode":"48226"},{"establishmentid":"4076","name":"Subway","address":"28 W Adams","zipcode":"48226"},{"establishmentid":"5133","name":"Coaches Corner Bar & Grill","address":"210 Bagley Ave","zipcode":"48226"},{"establishmentid":"5401","name":"Express Dogs","address":"220 Bagley Ste 244","zipcode":"48209"},{"establishmentid":"51622517","name":"Brass Rail","address":"18 W Adams St","zipcode":"48226"},{"establishmentid":"4340","name":"Hot Taco","address":"2233 Park Ave","zipcode":"48201"},{"establishmentid":"3172","name":"Centaur Bar","address":"2233 Park Avenue","zipcode":"48201-34"},{"establishmentid":"51622957","name":"Town Pump Tavern","address":"2233 Park Ave ","zipcode":"48226"}],"inspectionsByEstablishmentidList":[{"inspectionid":"47899","inspectionDate":"2019-05-30T00:00:00","inspectionType":"Plan Review/Pre-Open","inCompliance":"Yes","violationsByInspectionidList":[]}]}],"maxInspectionDate":[{"inspectionDate":"2019-10-31T00:00:00"}]}},"pageContext":{"eid":"51622656"}}