{"componentChunkName":"component---src-templates-establishment-page-js","path":"/establishment/3189","result":{"data":{"site":{"pathPrefix":"/restaurant-inspections"},"postgres":{"establishment":[{"establishmentid":"3189","name":"Sticky Fingers","address":"6800  Gratiot Ave.","zipcode":"48207","owner":"Dowel Watkins","licenseNumber":"070061","licenseType":"Fixed Establishment","establishmentType":"Food Service Establishment","establishmentStatus":"Open","riskCategory":null,"reviewFrequencyDays":"335","coords":"-83.02038,42.36962","geojson":{"id":"3189","type":"Feature","geometry":{"type":"Point","coordinates":[-83.020384781,42.36961636]},"properties":{"name":"Sticky Fingers","owner":"Dowel Watkins","address":"6800  Gratiot Ave.","zipcode":"48207","license_type":"Fixed Establishment","risk_category":null,"license_number":"070061","establishmentid":"3189","establishment_type":"Food Service Establishment","establishment_status":"Open","review_frequency_days":"335","most_recent_license_date":null}},"nearbyList":[{"establishmentid":"51622851","name":"Dilla's Delights LLC","address":"4731 Bellevue","zipcode":"48207"},{"establishmentid":"5366","name":"Avalon Bakehouse & Commissary","address":"4731 Bellevue","zipcode":"48207"},{"establishmentid":"51622484","name":"Avalon Commissary","address":"4731 Bellevue","zipcode":"48207"},{"establishmentid":"3441","name":"Filterfresh","address":"7011 Gratiot","zipcode":null},{"establishmentid":"2634","name":"Doughboy Enterprises","address":"4700 Beaufait","zipcode":"48207"},{"establishmentid":"1642","name":"Southeast Children and Family","address":"3975 Concord","zipcode":"48207"},{"establishmentid":"4294","name":"King Fish Market","address":"1167 E. Grand Blvd.","zipcode":"48211"},{"establishmentid":"2418","name":"New York City Coney Island","address":"1167 Grand Blvd. E.","zipcode":"48207"},{"establishmentid":"3421","name":"UNITED CONEY ISLAND","address":"1167 GRAND BLVD. E.","zipcode":"48207"},{"establishmentid":"3848","name":"Krispy Chicken","address":"1167 Grand Blvd. E.","zipcode":"48211"}],"inspectionsByEstablishmentidList":[]}],"maxInspectionDate":[{"inspectionDate":"2022-08-31T00:00:00"}]}},"pageContext":{"eid":"3189"}},"staticQueryHashes":["3649515864","63159454"]}