{"componentChunkName":"component---src-templates-establishment-page-js","path":"/establishment/1159","result":{"data":{"site":{"pathPrefix":"/restaurant-inspections"},"postgres":{"establishment":[{"establishmentid":"1159","name":"Young's Granddad's Restaurant","address":"1500 State Fair E.","zipcode":"48203","owner":"Kin Young","licenseNumber":"035244","licenseType":"Fixed Establishment","establishmentType":"Food Service Establishment","establishmentStatus":"Temporarily Closed","riskCategory":null,"reviewFrequencyDays":"150","coords":"-83.08874,42.43973","geojson":{"id":"1159","type":"Feature","geometry":{"type":"Point","coordinates":[-83.088738754,42.439732262]},"properties":{"name":"Young's Granddad's Restaurant","owner":"Kin Young","address":"1500 State Fair E.","zipcode":"48203","license_type":"Fixed Establishment","risk_category":null,"license_number":"035244","establishmentid":"1159","establishment_type":"Food Service Establishment","establishment_status":"Temporarily Closed","review_frequency_days":"150","most_recent_license_date":"12/4/2006"}},"nearbyList":[{"establishmentid":"1124","name":"Marshall Elementary School","address":"1255 State Fair E.","zipcode":"48203"},{"establishmentid":"1930","name":"Detroit Grill King BBQ Smokehouse","address":"1200 State Fair E.","zipcode":"48203"},{"establishmentid":"897","name":"Nolan Junior High School","address":"1150 Lantz E.","zipcode":"48238"},{"establishmentid":"1234","name":"Field Trainable Center","address":"19670 Cameron","zipcode":"48238"},{"establishmentid":"2377","name":"Pete's Grill","address":"1400 Outer Dr. E.","zipcode":"48234"},{"establishmentid":"51623393","name":"Hot Off the Grill","address":"1620 Eight Mile E.","zipcode":"48203"},{"establishmentid":"51623709","name":"AMA Pizza Holdings LLC-Domino's","address":"1636 E. Eight Mile","zipcode":"48203"},{"establishmentid":"682","name":"Mr. Mapps Lounge","address":"1627 Seven Mile Rd. E.","zipcode":"48203"},{"establishmentid":"5281","name":"Davison Fish N Seafood LLC","address":"1520 Seven Mile E.","zipcode":"48203"},{"establishmentid":"2724","name":"Grinder 2","address":"1648 Seven Mile Rd. E.","zipcode":"48203"}],"inspectionsByEstablishmentidList":[]}],"maxInspectionDate":[{"inspectionDate":"2022-07-25T00:00:00"}]}},"pageContext":{"eid":"1159"}},"staticQueryHashes":["3649515864","63159454"]}