{"componentChunkName":"component---src-templates-establishment-page-js","path":"/establishment/499","result":{"data":{"site":{"pathPrefix":"/restaurant-inspections"},"postgres":{"establishment":[{"establishmentid":"499","name":"UAW-GM Center for Human Resources","address":"200 Walker","zipcode":"48207","owner":"Crank's Services LLC","licenseNumber":"jb071217","licenseType":"Fixed Establishment","establishmentType":"Food Service Establishment","establishmentStatus":"Open","riskCategory":null,"reviewFrequencyDays":"335","coords":"-83.01344,42.33803","geojson":{"id":"499","type":"Feature","geometry":{"type":"Point","coordinates":[-83.01344254,42.338033572]},"properties":{"name":"UAW-GM Center for Human Resources","owner":"Crank's Services LLC","address":"200 Walker","zipcode":"48207","license_type":"Fixed Establishment","risk_category":null,"license_number":"jb071217","establishmentid":"499","establishment_type":"Food Service Establishment","establishment_status":"Open","review_frequency_days":"335","most_recent_license_date":"2015-04-30"}},"nearbyList":[{"establishmentid":"2069","name":"Robinson Dairy Vending","address":"200 Walker","zipcode":"48207"},{"establishmentid":"5319","name":"Cranks","address":"200 Walker","zipcode":"48207"},{"establishmentid":"4410","name":"Detroit Affordable Assisted Living","address":"3103  Wight St.","zipcode":"48207"},{"establishmentid":"4639","name":"Detroit Affordable Assisted Living, LDHA","address":"3103 Wight Street","zipcode":"48209"},{"establishmentid":"51622625","name":"Morrison Community Living @ Rivertown","address":"250 McDougall","zipcode":"48207"},{"establishmentid":"51623362","name":"Chutney Cat","address":"400 River Place #4103","zipcode":"48207"},{"establishmentid":"3733","name":"Tubby's Submarine","address":"3250 Jefferson Ave. E.","zipcode":"48207"},{"establishmentid":"51622568","name":"Bread Basket Deli Downtown Detroit","address":"3242 E. Jefferson Ave.","zipcode":"48207"},{"establishmentid":"784","name":"Arianna's Grill","address":"3242 Jefferson Ave. E.","zipcode":"48207"},{"establishmentid":"420","name":"Five Star Vending","address":"3146 E. Jefferson","zipcode":"48207"}],"inspectionsByEstablishmentidList":[]}],"maxInspectionDate":[{"inspectionDate":"2023-04-25T00:00:00"}]}},"pageContext":{"eid":"499"}},"staticQueryHashes":["3649515864","63159454"]}