{"componentChunkName":"component---src-templates-establishment-page-js","path":"/establishment/2350","result":{"data":{"site":{"pathPrefix":"/restaurant-inspections"},"postgres":{"establishment":[{"establishmentid":"2350","name":"Marilyn's on Monroe","address":"419-21 Monroe","zipcode":"48227","owner":"Burgoyne L. Jones","licenseNumber":"042276","licenseType":"Fixed Establishment","establishmentType":"Food Service Establishment","establishmentStatus":"Permanently Closed","riskCategory":null,"reviewFrequencyDays":"550","coords":"-83.04346,42.33480","geojson":{"id":"2350","type":"Feature","geometry":{"type":"Point","coordinates":[-83.043456241,42.334804249]},"properties":{"name":"Marilyn's on Monroe","owner":"Burgoyne L. Jones","address":"419-21 Monroe","zipcode":"48227","license_type":"Fixed Establishment","risk_category":null,"license_number":"042276","establishmentid":"2350","establishment_type":"Food Service Establishment","establishment_status":"Permanently Closed","review_frequency_days":"550","most_recent_license_date":"15/4/2008"}},"nearbyList":[{"establishmentid":"4230","name":"Marilyn's American Tavern","address":"419 Monroe","zipcode":"48226"},{"establishmentid":"4624","name":"Firebird Tavern","address":"419 Monroe St.","zipcode":"48226"},{"establishmentid":"385","name":"The Old Shillelagh, LLC","address":"349 Monroe St.","zipcode":"48226"},{"establishmentid":"1505","name":"Fishbones Rhythm Kitchen ","address":"400 Monroe St.","zipcode":"48226"},{"establishmentid":"1485","name":"International Banquet & Conference Ctr.","address":"400 Monroe St.","zipcode":"48226"},{"establishmentid":"51622976","name":"DelMar Kitchen & Bar","address":"501 Monroe","zipcode":"48226"},{"establishmentid":"3179","name":"Santorini","address":"501 Monroe St.","zipcode":"48226"},{"establishmentid":"51622982","name":"Del Mar","address":"501 Monroe","zipcode":"48226"},{"establishmentid":"2065","name":"Sweet Georgia Brown","address":"1045 Brush","zipcode":"48226"},{"establishmentid":"4447","name":"Detroit's Cheesecake Bistro LLC","address":"1045  Brush St.","zipcode":"48226"}],"inspectionsByEstablishmentidList":[]}],"maxInspectionDate":[{"inspectionDate":"2023-04-13T00:00:00"}]}},"pageContext":{"eid":"2350"}},"staticQueryHashes":["3649515864","63159454"]}