{"data":{"site":{"pathPrefix":"/restaurant-inspections"},"postgres":{"establishment":[{"establishmentid":"1873","name":"Suite 100","address":"15789 Schaefer Hwy","zipcode":"48227","owner":"C-Lark Corp.","licenseNumber":"036910","licenseType":"Fixed Establishment","establishmentType":"Food Service Establishment","establishmentStatus":"Open","riskCategory":null,"reviewFrequencyDays":"365","coords":"-83.17958,42.40736","geojson":{"id":"1873","type":"Feature","geometry":{"type":"Point","coordinates":[-83.179576616,42.407358358]},"properties":{"name":"Suite 100","owner":"C-Lark Corp.","address":"15789 Schaefer Hwy","zipcode":"48227","license_type":"Fixed Establishment","risk_category":null,"license_number":"036910","establishmentid":"1873","establishment_type":"Food Service Establishment","establishment_status":"Open","review_frequency_days":"365","most_recent_license_date":null}},"nearbyList":[{"establishmentid":"51622893","name":"Lighthouse Fish Market & Grocery","address":"15391 Schaefer Rd","zipcode":"48227"},{"establishmentid":"5175","name":"Gunny Ray's Shrimp & Chicken","address":"15391 Schaefer Hwy","zipcode":"48227"},{"establishmentid":"4164","name":"Disabled Am. Vets K-R Metro Chp. No.1","address":"13221 Puritan Ave","zipcode":"48227"},{"establishmentid":"1214","name":"Church's Fried Chicken #964","address":"13531 Fenkell Ave","zipcode":"48227"},{"establishmentid":"5393","name":"Five Hundred Degrees","address":"15090 Schaefer","zipcode":"48227"},{"establishmentid":"1866","name":"Lee's Texas Style Bar-B-Que","address":"14001 Fenkell Ave","zipcode":"48227"},{"establishmentid":"3582","name":"Lincoln-King Academy","address":"13436 Grove St","zipcode":"48235"},{"establishmentid":"852","name":"John R King Academic & Performing Arts ","address":"15850 Strathmoor St","zipcode":"48227"},{"establishmentid":"5391","name":"Desmond's Elegant Affairs","address":"12924 Puritan Ave","zipcode":"48227"},{"establishmentid":"1913","name":"Happy's Pizza #4","address":"16850 Schaefer Hwy","zipcode":"48235"}],"inspectionsByEstablishmentidList":[{"inspectionid":"45275","inspectionDate":"2019-02-21T00:00:00","inspectionType":"Routine Inspection","inCompliance":"Yes","violationsByInspectionidList":[{"violationCode":"6-301.11","violationDescription":"Each HANDWASHING SINK or group of 2 adjacent HANDWASHING SINKS shall be provided with a supply of hand cleaning liquid, powder, or bar soap. (Pf)\r\n","violationType":"Foundation","itemDescription":"Soap","subItem":"","problemDescription":"Not provided","subProblem":"","location":"BAR","subLocation":"","corrected":"Yes","daysToCorrect":"10","correctedDate":"2019-04-15T00:00:00","correctionDescription":"Provide."}]}]}],"maxInspectionDate":[{"inspectionDate":"2020-05-29T00:00:00"}]}},"pageContext":{"eid":"1873"}}