{"data":{"postgres":{"establishment":[{"establishmentid":"1718","name":"Cathedral Church of St. Paul","address":"4800 Woodward Ave","zipcode":"48201","owner":"Cathedral Church of St. Paul","licenseNumber":"036102","licenseType":"Fixed Establishment","establishmentType":"Food Service Establishment","establishmentStatus":"Open","riskCategory":"Medium","reviewFrequencyDays":"365.0","coords":"-83.06331,42.35645","geojson":{"id":"1718","type":"Feature","geometry":{"type":"Point","coordinates":[-83.0633146339999,42.35644539]},"properties":{"name":"Cathedral Church of St. Paul","owner":"Cathedral Church of St. Paul","address":"4800 Woodward Ave","zipcode":"48201","license_type":"Fixed Establishment","risk_category":"Medium","license_number":"036102","establishmentid":"1718","establishment_type":"Food Service Establishment","establishment_status":"Open","review_frequency_days":"365.0","most_recent_license_date":"4/27/2018"}},"nearbyList":[{"establishmentid":"5158","name":"Red Pepper Foods","address":"4800 Woodward Ave","zipcode":"48201"},{"establishmentid":"1628","name":"Hannan Center","address":"4750 Woodward Ave","zipcode":"48201"},{"establishmentid":"4861","name":"Ms. Ruth Catering","address":"4750 Woodward Ave","zipcode":"48201"},{"establishmentid":"2444","name":"Association of Chinese Americans","address":"4750 Woodward Ave","zipcode":"48201"},{"establishmentid":"5086","name":"Operation ABLE of Michigan- Det Training","address":"4750 Woodward Ave","zipcode":"48201"},{"establishmentid":"4388","name":"The Potato Place","address":"107 W Warren Ave","zipcode":"48201-34"},{"establishmentid":"2411","name":"Epicurus Place","address":"111 W Warren Ave","zipcode":"48201"},{"establishmentid":"1161","name":"Olympic Grill","address":"119 W Warren Ave","zipcode":"48201"},{"establishmentid":"4943","name":"Checkers Restaurant","address":"4662 Woodward Ave","zipcode":"48201"},{"establishmentid":"2330","name":"Detroit Institute of Arts -Cafe DIA","address":"5200 Woodward Ave","zipcode":"48202"}],"inspectionsByEstablishmentidList":[{"inspectionid":"41384","inspectionDate":"2018-01-16T00:00:00","inspectionType":"Routine Inspection","inCompliance":"Yes","violationsByInspectionidList":[]},{"inspectionid":"37798","inspectionDate":"2017-01-21T00:00:00","inspectionType":"Routine Inspection","inCompliance":"Yes","violationsByInspectionidList":[]}]}]}},"pageContext":{"eid":"1718"}}