{"componentChunkName":"component---src-templates-establishment-page-js","path":"/establishment/582","result":{"data":{"site":{"pathPrefix":"/restaurant-inspections"},"postgres":{"establishment":[{"establishmentid":"582","name":"Caucus Club ","address":"645 Griswold #414","zipcode":"48226","owner":"Caucus Club Inc.","licenseNumber":"034458","licenseType":"Fixed Establishment","establishmentType":"Food Service Establishment","establishmentStatus":"Open","riskCategory":null,"reviewFrequencyDays":"150","coords":"-83.04766,42.33028","geojson":{"id":"582","type":"Feature","geometry":{"type":"Point","coordinates":[-83.047659291,42.330277914]},"properties":{"name":"Caucus Club ","owner":"Caucus Club Inc.","address":"645 Griswold #414","zipcode":"48226","license_type":"Fixed Establishment","risk_category":null,"license_number":"034458","establishmentid":"582","establishment_type":"Food Service Establishment","establishment_status":"Open","review_frequency_days":"150","most_recent_license_date":"4/27/2012"}},"nearbyList":[{"establishmentid":"5288","name":"CHAI HOUSE","address":"645 Griswold St.","zipcode":"48226"},{"establishmentid":"4449","name":"Carnival Fresh Mex","address":"645 Griswold","zipcode":"48226"},{"establishmentid":"4799","name":"Drive Table Tennis Social Club","address":"645 Griswold","zipcode":"48226"},{"establishmentid":"5110","name":"Which Wich? Superior Sandwiches","address":"645 Griswold","zipcode":"48226"},{"establishmentid":"5289","name":"CHAI HOUSE","address":"645 Griswold","zipcode":"48226"},{"establishmentid":"4629","name":"Athens Souvlaki ","address":"645 Griswold","zipcode":"48226"},{"establishmentid":"3859","name":"Fastbreak Donut (Detroit Donut)","address":"645 Griswold","zipcode":"48226"},{"establishmentid":"2511","name":"Robinson Dairy Vending","address":"719 Griswold","zipcode":"48226"},{"establishmentid":"3512","name":"The Coffee Cafe","address":"719  Griswold St.","zipcode":"48226"},{"establishmentid":"4866","name":"Dime Store","address":"719 Griswold","zipcode":"48226"}],"inspectionsByEstablishmentidList":[]}],"maxInspectionDate":[{"inspectionDate":"2022-08-31T00:00:00"}]}},"pageContext":{"eid":"582"}},"staticQueryHashes":["3649515864","63159454"]}