{"data":{"site":{"pathPrefix":"/restaurant-inspections"},"postgres":{"establishment":[{"establishmentid":"4816","name":"WAY Academy West Campus","address":"19321 W Chicago ","zipcode":"48228","owner":"WAY Academy","licenseNumber":"078731","licenseType":"Fixed Establishment","establishmentType":"Public School","establishmentStatus":"Open","riskCategory":null,"reviewFrequencyDays":"210","coords":"-83.23077,42.36428","geojson":{"id":"4816","type":"Feature","geometry":{"type":"Point","coordinates":[-83.230768832,42.364275352]},"properties":{"name":"WAY Academy West Campus","owner":"WAY Academy","address":"19321 W Chicago ","zipcode":"48228","license_type":"Fixed Establishment","risk_category":null,"license_number":"078731","establishmentid":"4816","establishment_type":"Public School","establishment_status":"Open","review_frequency_days":"210","most_recent_license_date":null}},"nearbyList":[{"establishmentid":"1241","name":"Mann Elementary School","address":"19625 Elmira St","zipcode":"48228"},{"establishmentid":"1130","name":"Mike's Coney Island","address":"19241 Joy Rd","zipcode":"48228"},{"establishmentid":"1466","name":"China Garden","address":"19641 Joy Rd","zipcode":"48228"},{"establishmentid":"2471","name":"Ply Produce and Deli","address":"19615 Plymouth Rd","zipcode":"48228"},{"establishmentid":"51623032","name":"Joy Southfield Community Develop. Corp","address":"18900 Joy Rd","zipcode":"48228"},{"establishmentid":"5025","name":"New Bentley Lounge","address":"19631 Plymouth Rd","zipcode":"48228"},{"establishmentid":"51622775","name":"Joy & Green Mart LLC","address":"20000 Joy Rd","zipcode":"48228"},{"establishmentid":"719","name":"L. George Coney Island #7","address":"20003 Joy Rd","zipcode":"48228"},{"establishmentid":"893","name":"Cody Senior High School","address":"18445 Cathedral St","zipcode":"48228"},{"establishmentid":"977","name":"Olympia Coney Island","address":"20040 Plymouth Rd","zipcode":"48228"}],"inspectionsByEstablishmentidList":[{"inspectionid":"38830","inspectionDate":"2017-05-22T00:00:00","inspectionType":"Routine Inspection","inCompliance":"Yes","violationsByInspectionidList":[{"violationCode":"MFL289.2129","violationDescription":"Sec. 2129. (1) All food establishments shall employ a minimum of 1 managerial employee as a food safety manager, who must be an individual who is currently certified under a personnel certification program accredited by the American National Standards Institute, utilizing the Conference for Food Protection standards:\r\n(2) Beginning January 14, 2017 and every 5 years thereafter, a certified  food safety manager who supervises the operations of a food service establishment shall have completed a food safety training program\r\ncontaining an allergen awareness  component that has been approved by  the department. A food service establishment shall retain records on the  site of the food service establishment documenting compliance of its  certified food safety managers with this subsection. ","violationType":"Core","itemDescription":"Person-in-charge","subItem":"","problemDescription":null,"subProblem":"","location":"ESTABLISHMENT","subLocation":"","corrected":"Not required","daysToCorrect":"30","correctedDate":null,"correctionDescription":null}]}]}],"maxInspectionDate":[{"inspectionDate":"2020-10-30T00:00:00"}]}},"pageContext":{"eid":"4816"}}