{"componentChunkName":"component---src-templates-establishment-page-js","path":"/establishment/51623612","result":{"data":{"site":{"pathPrefix":"/restaurant-inspections"},"postgres":{"establishment":[{"establishmentid":"51623612","name":"Spudz and Clucks","address":"18456 Grand River","zipcode":"48223","owner":"Tarik A Haygood","licenseNumber":"257805","licenseType":"Fixed Establishment","establishmentType":"Food Service Establishment","establishmentStatus":"Open","riskCategory":"High","reviewFrequencyDays":"150","coords":"-83.22259,42.40272","geojson":{"id":"51623612","type":"Feature","geometry":{"type":"Point","coordinates":[-83.222592381,42.402722727]},"properties":{"name":"Spudz and Clucks","owner":"Tarik A Haygood","address":"18456 Grand River","zipcode":"48223","license_type":"Fixed Establishment","risk_category":"High","license_number":"257805","establishmentid":"51623612","establishment_type":"Food Service Establishment","establishment_status":"Open","review_frequency_days":"150","most_recent_license_date":null}},"nearbyList":[{"establishmentid":"4607","name":"Louisiana Fried Chicken (Good Taste)","address":"18456 Grand River","zipcode":"48223"},{"establishmentid":"51623339","name":"Spudz and Clucks","address":"18456 Grand River","zipcode":"48223"},{"establishmentid":"51622571","name":"River Bistro Detroit","address":"18456  Grand River Ave","zipcode":"48223"},{"establishmentid":"2598","name":"Gwen's BBQ","address":"18456 Grand River Ave.","zipcode":"48223"},{"establishmentid":"5237","name":"Metro Fish & Seafood LLC","address":"18440 Grand River","zipcode":"48223"},{"establishmentid":"3162","name":"Dinner Thyme Catering","address":"18420 Grand River Ave.","zipcode":"48223"},{"establishmentid":"51623386","name":"Pizza Palace Fish & Chicken Express ","address":"18509 Grand River ","zipcode":null},{"establishmentid":"2669","name":"Fish Express 1-Pizza Palace","address":"18509 Grand River Ave.","zipcode":"48223"},{"establishmentid":"51623919","name":"Fresh Fish & Grocery Express Mkt.","address":"18509 Grand River","zipcode":"48223"},{"establishmentid":"2045","name":"McDonald's #567","address":"18403 Grand River Ave.","zipcode":"48223"}],"inspectionsByEstablishmentidList":[]}],"maxInspectionDate":[{"inspectionDate":"2023-04-13T00:00:00"}]}},"pageContext":{"eid":"51623612"}},"staticQueryHashes":["3649515864","63159454"]}