{"componentChunkName":"component---src-templates-establishment-page-js","path":"/establishment/1746","result":{"data":{"site":{"pathPrefix":"/restaurant-inspections"},"postgres":{"establishment":[{"establishmentid":"1746","name":"Michigan Commission for the Blind","address":"231 Lafayette W.","zipcode":"48226","owner":"Constance Zagner","licenseNumber":"036146","licenseType":"Other","establishmentType":"LHD - Vending","establishmentStatus":"Open","riskCategory":null,"reviewFrequencyDays":"180","coords":"-83.04972,42.33036","geojson":{"id":"1746","type":"Feature","geometry":{"type":"Point","coordinates":[-83.049723198,42.33036417]},"properties":{"name":"Michigan Commission for the Blind","owner":"Constance Zagner","address":"231 Lafayette W.","zipcode":"48226","license_type":"Other","risk_category":null,"license_number":"036146","establishmentid":"1746","establishment_type":"LHD - Vending","establishment_status":"Open","review_frequency_days":"180","most_recent_license_date":null}},"nearbyList":[{"establishmentid":"1954","name":"Cafe 333","address":"333 Fort W.","zipcode":"48226"},{"establishmentid":"4124","name":"Gateway Deli","address":"333 Fort St.","zipcode":"48226"},{"establishmentid":"51623378","name":"Gateway Deli Cafe","address":"333 Fort St. W.","zipcode":"48226"},{"establishmentid":"2046","name":"Zoom Grill","address":"211 Fort W.","zipcode":"48226"},{"establishmentid":"4837","name":"Zoom Coney Restaurant","address":"211 W. Fort St.","zipcode":"48226"},{"establishmentid":"51622819","name":"Fort Street Galley- Bar & Table","address":"160 W. Fort","zipcode":"48226"},{"establishmentid":"1926","name":"Sodexho","address":"160 Fort W.","zipcode":"48226"},{"establishmentid":"51622865","name":"Lucky's Noble BBQ/Fort Street Galley","address":"160 Fort","zipcode":"48226"},{"establishmentid":"51622866","name":"Isla/Fort Street Galley","address":"160 Fort","zipcode":"48226"},{"establishmentid":"51622867","name":"Allenby/Fort Street Galley","address":"160 Fort","zipcode":"48226"}],"inspectionsByEstablishmentidList":[]}],"maxInspectionDate":[{"inspectionDate":"2022-08-31T00:00:00"}]}},"pageContext":{"eid":"1746"}},"staticQueryHashes":["3649515864","63159454"]}