{"componentChunkName":"component---src-templates-establishment-page-js","path":"/establishment/4935","result":{"data":{"site":{"pathPrefix":"/restaurant-inspections"},"postgres":{"establishment":[{"establishmentid":"4935","name":"Chef Malek Market","address":"16840 W Warren","zipcode":"48228","owner":"Mansor Almoslemawi","licenseNumber":"NK81314","licenseType":"Fixed Establishment","establishmentType":"Food Service Establishment","establishmentStatus":"New Owner/Complete Reconstruct","riskCategory":"High","reviewFrequencyDays":null,"coords":"-83.21020,42.34373","geojson":{"id":"4935","type":"Feature","geometry":{"type":"Point","coordinates":[-83.210195742,42.343730255]},"properties":{"name":"Chef Malek Market","owner":"Mansor Almoslemawi","address":"16840 W Warren","zipcode":"48228","license_type":"Fixed Establishment","risk_category":"High","license_number":"NK81314","establishmentid":"4935","establishment_type":"Food Service Establishment","establishment_status":"New Owner/Complete Reconstruct","review_frequency_days":null,"most_recent_license_date":null}},"nearbyList":[{"establishmentid":"212","name":"Nick's Detroit","address":"16807 Warren Ave. W.","zipcode":"48228"},{"establishmentid":"5315","name":"Mr. Softy","address":"7262 Memorial St.","zipcode":"48228"},{"establishmentid":"5330","name":"Halal Pizza Box","address":"16645 Warren E.","zipcode":"48228"},{"establishmentid":"51622589","name":"Abe's Bakery & Pizza","address":"16645 Warren Ave. W.","zipcode":"48228"},{"establishmentid":"876","name":"Primo's Pizza","address":"16645 Warren Ave. W.","zipcode":"48228"},{"establishmentid":"3984","name":"Express Deli and Grill","address":"16645 Warren Ave. W.","zipcode":"48228"},{"establishmentid":"4434","name":"Pizza Boxx","address":"16645 Warren W.","zipcode":"48228"},{"establishmentid":"51623521","name":"A M Fish & Chicken Market LLC","address":"16645 Warren W.","zipcode":"48226"},{"establishmentid":"803","name":"Gigi's Birdcage","address":"16920 Warren Ave. W.","zipcode":"48228"},{"establishmentid":"2289","name":"Al-Shark Rest","address":"16956 Warren Ave. W.","zipcode":"48228"}],"inspectionsByEstablishmentidList":[]}],"maxInspectionDate":[{"inspectionDate":"2023-04-25T00:00:00"}]}},"pageContext":{"eid":"4935"}},"staticQueryHashes":["3649515864","63159454"]}