{"componentChunkName":"component---src-templates-establishment-page-js","path":"/establishment/4697","result":{"data":{"site":{"pathPrefix":"/restaurant-inspections"},"postgres":{"establishment":[{"establishmentid":"4697","name":"Detroit Parlor Room","address":"1525 Woodward Ave.","zipcode":"48336","owner":"Michael Bowen","licenseNumber":"352-7211","licenseType":"Other","establishmentType":"Food Service Establishment","establishmentStatus":null,"riskCategory":null,"reviewFrequencyDays":null,"coords":"-83.04996,42.33508","geojson":{"id":"4697","type":"Feature","geometry":{"type":"Point","coordinates":[-83.04996051,42.335084526]},"properties":{"name":"Detroit Parlor Room","owner":"Michael Bowen","address":"1525 Woodward Ave.","zipcode":"48336","license_type":"Other","risk_category":null,"license_number":"352-7211","establishmentid":"4697","establishment_type":"Food Service Establishment","establishment_status":null,"review_frequency_days":null,"most_recent_license_date":null}},"nearbyList":[{"establishmentid":"4696","name":"Louie's Tavern","address":"30 Clifford","zipcode":"48226"},{"establishmentid":"4853","name":"Downtown Louie's","address":"30 Clifford","zipcode":"48226"},{"establishmentid":"4088","name":"Hotel D'Mongo's Dining Room ","address":"1545 Woodward","zipcode":"48226"},{"establishmentid":"5374","name":"La Pecora Nera","address":"1514 Washington Blvd","zipcode":"48226"},{"establishmentid":"4975","name":"Aloft Detroit W XYZ","address":"1  Park Ave","zipcode":"48226"},{"establishmentid":"2389","name":"Bleu Room Experience","address":"1540 Woodward Ave.","zipcode":"48226"},{"establishmentid":"4346","name":"Bleu Experience","address":"1540 Woodward Ave.","zipcode":"48226"},{"establishmentid":"4364","name":"Bleu Detroit","address":"1540 Woodward Ave. ","zipcode":"48226"},{"establishmentid":"1947","name":"The Apartments Music Lounge","address":"1500 Woodward","zipcode":"48226"},{"establishmentid":"4843","name":"Wright & Co.","address":"1500 Woodward Ave.","zipcode":"48226"}],"inspectionsByEstablishmentidList":[]}],"maxInspectionDate":[{"inspectionDate":"2023-04-13T00:00:00"}]}},"pageContext":{"eid":"4697"}},"staticQueryHashes":["3649515864","63159454"]}