{"componentChunkName":"component---src-templates-establishment-page-js","path":"/establishment/819","result":{"data":{"site":{"pathPrefix":"/restaurant-inspections"},"postgres":{"establishment":[{"establishmentid":"819","name":"La Nortena","address":"3600 Vernor St.W.","zipcode":"48216","owner":"Gonzalo Gonzalez","licenseNumber":"034850","licenseType":"Fixed Establishment","establishmentType":"Food Service Establishment","establishmentStatus":"Open","riskCategory":null,"reviewFrequencyDays":"335","coords":"-83.08831,42.32341","geojson":{"id":"819","type":"Feature","geometry":{"type":"Point","coordinates":[-83.08830831,42.323414678]},"properties":{"name":"La Nortena","owner":"Gonzalo Gonzalez","address":"3600 Vernor St.W.","zipcode":"48216","license_type":"Fixed Establishment","risk_category":null,"license_number":"034850","establishmentid":"819","establishment_type":"Food Service Establishment","establishment_status":"Open","review_frequency_days":"335","most_recent_license_date":"4/29/2013"}},"nearbyList":[{"establishmentid":"963","name":"Sicily's Pizza","address":"3554 Vernor St.W.","zipcode":"48216"},{"establishmentid":"820","name":"Giovanna's Lounge ","address":"3537 Vernor St. W.","zipcode":"48216"},{"establishmentid":"816","name":"El Comal Restaurant","address":"3456 Vernor St. W.","zipcode":"48216"},{"establishmentid":"1307","name":"Amicci's Pizza","address":"3849 Vernor St. W.","zipcode":"48216"},{"establishmentid":"4273","name":"Sandra L.Razo/Patton Park Soccer","address":"2056  25th","zipcode":"48209"},{"establishmentid":"3943","name":"Tacos El Rodeo","address":"1730 24th Street","zipcode":"48216"},{"establishmentid":"1297","name":"Evie's Tamales","address":"3454 Bagley","zipcode":"48216"},{"establishmentid":"5260","name":"Carne Asada y Tacos Dorados","address":"1538  Vinewood","zipcode":"48216"},{"establishmentid":"1454","name":"Mexican Town Restaurant","address":"3457 Bagley","zipcode":"48216"},{"establishmentid":"1632","name":"Taqueria Lupitas","address":"3443 Bagley","zipcode":"48216"}],"inspectionsByEstablishmentidList":[]}],"maxInspectionDate":[{"inspectionDate":"2022-08-31T00:00:00"}]}},"pageContext":{"eid":"819"}},"staticQueryHashes":["3649515864","63159454"]}