{"componentChunkName":"component---src-templates-establishment-page-js","path":"/establishment/1690","result":{"data":{"site":{"pathPrefix":"/restaurant-inspections"},"postgres":{"establishment":[{"establishmentid":"1690","name":"DUBLIN FOODS VENDING COMPAN","address":"6100 BUCHANAN","zipcode":"48238","owner":"JAMES P REEDY","licenseNumber":"036053","licenseType":"Other","establishmentType":"LHD - Vending","establishmentStatus":"Permanently Closed","riskCategory":null,"reviewFrequencyDays":"180","coords":"-83.11953,42.33369","geojson":{"id":"1690","type":"Feature","geometry":{"type":"Point","coordinates":[-83.119530135,42.333686102]},"properties":{"name":"DUBLIN FOODS VENDING COMPAN","owner":"JAMES P REEDY","address":"6100 BUCHANAN","zipcode":"48238","license_type":"Other","risk_category":null,"license_number":"036053","establishmentid":"1690","establishment_type":"LHD - Vending","establishment_status":"Permanently Closed","review_frequency_days":"180","most_recent_license_date":null}},"nearbyList":[{"establishmentid":"4443","name":"Voyager Consortium","address":"4366  Military","zipcode":"48210"},{"establishmentid":"2654","name":"Voyager Academy","address":"4321 Military N.","zipcode":"48210"},{"establishmentid":"51622499","name":"Happys Southwest Detroit","address":"4220 Livernois","zipcode":"48210"},{"establishmentid":"3563","name":"Happy's Pizza","address":"4220 Livernois ","zipcode":"48210"},{"establishmentid":"51622875","name":"Happy's Pizza #9","address":"4220 Livernois","zipcode":"48210"},{"establishmentid":"546","name":"Hope of Detroit Academy","address":"4443 Campbell St. N.","zipcode":"48210"},{"establishmentid":"51622797","name":"Avdolli Adis Coney Island","address":"6171 Michigan Ave.","zipcode":"48210"},{"establishmentid":"3553","name":"Adi's Coney Island ","address":"6171 Michigan Ave.","zipcode":"48210"},{"establishmentid":"51623922","name":"Las Cazuela's Detroit","address":"4000 Livernois","zipcode":"48210"},{"establishmentid":"2308","name":"George's Famous Coney Island","address":"6362 Michigan Ave.","zipcode":"48210"}],"inspectionsByEstablishmentidList":[]}],"maxInspectionDate":[{"inspectionDate":"2023-04-25T00:00:00"}]}},"pageContext":{"eid":"1690"}},"staticQueryHashes":["3649515864","63159454"]}