{"componentChunkName":"component---src-templates-establishment-page-js","path":"/establishment/4803","result":{"data":{"site":{"pathPrefix":"/restaurant-inspections"},"postgres":{"establishment":[{"establishmentid":"4803","name":"El Parian Commissary","address":"1633 Lawndale","zipcode":"48209","owner":"Nancy Lopez-Diaz","licenseNumber":"nl1633","licenseType":"Fixed Establishment","establishmentType":"Food Service Establishment","establishmentStatus":"Open","riskCategory":null,"reviewFrequencyDays":"150","coords":"-83.12967,42.30469","geojson":{"id":"4803","type":"Feature","geometry":{"type":"Point","coordinates":[-83.129674215,42.304693411]},"properties":{"name":"El Parian Commissary","owner":"Nancy Lopez-Diaz","address":"1633 Lawndale","zipcode":"48209","license_type":"Fixed Establishment","risk_category":null,"license_number":"nl1633","establishmentid":"4803","establishment_type":"Food Service Establishment","establishment_status":"Open","review_frequency_days":"150","most_recent_license_date":"2015-04-02"}},"nearbyList":[{"establishmentid":"4960","name":"El Parian Commissary","address":"1633 Lawndale","zipcode":"48209"},{"establishmentid":"5028","name":"Marisqueria El Emperio","address":"1633 Lawndale","zipcode":"48209"},{"establishmentid":"51622654","name":"La Reata","address":"1633 Lawndale","zipcode":"48209"},{"establishmentid":"4990","name":"Marisqueria El Emperio","address":"1633 Lawndale","zipcode":"48209"},{"establishmentid":"51622914","name":"La Palapa Del Parian","address":"1633 Lawndale","zipcode":"48209"},{"establishmentid":"3383","name":"La Terraza","address":"1633  Lawndale","zipcode":"48209"},{"establishmentid":"51623625","name":"LA Palapa Del Parian ","address":"1631 Lawndale ","zipcode":"48209"},{"establishmentid":"51623698","name":"Gorditas Cuernavaca","address":"8772 Mason Place","zipcode":"48209"},{"establishmentid":"51623434","name":"El Mayab Cocina Yucateca LLC","address":"8845 Mason Place","zipcode":"48209"},{"establishmentid":"1356","name":"SW Det Lodge #1870 Loo Moose","address":"2034 Lawndale","zipcode":"48209"}],"inspectionsByEstablishmentidList":[]}],"maxInspectionDate":[{"inspectionDate":"2023-04-25T00:00:00"}]}},"pageContext":{"eid":"4803"}},"staticQueryHashes":["3649515864","63159454"]}