{"componentChunkName":"component---src-templates-establishment-page-js","path":"/establishment/51623541","result":{"data":{"site":{"pathPrefix":"/restaurant-inspections"},"postgres":{"establishment":[{"establishmentid":"51623541","name":"One of a Kind Market","address":"7120 McNichols","zipcode":"48221","owner":"Tamera Solomon Burns","licenseNumber":"PR21212A","licenseType":"Fixed Establishment","establishmentType":"Food Service Establishment","establishmentStatus":"Plan Review","riskCategory":null,"reviewFrequencyDays":null,"coords":"-83.14354,42.41736","geojson":{"id":"51623541","type":"Feature","geometry":{"type":"Point","coordinates":[-83.14354089,42.417357271]},"properties":{"name":"One of a Kind Market","owner":"Tamera Solomon Burns","address":"7120 McNichols","zipcode":"48221","license_type":"Fixed Establishment","risk_category":null,"license_number":"PR21212A","establishmentid":"51623541","establishment_type":"Food Service Establishment","establishment_status":"Plan Review","review_frequency_days":null,"most_recent_license_date":null}},"nearbyList":[{"establishmentid":"51623261","name":"Detroit Pizza Bar","address":"7316 McNichols W.","zipcode":"48221"},{"establishmentid":"5376","name":"TMO's BBQ Pit","address":"7401 McNichols W. ","zipcode":"48221"},{"establishmentid":"2470","name":"Daniels Soul Food Deli","address":"17149 Livernois","zipcode":"48221"},{"establishmentid":"5350","name":"Detroit Sip, LLC","address":"7420 McNichols W.","zipcode":"48221"},{"establishmentid":"3986","name":"Captain Jay's Fish & Chicken #111","address":"17171 Livernois Ave.","zipcode":"48221"},{"establishmentid":"670","name":"Miley & Miley","address":"17171 Livernois Ave.","zipcode":"48221"},{"establishmentid":"1674","name":"Nicky D's Coney Island","address":"16953 Livernois Ave.","zipcode":"48221"},{"establishmentid":"331","name":"Gregg's Pizza BBQ","address":"17160 Livernois Ave.","zipcode":"48221"},{"establishmentid":"1528","name":"Little Caesar's Pizza #167","address":"17200 Livernois Ave.","zipcode":"48221"},{"establishmentid":"3710","name":"Rola-T-Mo's Fry House","address":"7504 McNichols Ave. W. ","zipcode":"48221"}],"inspectionsByEstablishmentidList":[]}],"maxInspectionDate":[{"inspectionDate":"2023-04-25T00:00:00"}]}},"pageContext":{"eid":"51623541"}},"staticQueryHashes":["3649515864","63159454"]}