{"data":{"site":{"pathPrefix":"/restaurant-inspections"},"postgres":{"establishment":[{"establishmentid":"51622916","name":"Starbucks Coffee #54775","address":"2211 Woodward Ave","zipcode":"48224","owner":"Starbucks Corporation","licenseNumber":"241582","licenseType":"Fixed Establishment","establishmentType":"Food Service Establishment","establishmentStatus":"Open","riskCategory":"High","reviewFrequencyDays":"180","coords":"-83.05276,42.33847","geojson":{"id":"51622916","type":"Feature","geometry":{"type":"Point","coordinates":[-83.052756555,42.338466808]},"properties":{"name":"Starbucks Coffee #54775","owner":"Starbucks Corporation","address":"2211 Woodward Ave","zipcode":"48224","license_type":"Fixed Establishment","risk_category":"High","license_number":"241582","establishmentid":"51622916","establishment_type":"Food Service Establishment","establishment_status":"Open","review_frequency_days":"180","most_recent_license_date":"4/28/2020"}},"nearbyList":[{"establishmentid":"377","name":"Fox Theatre","address":"2211 Woodward Ave","zipcode":"48201"},{"establishmentid":"1586","name":"Hockey Town Cafe","address":"2301 Woodward Ave","zipcode":"48201"},{"establishmentid":"51623070","name":"Rush Bowls","address":"22 W Columbia St","zipcode":"48201"},{"establishmentid":"51622841","name":"Frita Batidos","address":"66 Columbia St","zipcode":"48201"},{"establishmentid":"296","name":"Da Edoardo Foxtown Grille","address":"2203 Woodward Ave","zipcode":"48201"},{"establishmentid":"1701","name":"Town Pump Tavern","address":"100 Montcalm W","zipcode":"48201"},{"establishmentid":"3172","name":"Centaur Bar","address":"2233 Park Avenue","zipcode":"48201-34"},{"establishmentid":"51622957","name":"Town Pump Tavern","address":"2233 Park Ave ","zipcode":"48226"},{"establishmentid":"4340","name":"Hot Taco","address":"2233 Park Ave","zipcode":"48201"},{"establishmentid":"2637","name":"The Fillmore Detroit (State Bar/Theatre)","address":"2101-2115 Woodward Ste 971","zipcode":"48201"}],"inspectionsByEstablishmentidList":[]}],"maxInspectionDate":[{"inspectionDate":"2020-10-30T00:00:00"}]}},"pageContext":{"eid":"51622916"}}