{"data":{"site":{"pathPrefix":"/restaurant-inspections"},"postgres":{"establishment":[{"establishmentid":"51622890","name":"Brewery Park Cafe","address":"1155 Brewery Park","zipcode":"48207","owner":"Crain Communictions","licenseNumber":"237189","licenseType":"Fixed Establishment","establishmentType":"Food Service Establishment","establishmentStatus":"Open","riskCategory":"High","reviewFrequencyDays":"180","coords":"-83.04152,42.34259","geojson":{"id":"51622890","type":"Feature","geometry":{"type":"Point","coordinates":[-83.041515413,42.34258919]},"properties":{"name":"Brewery Park Cafe","owner":"Crain Communictions","address":"1155 Brewery Park","zipcode":"48207","license_type":"Fixed Establishment","risk_category":"High","license_number":"237189","establishmentid":"51622890","establishment_type":"Food Service Establishment","establishment_status":"Open","review_frequency_days":"180","most_recent_license_date":"5/19/2020"}},"nearbyList":[{"establishmentid":"1565","name":"Brewery Park Deli","address":"1155 Brewery Park","zipcode":"48207"},{"establishmentid":"5159","name":"La Rondinella","address":"2453 Russell St","zipcode":"48207"},{"establishmentid":"1662","name":"Supino Pizzeria","address":"2457 Russell St","zipcode":"48207"},{"establishmentid":"4180","name":"Mootown Ice Cream Shoppe","address":"2461 Russell St","zipcode":"48207"},{"establishmentid":"1384","name":"Russell Street Deli","address":"2465 Russell St","zipcode":"48207"},{"establishmentid":"647","name":"Zeff's Coney Island","address":"2469 Russell St","zipcode":"48207"},{"establishmentid":"5212","name":"Beyond Juicery & Eatery","address":"2501 Russell St","zipcode":"48207"},{"establishmentid":"51622859","name":"LeCulture Cafe","address":"1428 Gratiot Rd","zipcode":"48207"},{"establishmentid":"4461","name":"Antietam","address":"1428 Gratiot Ave","zipcode":"48207"},{"establishmentid":"51623036","name":"Pietrzyk Pierogi","address":"1429 Gratiot Ave ","zipcode":"48207"}],"inspectionsByEstablishmentidList":[{"inspectionid":"46071","inspectionDate":"2019-05-07T00:00:00","inspectionType":"Plan Review/Pre-Open","inCompliance":"Yes","violationsByInspectionidList":[{"violationCode":"6-201.11","violationDescription":"Except otherwise approved, and except for antislip floor coverings or applications may be used for safety reasons, floors, floor coverings, walls, wall coverings, and ceilings shall be designed, constructed, and installed so they are SMOOTH and EASILY CLEANABLE.\r\n","violationType":"Core","itemDescription":"wall(s)","subItem":"","problemDescription":"Not constructed, designed, installed to be","subProblem":"Easily cleanable","location":"KITCHEN","subLocation":"","corrected":"Not required","daysToCorrect":"30","correctedDate":null,"correctionDescription":null}]}]}],"maxInspectionDate":[{"inspectionDate":"2020-05-29T00:00:00"}]}},"pageContext":{"eid":"51622890"}}