{"data":{"site":{"pathPrefix":"/restaurant-inspections"},"postgres":{"establishment":[{"establishmentid":"51623123","name":"MMS/DMC Detroit Receiving Hosp. #51717","address":"4201 St Antoine St","zipcode":"48201","owner":"Morrison Management Specialist","licenseNumber":"247217","licenseType":"Fixed Establishment","establishmentType":"Food Service Establishment","establishmentStatus":"Open","riskCategory":null,"reviewFrequencyDays":"180","coords":"-83.05472,42.35350","geojson":{"id":"51623123","type":"Feature","geometry":{"type":"Point","coordinates":[-83.054716847,42.353501399]},"properties":{"name":"MMS/DMC Detroit Receiving Hosp. #51717","owner":"Morrison Management Specialist","address":"4201 St Antoine St","zipcode":"48201","license_type":"Fixed Establishment","risk_category":null,"license_number":"247217","establishmentid":"51623123","establishment_type":"Food Service Establishment","establishment_status":"Open","review_frequency_days":"180","most_recent_license_date":"4/27/2020"}},"nearbyList":[{"establishmentid":"51622830","name":"Detroit Receiving Hospital","address":"4201 St Antoine St","zipcode":"48201"},{"establishmentid":"4982","name":"Detroit Receiving Hospital","address":"4201 St Antoine","zipcode":"48201"},{"establishmentid":"5277","name":"Detroit Receiving Sub Shops LLC/Subway","address":"4201 St Antoine St","zipcode":"48202"},{"establishmentid":"51622467","name":"Hungry Howie's","address":"4201 St Antoine St","zipcode":"48201"},{"establishmentid":"5278","name":"Det Receiving Cafe Stores LLC/Biggby","address":"4201 St Antoine St","zipcode":"48201"},{"establishmentid":"4996","name":"Children's Hospital of Michigan","address":"3901 Beaubien St","zipcode":"48201"},{"establishmentid":"3870","name":"Subway #11819","address":"3901 Beaubien St","zipcode":"48201"},{"establishmentid":"5279","name":"Childrens Cafe Stores LLC/Biggby","address":"3901 Beaubien St","zipcode":"48201"},{"establishmentid":"1700","name":"Friendship Baptist","address":"3900 Beaubien St","zipcode":"48201"},{"establishmentid":"900","name":"Spain Middle/Elementary School","address":"3700 Beaubien St","zipcode":"48201"}],"inspectionsByEstablishmentidList":[{"inspectionid":"51048","inspectionDate":"2020-03-06T00:00:00","inspectionType":"Routine Inspection","inCompliance":"Yes","violationsByInspectionidList":[{"violationCode":"4-501.11","violationDescription":"EQUIPMENT shall be maintained in a state of repair and condition that meets the requirements of the code.\r\n","violationType":"Core","itemDescription":"Equipment","subItem":"","problemDescription":"In poor repair","subProblem":"","location":"CAFETERIA","subLocation":"Cooler (salad)","corrected":"Not required","daysToCorrect":"30","correctedDate":null,"correctionDescription":null}]}]}],"maxInspectionDate":[{"inspectionDate":"2020-05-29T00:00:00"}]}},"pageContext":{"eid":"51623123"}}