{"componentChunkName":"component---src-templates-establishment-page-js","path":"/establishment/5247","result":{"data":{"site":{"pathPrefix":"/restaurant-inspections"},"postgres":{"establishment":[{"establishmentid":"5247","name":"La Casita","address":"3242 Livernois","zipcode":"48209","owner":"Javier Fonseca-Nunez","licenseNumber":"ps041916","licenseType":"Special Transitory Food Unit","establishmentType":"LHD - Special Transitory Food","establishmentStatus":"Plan Review","riskCategory":null,"reviewFrequencyDays":null,"coords":"-83.11602,42.32582","geojson":{"id":"5247","type":"Feature","geometry":{"type":"Point","coordinates":[-83.116017457,42.325820374]},"properties":{"name":"La Casita","owner":"Javier Fonseca-Nunez","address":"3242 Livernois","zipcode":"48209","license_type":"Special Transitory Food Unit","risk_category":null,"license_number":"ps041916","establishmentid":"5247","establishment_type":"LHD - Special Transitory Food","establishment_status":"Plan Review","review_frequency_days":null,"most_recent_license_date":"4/21/2016"}},"nearbyList":[{"establishmentid":"1707","name":"The Mexicano Restaurant","address":"3410 Livernois","zipcode":"48210"},{"establishmentid":"4069","name":"Pupuseria Y Restaurant","address":"3149  Livernois","zipcode":"48210"},{"establishmentid":"3372","name":"Jalisco Restaurant","address":"3149  Livernois ","zipcode":"48210"},{"establishmentid":"51623304","name":"Raquels Cocina (Wayne County)","address":"3422 Military St.","zipcode":"48210"},{"establishmentid":"695","name":"Three Aces Lounge","address":"3201 Gilbert St.","zipcode":"48209"},{"establishmentid":"860","name":"SGT-Edward J Madaj AMVETS #","address":"3401 Gilbert St","zipcode":"48210"},{"establishmentid":"815","name":"Abicks Bar","address":"3500 Gilbert St.","zipcode":"48210"},{"establishmentid":"2993","name":"Modern Vending","address":"3600 Military","zipcode":"48210"},{"establishmentid":"1813","name":"Modern Vending Services","address":"3600 Military","zipcode":"48210"},{"establishmentid":"1062","name":"Midnights Inn #422718","address":"3250 Wesson","zipcode":"48210"}],"inspectionsByEstablishmentidList":[]}],"maxInspectionDate":[{"inspectionDate":"2022-07-25T00:00:00"}]}},"pageContext":{"eid":"5247"}},"staticQueryHashes":["3649515864","63159454"]}