{"componentChunkName":"component---src-templates-establishment-page-js","path":"/establishment/51623414","result":{"data":{"site":{"pathPrefix":"/restaurant-inspections"},"postgres":{"establishment":[{"establishmentid":"51623414","name":"Bink's Grill","address":"18455 Livernois Ave.","zipcode":"48221","owner":"Hugh Byers ","licenseNumber":"255896","licenseType":"Fixed Establishment","establishmentType":"Food Service Establishment","establishmentStatus":"Open","riskCategory":"High","reviewFrequencyDays":"150","coords":"-83.14162,42.42699","geojson":{"id":"51623414","type":"Feature","geometry":{"type":"Point","coordinates":[-83.141615102,42.426993289]},"properties":{"name":"Bink's Grill","owner":"Hugh Byers ","address":"18455 Livernois Ave.","zipcode":"48221","license_type":"Fixed Establishment","risk_category":"High","license_number":"255896","establishmentid":"51623414","establishment_type":"Food Service Establishment","establishment_status":"Open","review_frequency_days":"150","most_recent_license_date":"28/4/2022"}},"nearbyList":[{"establishmentid":"3799","name":"ODS - Papa John's, LLC","address":"18472 Livernois Ave.","zipcode":"48221"},{"establishmentid":"3560","name":"Papa John's","address":"18472 Livernois","zipcode":"48221"},{"establishmentid":"1168","name":"Locker Room Lounge","address":"18290 Livernois Ave.","zipcode":"48221"},{"establishmentid":"484","name":"Beans & Greens","address":"18280 LivernoisAve.","zipcode":"48221"},{"establishmentid":"5251","name":"Livernois Fresh Fish","address":"18280 Livernois","zipcode":"48221"},{"establishmentid":"1656","name":"Boston Market #976","address":"18610 Livernois Ave.","zipcode":"48221"},{"establishmentid":"51623883","name":"Tang 168 China Wok LLC","address":"18670 Livernois","zipcode":"48221"},{"establishmentid":"2467","name":"China Wok","address":"18670 Livernois Ave.","zipcode":"48221"},{"establishmentid":"2469","name":"Pizza Hut #26313","address":"18680 Livernois Ave.","zipcode":"48221"},{"establishmentid":"51622468","name":"Social Sushi","address":"18663 Livernois","zipcode":"48221"}],"inspectionsByEstablishmentidList":[{"inspectionid":"61192","inspectionDate":"2023-01-17T00:00:00","inspectionType":"Routine Inspection","inCompliance":"No","violationsByInspectionidList":[]},{"inspectionid":"55403","inspectionDate":"2021-07-30T00:00:00","inspectionType":"Pre-opening","inCompliance":"Yes","violationsByInspectionidList":[]}]}],"maxInspectionDate":[{"inspectionDate":"2023-04-13T00:00:00"}]}},"pageContext":{"eid":"51623414"}},"staticQueryHashes":["3649515864","63159454"]}