{"componentChunkName":"component---src-templates-establishment-page-js","path":"/establishment/51623225","result":{"data":{"site":{"pathPrefix":"/restaurant-inspections"},"postgres":{"establishment":[{"establishmentid":"51623225","name":"Taqueria La Morena","address":"2200 Scotten St","zipcode":"48209","owner":"Veronica Sevilla Acosta","licenseNumber":"259461","licenseType":"Special Transitory Food Unit","establishmentType":"LHD - Mobile Food Establishmen","establishmentStatus":"Open","riskCategory":null,"reviewFrequencyDays":"180","coords":"-83.09559,42.32392","geojson":{"id":"51623225","type":"Feature","geometry":{"type":"Point","coordinates":[-83.095587015,42.323922469]},"properties":{"name":"Taqueria La Morena","owner":"Veronica Sevilla Acosta","address":"2200 Scotten St","zipcode":"48209","license_type":"Special Transitory Food Unit","risk_category":null,"license_number":"259461","establishmentid":"51623225","establishment_type":"LHD - Mobile Food Establishmen","establishment_status":"Open","review_frequency_days":"180","most_recent_license_date":null}},"nearbyList":[{"establishmentid":"51622653","name":"Little Bee","address":"4335 Toledo","zipcode":"48209"},{"establishmentid":"3572","name":"Cafe Con Leche","address":"4200 Vernor St. W.","zipcode":"48209"},{"establishmentid":"794","name":"Armando's Mexican Restaurant","address":"4242 Vernor St. W.","zipcode":"48209"},{"establishmentid":"4178","name":"Mexican Fiesta Center","address":"4114 W.Vernor","zipcode":"48209"},{"establishmentid":"5209","name":"El Club","address":"4114 Vernor W.","zipcode":"48209"},{"establishmentid":"1520","name":"La Gran Tenochtitlan","address":"4314 Vernor St.W.","zipcode":"48209"},{"establishmentid":"470","name":"Neveria La Michoacana","address":"4336 Vernor St. W.","zipcode":"48209"},{"establishmentid":"51623802","name":"Paleteria Michoacanita ","address":"4336  W. Vernor Hwy ","zipcode":null},{"establishmentid":"1750","name":"El Chapparel Lounge","address":"4426 Vernor St.W.","zipcode":"48209"},{"establishmentid":"338","name":"EL PAPA DE LOS POLLITOS","address":"4049 Vernor Ave. W.","zipcode":"48209"}],"inspectionsByEstablishmentidList":[{"inspectionid":"51967","inspectionDate":"2020-05-31T00:00:00","inspectionType":"Preopening/New","inCompliance":"Yes","violationsByInspectionidList":[]}]}],"maxInspectionDate":[{"inspectionDate":"2023-04-25T00:00:00"}]}},"pageContext":{"eid":"51623225"}},"staticQueryHashes":["3649515864","63159454"]}