{"data":{"site":{"pathPrefix":"/restaurant-inspections"},"postgres":{"establishment":[{"establishmentid":"51623109","name":"Ice Cream & Cafe La Niña","address":"7431 W Vernor","zipcode":"48209","owner":null,"licenseNumber":"7431SJ","licenseType":"Fixed Establishment","establishmentType":null,"establishmentStatus":null,"riskCategory":"High","reviewFrequencyDays":"90.0","coords":"-83.12244,42.31304","geojson":{"id":"51623109","type":"Feature","geometry":{"type":"Point","coordinates":[-83.122442329,42.3130374450001]},"properties":{"name":"Ice Cream & Cafe La Niña","owner":null,"address":"7431 W Vernor","zipcode":"48209","license_type":"Fixed Establishment","risk_category":"High","license_number":"7431SJ","establishmentid":"51623109","establishment_type":null,"establishment_status":null,"review_frequency_days":"90.0","most_recent_license_date":null}},"nearbyList":[{"establishmentid":"4358","name":"Domino's Pizza","address":"7603 W Vernor St","zipcode":"48209"},{"establishmentid":"279","name":"Pauls Pizzeria","address":"7635 W Vernor St","zipcode":"48209"},{"establishmentid":"995","name":"Harms School Elementary","address":"2400 Central Ave","zipcode":"48209"},{"establishmentid":"3858","name":"Pollos Los Gallos","address":"7135 Dix Ave","zipcode":"48209"},{"establishmentid":"4792","name":"Las Palmas Neveria Y Cafeteria","address":"7009 Vernor Hwy","zipcode":"48209"},{"establishmentid":"51622476","name":"Mi Pueblo Express","address":"7271 Dix Ave","zipcode":"48209"},{"establishmentid":"3849","name":"El Kiosko","address":"7271 Dix Ave","zipcode":"48209"},{"establishmentid":"514","name":"Taqueria Mi Pueblo","address":"7278 Dix Ave","zipcode":"48209"},{"establishmentid":"51622723","name":"Vitamin Juice ","address":"2030 Springwells St","zipcode":"48209"},{"establishmentid":"768","name":"Family Treat","address":"2010 Springwells Ave","zipcode":"48209"}],"inspectionsByEstablishmentidList":[{"inspectionid":"49864","inspectionDate":"2019-10-08T00:00:00","inspectionType":"Unlicensed Establish","inCompliance":"Yes","violationsByInspectionidList":[]}]}],"maxInspectionDate":[{"inspectionDate":"2019-10-31T00:00:00"}]}},"pageContext":{"eid":"51623109"}}