{"componentChunkName":"component---src-templates-establishment-page-js","path":"/establishment/51623503","result":{"data":{"site":{"pathPrefix":"/restaurant-inspections"},"postgres":{"establishment":[{"establishmentid":"51623503","name":"Al Rada Bakery","address":"16143 Warren W.","zipcode":"48228","owner":"Kara Albayati","licenseNumber":"255110","licenseType":"Fixed Establishment","establishmentType":"Food Service Establishment","establishmentStatus":"Open","riskCategory":null,"reviewFrequencyDays":"150","coords":"-83.20293,42.34347","geojson":{"id":"51623503","type":"Feature","geometry":{"type":"Point","coordinates":[-83.20292663,42.34346771]},"properties":{"name":"Al Rada Bakery","owner":"Kara Albayati","address":"16143 Warren W.","zipcode":"48228","license_type":"Fixed Establishment","risk_category":null,"license_number":"255110","establishmentid":"51623503","establishment_type":"Food Service Establishment","establishment_status":"Open","review_frequency_days":"150","most_recent_license_date":"10/18/2021"}},"nearbyList":[{"establishmentid":"3197","name":"Rafidian Shish Kabob","address":"16032 Warren Ave. W.","zipcode":"48228"},{"establishmentid":"2378","name":"Dairy Queen","address":"16251 Warren Ave. W.","zipcode":"48228"},{"establishmentid":"1943","name":"Hawaiian Cafe","address":"15744 Warren Ave. W.","zipcode":"48228"},{"establishmentid":"1970","name":"Al-Salaam Restaurant, Inc.","address":"15736 Warren W.","zipcode":"48228"},{"establishmentid":"4699","name":"Al-Anwar Restaurant ","address":"16407 W. Warren Ave.","zipcode":"48228"},{"establishmentid":"51622631","name":"Naba Bakery & Restaurant","address":"15723 Warren W.","zipcode":"48228"},{"establishmentid":"1233","name":"Gardner Elementary School","address":"6528 Mansfield","zipcode":"48228"},{"establishmentid":"2954","name":"Filterfresh","address":"16520 Warren W.","zipcode":"48228"},{"establishmentid":"5273","name":"HI - 5","address":"6771  Woodmont Ave.","zipcode":"48228"},{"establishmentid":"5300","name":"Hi 5 Ice Cream","address":"6771 Woodmont ","zipcode":"48228"}],"inspectionsByEstablishmentidList":[{"inspectionid":"55568","inspectionDate":"2021-08-12T00:00:00","inspectionType":"Preopening/New","inCompliance":"Yes","violationsByInspectionidList":[{"violationCode":"6-201.11","violationDescription":"Except otherwise approved, and except for antislip floor coverings or applications may be used for safety reasons, floors, floor coverings, walls, wall coverings, and ceilings shall be designed, constructed, and installed so they are SMOOTH and EASILY CLEANABLE.\n","violationType":"Core","itemDescription":"wall(s)","subItem":"wall covering(s)","problemDescription":"Not constructed, designed, installed to be","subProblem":"Smooth","location":"DISHWASHING AREA","subLocation":"The Wall tiles","corrected":"True","daysToCorrect":"30","correctedDate":"2021-08-17T00:00:00","correctionDescription":"Repair/replace to be smooth and easily cleanable."}]}]}],"maxInspectionDate":[{"inspectionDate":"2022-07-25T00:00:00"}]}},"pageContext":{"eid":"51623503"}},"staticQueryHashes":["3649515864","63159454"]}