{"componentChunkName":"component---src-templates-establishment-page-js","path":"/establishment/51623827","result":{"data":{"site":{"pathPrefix":"/restaurant-inspections"},"postgres":{"establishment":[{"establishmentid":"51623827","name":"View's Express","address":"24200 Grand River","zipcode":"48219","owner":"Darius Statum","licenseNumber":"351272","licenseType":"Special Transitory Food Unit","establishmentType":"LHD - Mobile Food Establishmen","establishmentStatus":"Open","riskCategory":null,"reviewFrequencyDays":null,"coords":"-83.27861,42.42534","geojson":{"id":"51623827","type":"Feature","geometry":{"type":"Point","coordinates":[-83.278608744,42.425341932]},"properties":{"name":"View's Express","owner":"Darius Statum","address":"24200 Grand River","zipcode":"48219","license_type":"Special Transitory Food Unit","risk_category":null,"license_number":"351272","establishmentid":"51623827","establishment_type":"LHD - Mobile Food Establishmen","establishment_status":"Open","review_frequency_days":null,"most_recent_license_date":null}},"nearbyList":[{"establishmentid":"51622651","name":"Views Bar and Grill","address":"24200 Grand River","zipcode":"48219"},{"establishmentid":"2877","name":"Trippple B's","address":"24200 Grand River Ave.","zipcode":"48219"},{"establishmentid":"2685","name":"RP & H MotorCity Hall","address":"24242 Grand River Ave.","zipcode":"48219"},{"establishmentid":"3885","name":"Ray's Pizza & Chicken","address":"19005 Telegraph Rd.","zipcode":"48219"},{"establishmentid":"5231","name":"Detroit Fresh Fish & Seafood Co. Inc.","address":"19001 Telegraph","zipcode":"48219"},{"establishmentid":"51623537","name":"Obama Fresh Fish & Seafood Inc","address":"19001 Telegraph","zipcode":"48219"},{"establishmentid":"215","name":"Don Pedro's Mexican Restaurant","address":"24366 Grand River ave.","zipcode":"48219"},{"establishmentid":"5012","name":"The Upper Room","address":"23821 Grand River Ave.","zipcode":null},{"establishmentid":"5066","name":"The Upper Room","address":"23821 Grand River Ave.","zipcode":"48219"},{"establishmentid":"3857","name":"Royal Fried Fish & Chicken","address":"19025 Telegraph Rd.","zipcode":"48219"}],"inspectionsByEstablishmentidList":[{"inspectionid":"61124","inspectionDate":"2023-01-04T00:00:00","inspectionType":"Preopening/New","inCompliance":"Yes","violationsByInspectionidList":[]}]}],"maxInspectionDate":[{"inspectionDate":"2023-04-25T00:00:00"}]}},"pageContext":{"eid":"51623827"}},"staticQueryHashes":["3649515864","63159454"]}