{"data":{"site":{"pathPrefix":"/restaurant-inspections"},"postgres":{"establishment":[{"establishmentid":"5352","name":"On The Go Cafe","address":"12815 Linwood St","zipcode":"48238","owner":"Harold Dozier & Brian Ross","licenseNumber":"081916dw","licenseType":"Fixed Establishment","establishmentType":"Food Service Establishment","establishmentStatus":"Permanently Closed","riskCategory":"High","reviewFrequencyDays":"180","coords":"-83.12058,42.39035","geojson":{"id":"5352","type":"Feature","geometry":{"type":"Point","coordinates":[-83.120580016,42.390352083]},"properties":{"name":"On The Go Cafe","owner":"Harold Dozier & Brian Ross","address":"12815 Linwood St","zipcode":"48238","license_type":"Fixed Establishment","risk_category":"High","license_number":"081916dw","establishmentid":"5352","establishment_type":"Food Service Establishment","establishment_status":"Permanently Closed","review_frequency_days":"180","most_recent_license_date":null}},"nearbyList":[{"establishmentid":"1480","name":"Legends Coney Island","address":"2525 W Davison Ave","zipcode":"48238"},{"establishmentid":"2149","name":"Kentucky Fried Chicken (KFC)","address":"2601 W Davison Ave","zipcode":"48238"},{"establishmentid":"1627","name":"McDonald's #15873","address":"13500 Linwood Ave","zipcode":"48238"},{"establishmentid":"453","name":"White Castle #51","address":"2735 W Davison Ave","zipcode":"48238"},{"establishmentid":"1149","name":"Church's Fried Chicken #863","address":"2757 W Davison Ave","zipcode":"48238"},{"establishmentid":"51623145","name":"Benji's CuisineLLC/TruckShuka (Wayne Co)","address":"13352 Lasalle Ave","zipcode":"4807"},{"establishmentid":"826","name":"Stewart Elementary- Middle School","address":"13120 Wildemere","zipcode":"48238"},{"establishmentid":"2684","name":"Little Caesar's Pizza #157","address":"2918 W Davison Ave","zipcode":"48238"},{"establishmentid":"3415","name":"Nu Wave Fish & Chicken","address":"2970 W Davison Ave","zipcode":"48238"},{"establishmentid":"1456","name":"Grandy's Coney Island Restaurant","address":"13331 Fourteenth St","zipcode":"48238"}],"inspectionsByEstablishmentidList":[]}],"maxInspectionDate":[{"inspectionDate":"2020-10-30T00:00:00"}]}},"pageContext":{"eid":"5352"}}