{"componentChunkName":"component---src-templates-establishment-page-js","path":"/establishment/927","result":{"data":{"site":{"pathPrefix":"/restaurant-inspections"},"postgres":{"establishment":[{"establishmentid":"927","name":"Higgins Elementary","address":"9200 Olivet","zipcode":"48209","owner":"Bd of Ed City of Detroit","licenseNumber":"034962","licenseType":"Fixed Establishment","establishmentType":"Public School","establishmentStatus":"Open","riskCategory":null,"reviewFrequencyDays":"180","coords":"-83.13129,42.29847","geojson":{"id":"927","type":"Feature","geometry":{"type":"Point","coordinates":[-83.131294809,42.298466697]},"properties":{"name":"Higgins Elementary","owner":"Bd of Ed City of Detroit","address":"9200 Olivet","zipcode":"48209","license_type":"Fixed Establishment","risk_category":null,"license_number":"034962","establishmentid":"927","establishment_type":"Public School","establishment_status":"Open","review_frequency_days":"180","most_recent_license_date":"12/4/2006"}},"nearbyList":[{"establishmentid":"51622511","name":"Soulful Grub","address":"9180  Fort St. W.","zipcode":"48209"},{"establishmentid":"1606","name":"Prelja's Ham Palace","address":"9405 Fort St. W.","zipcode":"48209"},{"establishmentid":"4234","name":"Mangonadas Del Barrio","address":"1210-14 Lawndale","zipcode":"48209"},{"establishmentid":"51622764","name":"Tres Leches 'n Snacks","address":"1210 Lawndale St.","zipcode":"48209"},{"establishmentid":"370","name":"Los Compadres","address":"1132 Lawndale","zipcode":"48209"},{"establishmentid":"51623625","name":"LA Palapa Del Parian ","address":"1631 Lawndale ","zipcode":"48209"},{"establishmentid":"3383","name":"La Terraza","address":"1633  Lawndale","zipcode":"48209"},{"establishmentid":"4960","name":"El Parian Commissary","address":"1633 Lawndale","zipcode":"48209"},{"establishmentid":"4990","name":"Marisqueria El Emperio","address":"1633 Lawndale","zipcode":"48209"},{"establishmentid":"4803","name":"El Parian Commissary","address":"1633 Lawndale","zipcode":"48209"}],"inspectionsByEstablishmentidList":[]}],"maxInspectionDate":[{"inspectionDate":"2022-07-25T00:00:00"}]}},"pageContext":{"eid":"927"}},"staticQueryHashes":["3649515864","63159454"]}