{"componentChunkName":"component---src-templates-establishment-page-js","path":"/establishment/51623520","result":{"data":{"site":{"pathPrefix":"/restaurant-inspections"},"postgres":{"establishment":[{"establishmentid":"51623520","name":"Bobby's World","address":"10615 Seven Mile W. ","zipcode":"48221","owner":"Bobbby Thompson","licenseNumber":"260460","licenseType":"Fixed Establishment","establishmentType":"Food Service Establishment","establishmentStatus":"Open","riskCategory":null,"reviewFrequencyDays":"150","coords":"-83.16803,42.43102","geojson":{"id":"51623520","type":"Feature","geometry":{"type":"Point","coordinates":[-83.168027132,42.431021986]},"properties":{"name":"Bobby's World","owner":"Bobbby Thompson","address":"10615 Seven Mile W. ","zipcode":"48221","license_type":"Fixed Establishment","risk_category":null,"license_number":"260460","establishmentid":"51623520","establishment_type":"Food Service Establishment","establishment_status":"Open","review_frequency_days":"150","most_recent_license_date":"4/29/2022"}},"nearbyList":[{"establishmentid":"51623544","name":"Capital Hook Fish & Chicken Plus Inc.","address":"10600 Seven Mile W.","zipcode":"48221"},{"establishmentid":"51622575","name":"Capital Hook Fish & Chicken Inc","address":"10600 W. Seven Mile Rd.","zipcode":"48221"},{"establishmentid":"3357","name":"Hook Fish & Chicken","address":"10600 Seven Mile Rd. W.","zipcode":"48221"},{"establishmentid":"5280","name":"Capital Hook Fish & Chicken Inc","address":"10600 W. Seven MIle Rd.","zipcode":"48221"},{"establishmentid":"3368","name":"Captain D's Seafood #6161","address":"10711 Seven Mile Rd. W.","zipcode":"48221"},{"establishmentid":"4098","name":"Checkers #3310","address":"10711 Seven Mile Rd. W.","zipcode":"48221"},{"establishmentid":"3879","name":"Franks Anatra","address":"18700 Meyers","zipcode":"48221"},{"establishmentid":"2846","name":"Continental Canteen","address":"18700 Meyers","zipcode":"48235"},{"establishmentid":"723","name":"Motor City Soul Food","address":"12700 Seven Mile Rd. W.","zipcode":"48235"},{"establishmentid":"2557","name":"Double Diamond Vending","address":"18901 Meyers","zipcode":"48235"}],"inspectionsByEstablishmentidList":[{"inspectionid":"56674","inspectionDate":"2021-11-22T00:00:00","inspectionType":"Preopening/New","inCompliance":"Yes","violationsByInspectionidList":[]}]}],"maxInspectionDate":[{"inspectionDate":"2022-07-25T00:00:00"}]}},"pageContext":{"eid":"51623520"}},"staticQueryHashes":["3649515864","63159454"]}