{"componentChunkName":"component---src-templates-establishment-page-js","path":"/establishment/2460","result":{"data":{"site":{"pathPrefix":"/restaurant-inspections"},"postgres":{"establishment":[{"establishmentid":"2460","name":"Malinda Williams Enterprise","address":"18305 Wyoming","zipcode":"48221","owner":"Malinda Williams","licenseNumber":"058539","licenseType":"Fixed Establishment","establishmentType":"Food Service Establishment","establishmentStatus":"Open","riskCategory":null,"reviewFrequencyDays":"335","coords":"-83.16105,42.42580","geojson":{"id":"2460","type":"Feature","geometry":{"type":"Point","coordinates":[-83.161052391,42.425801302]},"properties":{"name":"Malinda Williams Enterprise","owner":"Malinda Williams","address":"18305 Wyoming","zipcode":"48221","license_type":"Fixed Establishment","risk_category":null,"license_number":"058539","establishmentid":"2460","establishment_type":"Food Service Establishment","establishment_status":"Open","review_frequency_days":"335","most_recent_license_date":"23/11/2007"}},"nearbyList":[{"establishmentid":"3916","name":"Just Dippin'","address":"18305 Wyoming Ave.","zipcode":"48221"},{"establishmentid":"400","name":"Deli-Plaza Inc","address":"18401 Wyoming Ave.","zipcode":"48221"},{"establishmentid":"4020","name":"Kel's Seafood & Soul","address":"18414 Wyoming","zipcode":"48221"},{"establishmentid":"51623600","name":"Faustina's Creole and Soul Food","address":"18414 Wyoming","zipcode":"48221"},{"establishmentid":"1877","name":"Fish Pan Fish Market","address":"18414 Wyoming Ave.","zipcode":"48221"},{"establishmentid":"5141","name":"King of the Shrimp and Dip","address":"18414 Wyoming Ave.","zipcode":"48221"},{"establishmentid":"1876","name":"Metro Kitchen","address":"18434 Wyoming","zipcode":"48221"},{"establishmentid":"2689","name":"Goree Island Restaurant","address":"18091 Wyoming","zipcode":"48221"},{"establishmentid":"1979","name":"NEW ESTABLISHMENT NO NAME","address":"18949 WYOMING","zipcode":"48221"},{"establishmentid":"1081","name":"Kentucky Fried Chicken ","address":"8939 Seven Mile Rd. W.","zipcode":"48221"}],"inspectionsByEstablishmentidList":[]}],"maxInspectionDate":[{"inspectionDate":"2023-04-13T00:00:00"}]}},"pageContext":{"eid":"2460"}},"staticQueryHashes":["3649515864","63159454"]}