{"data":{"site":{"pathPrefix":"/restaurant-inspections"},"postgres":{"establishment":[{"establishmentid":"902","name":"Frank Murphy Performance Academy ","address":"23901 Fenkell Ave","zipcode":"48223","owner":"Detroit Board of Education","licenseNumber":"034936","licenseType":"Fixed Establishment","establishmentType":"Public School","establishmentStatus":"Permanently Closed","riskCategory":null,"reviewFrequencyDays":"210.0","coords":"-83.27460,42.39899","geojson":{"id":"902","type":"Feature","geometry":{"type":"Point","coordinates":[-83.274600909,42.398992295]},"properties":{"name":"Frank Murphy Performance Academy ","owner":"Detroit Board of Education","address":"23901 Fenkell Ave","zipcode":"48223","license_type":"Fixed Establishment","risk_category":null,"license_number":"034936","establishmentid":"902","establishment_type":"Public School","establishment_status":"Permanently Closed","review_frequency_days":"210.0","most_recent_license_date":"5/15/2017"}},"nearbyList":[{"establishmentid":"2160","name":"Fifty/50","address":"23810 Fenkell Ave","zipcode":"48223"},{"establishmentid":"51622718","name":"Green House Soups & Chili","address":"22735 Fenkell St","zipcode":"48223"},{"establishmentid":"51622831","name":"Soula Culinary Ambition LLC","address":"22735 Fenkell","zipcode":"48214"},{"establishmentid":"5121","name":"Brightmoor Artisans Collective","address":"22735 Fenkell St","zipcode":"48223"},{"establishmentid":"523","name":"Chapeau Vert Lounge","address":"16550 Telegraph Rd","zipcode":"48219"},{"establishmentid":"956","name":"La Chambre Lounge","address":"14090 Telegraph Rd","zipcode":"48239"},{"establishmentid":"4368","name":"Club Yesterdays","address":"14060 Telegraph Rd","zipcode":"48239"},{"establishmentid":"1710","name":"St. Christine's Community Soup Kitchen","address":"22261 Fenkell Ave","zipcode":"48223"},{"establishmentid":"1610","name":"Sun China Restaurant","address":"16901 Telegraph Rd","zipcode":"48219"},{"establishmentid":"4181","name":"Detroit Leadership Academy","address":"13550 Virgil","zipcode":"48223"},{"establishmentid":"239","name":"Scotty Simpsons Fish and Chips","address":"22200 Fenkell Ave","zipcode":"48223"},{"establishmentid":"5115","name":"Farmer Kay Market","address":"24311 W McNichols Rd","zipcode":"48219"},{"establishmentid":"327","name":"Toy Box II Bar and Grill, Inc.","address":"24351 W McNichols Rd","zipcode":"48219"},{"establishmentid":"1086","name":"Rocky's Grill Coney Island","address":"24611 W McNichols Rd","zipcode":"48219"},{"establishmentid":"4283","name":"New Grandy's ","address":"22001 Fenkell Ave","zipcode":"48223"},{"establishmentid":"51622518","name":"New Grandy's","address":"22001 Fenkell Ave","zipcode":"48223"},{"establishmentid":"5269","name":"Habibi Fish & Chicken","address":"21740 Fenkell","zipcode":"48223"},{"establishmentid":"51622753","name":"Fred's Fish & Chicken","address":"21740 Fenkell Street","zipcode":"48223"},{"establishmentid":"329","name":"Nite Cap Lounge Inc.","address":"24817 W McNichols Rd","zipcode":"48219"},{"establishmentid":"4289","name":"Old Redford Academy Middle School","address":"22122 W McNichols Rd","zipcode":"48219"}],"inspectionsByEstablishmentidList":[{"inspectionid":"40057","inspectionDate":"2017-09-18T00:00:00","inspectionType":"Routine Inspection","inCompliance":"Yes","violationsByInspectionidList":[]},{"inspectionid":"38800","inspectionDate":"2017-05-22T00:00:00","inspectionType":"Routine Inspection","inCompliance":"Yes","violationsByInspectionidList":[]},{"inspectionid":"36817","inspectionDate":"2016-10-13T00:00:00","inspectionType":"Routine Inspection","inCompliance":"Yes","violationsByInspectionidList":[{"violationCode":"4-501.114","violationDescription":"A chemical SANITIZER used in a SANITIZING solution for a manual or\r\nmechanical operation shall meet these limits or as otherwise approved: (P)\r\n\tChlorine        ppm           pH<10             pH<8\r\n\t\t      25              120 F              120 F\r\n\t\t      50              100 F              75 F\r\n\t\t     100              55 F               55 F\r\n                 Iodine           a concentration of between 12.5 and 25 ppm and minimum temp of 75 F and pH of 5 or less or meets manufacturer's specifications. (P)\r\n\r\n                Quats            minimum temperature of 75 F, hardness of 500 ppm or less and meet manufacturers use directions. (P)\r\n","violationType":"Priority","itemDescription":"Chlorine solution concentration","subItem":"","problemDescription":"Below 25 ppm","subProblem":"","location":"3 COMPARTMENT SINK AREA","subLocation":"","corrected":"Yes","daysToCorrect":"10.0","correctedDate":"2016-10-13T00:00:00","correctionDescription":"Provide correct concentration as stated above."}]}]}]}},"pageContext":{"eid":"902"}}