{"componentChunkName":"component---src-templates-establishment-page-js","path":"/establishment/51623476","result":{"data":{"site":{"pathPrefix":"/restaurant-inspections"},"postgres":{"establishment":[{"establishmentid":"51623476","name":"Covenant House Academy-East","address":"9100 Gratiot","zipcode":"48213","owner":"Keys Food Service","licenseNumber":"262943","licenseType":"Fixed Establishment","establishmentType":"Non-Public School","establishmentStatus":"Open","riskCategory":null,"reviewFrequencyDays":"180","coords":"-83.00784,42.38861","geojson":{"id":"51623476","type":"Feature","geometry":{"type":"Point","coordinates":[-83.007842701,42.388606763]},"properties":{"name":"Covenant House Academy-East","owner":"Keys Food Service","address":"9100 Gratiot","zipcode":"48213","license_type":"Fixed Establishment","risk_category":null,"license_number":"262943","establishmentid":"51623476","establishment_type":"Non-Public School","establishment_status":"Open","review_frequency_days":"180","most_recent_license_date":"28/4/2022"}},"nearbyList":[{"establishmentid":"207","name":"Burger King #10753","address":"9239 Gratiot Ave.","zipcode":"48213"},{"establishmentid":"1436","name":"Blackwell Institute","address":"9330 Shoemaker","zipcode":"48213"},{"establishmentid":"5001","name":"Bethel Baptist Church East - Head Start","address":"5715 Holcomb","zipcode":"48213"},{"establishmentid":"1244","name":"Bethel Baptist Church East","address":"5715 Holcomb","zipcode":"48213"},{"establishmentid":"3511","name":"Ross Catering","address":"9628  Harper","zipcode":"48213"},{"establishmentid":"2811","name":"Captain Jay's Fish & Chicken","address":"9623 Gratiot Ave.","zipcode":"48213"},{"establishmentid":"625","name":"Houston's Grill","address":"8701 Gratiot  Ave.","zipcode":"48213"},{"establishmentid":"51623413","name":"Alaska Fish and Chicken-Gratiot","address":"9655 Gratiot","zipcode":"48213"},{"establishmentid":"3633","name":"Subway #26842","address":"9655  Gratiot Ave.","zipcode":"48213"},{"establishmentid":"3226","name":"Chi-Chi's Lounge","address":"9401 Harper Ave.","zipcode":"48213"}],"inspectionsByEstablishmentidList":[{"inspectionid":"59680","inspectionDate":"2022-05-20T00:00:00","inspectionType":"Routine Inspection","inCompliance":"Yes","violationsByInspectionidList":[{"violationCode":"3-101.11","violationDescription":"FOOD shall be safe, unADULTERATED and honestly presented. (P)\n","violationType":"Priority","itemDescription":"Food","subItem":"","problemDescription":"Not safe","subProblem":"","location":"DINING AREA","subLocation":"Inside the Cooler (milk)","corrected":"True","daysToCorrect":"10","correctedDate":"0001-01-01T00:00:00","correctionDescription":"Discard."}]}]}],"maxInspectionDate":[{"inspectionDate":"2023-04-13T00:00:00"}]}},"pageContext":{"eid":"51623476"}},"staticQueryHashes":["3649515864","63159454"]}