{"data":{"site":{"pathPrefix":"/restaurant-inspections"},"postgres":{"establishment":[{"establishmentid":"940","name":"Osborn Senior High School","address":"11600 E Seven Mile Rd","zipcode":"48205","owner":"Detroit Board of Education","licenseNumber":"034977","licenseType":"Fixed Establishment","establishmentType":"Public School","establishmentStatus":"Open","riskCategory":"Medium","reviewFrequencyDays":"210.0","coords":"-83.00340,42.43357","geojson":{"id":"940","type":"Feature","geometry":{"type":"Point","coordinates":[-83.003403555,42.4335714540001]},"properties":{"name":"Osborn Senior High School","owner":"Detroit Board of Education","address":"11600 E Seven Mile Rd","zipcode":"48205","license_type":"Fixed Establishment","risk_category":"Medium","license_number":"034977","establishmentid":"940","establishment_type":"Public School","establishment_status":"Open","review_frequency_days":"210.0","most_recent_license_date":"4/29/2016"}},"nearbyList":[{"establishmentid":"5338","name":"R & D One Stop Meals","address":"11811 E Seven Mile Rd","zipcode":"48205"},{"establishmentid":"4772","name":"Me & My Girls Soul Food","address":"11831 E Seven Mile Rd. ","zipcode":"48205"},{"establishmentid":"5411","name":"Royal Fish & Chicken Inc.","address":"11429 E Seven Mile Rd","zipcode":"48234"},{"establishmentid":"3321","name":"Brenda Scott Middle School","address":"18400 Hoover Rd","zipcode":"48214"},{"establishmentid":"951","name":"Turning Point Academy","address":"12300 Linnhurst","zipcode":"48205"},{"establishmentid":"1171","name":"Pulaski Elementary / Middle School","address":"19725 Strasburg","zipcode":"48205"},{"establishmentid":"1167","name":"Fleming Elementary","address":"18501 Waltham St","zipcode":"48205"},{"establishmentid":"3654","name":"State Fair Lounge, Inc.","address":"19910 Hoover Ave","zipcode":"48205"},{"establishmentid":"2375","name":"New Robert's Coney Island Inc.","address":"12701 E Seven Mile Rd","zipcode":"48205"},{"establishmentid":"3497","name":"Prince Pizza Chicken & Ribs","address":"13000 E Seven Mile Rd","zipcode":"48205"},{"establishmentid":"3750","name":"Zorba's Coney Island","address":"11701 E McNichols Ave","zipcode":"48205"},{"establishmentid":"5271","name":"S & T Fresh Fish & Seafood 2 Inc.","address":"11395 E McNichols","zipcode":"48234"},{"establishmentid":"309","name":"P.P.H. Lounge","address":"11526 Portlance St","zipcode":"48205"},{"establishmentid":"1431","name":"BT'S (Tycoons DBA Celebrity Reservation)","address":"12210 E Eight Mile Rd","zipcode":"48205"},{"establishmentid":"2947","name":"Coliseum","address":"11300 E Eight Mile Rd","zipcode":"48205"},{"establishmentid":"763","name":"Bel Air 10 Theater","address":"10100 E Eight Mile Rd","zipcode":"48234"},{"establishmentid":"51622743","name":"Diamond Hospitality LLC","address":"4777 E Outer Drive","zipcode":"48234"},{"establishmentid":"51622450","name":"Detroit's Finest Coney Island","address":"12930 E Eight Mile Rd","zipcode":"48205"},{"establishmentid":"4239","name":"Matrix Human Services","address":"13560 E McNichols Ave","zipcode":"48205"},{"establishmentid":"531","name":"Wing's Chop Suey","address":"18700 Van Dyke Ave","zipcode":"48234"}],"inspectionsByEstablishmentidList":[{"inspectionid":"43851","inspectionDate":"2018-10-18T00:00:00","inspectionType":"Routine Inspection","inCompliance":"Yes","violationsByInspectionidList":[]},{"inspectionid":"42187","inspectionDate":"2018-05-03T00:00:00","inspectionType":"Routine Inspection","inCompliance":"Yes","violationsByInspectionidList":[]},{"inspectionid":"40722","inspectionDate":"2017-11-08T00:00:00","inspectionType":"Routine Inspection","inCompliance":"Yes","violationsByInspectionidList":[]},{"inspectionid":"38861","inspectionDate":"2017-04-26T00:00:00","inspectionType":"Routine Inspection","inCompliance":"Yes","violationsByInspectionidList":[]},{"inspectionid":"36855","inspectionDate":"2016-10-18T00:00:00","inspectionType":"Routine Inspection","inCompliance":"Yes","violationsByInspectionidList":[{"violationCode":"4-501.11","violationDescription":"EQUIPMENT shall be maintained in a state of repair and condition that meets the requirements of the code.\r\n","violationType":"Core","itemDescription":"Equipment","subItem":"","problemDescription":"Do not meet requirements of rule","subProblem":"","location":"WALK-IN COOLER","subLocation":"","corrected":"Not required","daysToCorrect":"30.0","correctedDate":null,"correctionDescription":"Repair/replace to meet requirements of rule."}]}]}]}},"pageContext":{"eid":"940"}}