{"data":{"site":{"pathPrefix":"/restaurant-inspections"},"postgres":{"establishment":[{"establishmentid":"3574","name":"Farwell Community Center ","address":"2711 E Outer Drive","zipcode":"48234","owner":"Detroit Parks and Recreation","licenseNumber":"078652","licenseType":"Fixed Establishment","establishmentType":"Food Service Establishment","establishmentStatus":"Open","riskCategory":null,"reviewFrequencyDays":"365.0","coords":"-83.05814,42.44049","geojson":{"id":"3574","type":"Feature","geometry":{"type":"Point","coordinates":[-83.058139863,42.44049111]},"properties":{"name":"Farwell Community Center ","owner":"Detroit Parks and Recreation","address":"2711 E Outer Drive","zipcode":"48234","license_type":"Fixed Establishment","risk_category":null,"license_number":"078652","establishmentid":"3574","establishment_type":"Food Service Establishment","establishment_status":"Open","review_frequency_days":"365.0","most_recent_license_date":"5/10/2016"}},"nearbyList":[{"establishmentid":"1020","name":"Mason PK-8 @ Farwell Jr. High School","address":"19955 Fenelon St","zipcode":"48238"},{"establishmentid":"1432","name":"Taylor Made Burgers","address":"4844 E Seven Mile Rd","zipcode":"48234"},{"establishmentid":"2129","name":"Kwicky Bar","address":"4130 E Eight Mile Rd","zipcode":"48234"},{"establishmentid":"4932","name":"Dove Academy of Detroit","address":"20001 Wexford","zipcode":"48234"},{"establishmentid":"3510","name":"Checkers #6239","address":"4030 E Eight Mile Rd","zipcode":"48234"},{"establishmentid":"1935","name":"Kams Chop Suey","address":"5113 E Seven Mile Rd","zipcode":"48234"},{"establishmentid":"5422","name":"Texas Fish and Chicken","address":"5207 E 7 Mile Rd","zipcode":"48234"},{"establishmentid":"3086","name":"B & B's Diner","address":"5223 E Seven Mile Rd","zipcode":"48234"},{"establishmentid":"888","name":"Pershing Senior High","address":"18875 Ryan Rd","zipcode":"48234"},{"establishmentid":"5128","name":"Yonka Grill & Dairy","address":"3741 E Seven Mile","zipcode":"48234"},{"establishmentid":"51622852","name":"Asian Corned Beef","address":"3741 E Seven MIle Rd","zipcode":"48234"},{"establishmentid":"51622449","name":"Ocean Fish & Chicken","address":"3732 E Eight Mile","zipcode":"48234"},{"establishmentid":"4128","name":"Legacy Charter Academy","address":"4900 E Hildale St","zipcode":"48234"},{"establishmentid":"1255","name":"Vernon Chapel Church","address":"18500 Norwood","zipcode":"48234"},{"establishmentid":"1937","name":"Nevada Coney Island","address":"18000 Ryan Rd","zipcode":"48212"},{"establishmentid":"1164","name":"Kwong Tung Inn","address":"3040 E Eight Mile Rd","zipcode":"48234"},{"establishmentid":"733","name":"Gold Coast","address":"2971 E Seven Mile Rd","zipcode":"48234"},{"establishmentid":"1751","name":"Ambiance","address":"2959 E Seven Mile Rd","zipcode":"48234"},{"establishmentid":"1213","name":"Chili Boys (Lou's Coney Island)","address":"19100 Mound Rd","zipcode":"48234"},{"establishmentid":"488","name":"Deluxe Coney Island","address":"2923 E Seven Mile Rd","zipcode":"48234"}],"inspectionsByEstablishmentidList":[{"inspectionid":"44400","inspectionDate":"2018-12-07T00:00:00","inspectionType":"Routine Inspection","inCompliance":"Yes","violationsByInspectionidList":[]},{"inspectionid":"40713","inspectionDate":"2017-11-03T00:00:00","inspectionType":"Routine Inspection","inCompliance":"Yes","violationsByInspectionidList":[]},{"inspectionid":"37145","inspectionDate":"2016-11-10T00:00:00","inspectionType":"Routine Inspection","inCompliance":"Yes","violationsByInspectionidList":[]}]}]}},"pageContext":{"eid":"3574"}}