{"data":{"site":{"pathPrefix":"/restaurant-inspections"},"postgres":{"establishment":[{"establishmentid":"51622949","name":"Upfront Hospitality LLC dba Oak and Reel","address":"2921 E Grand Blvd","zipcode":"48202","owner":"Upfront Hospitality LLC","licenseNumber":"250446","licenseType":"Fixed Establishment","establishmentType":"Food Service Establishment","establishmentStatus":"Open","riskCategory":"High","reviewFrequencyDays":"180","coords":"-83.06687,42.37225","geojson":{"id":"51622949","type":"Feature","geometry":{"type":"Point","coordinates":[-83.066870807,42.372247677]},"properties":{"name":"Upfront Hospitality LLC dba Oak and Reel","owner":"Upfront Hospitality LLC","address":"2921 E Grand Blvd","zipcode":"48202","license_type":"Fixed Establishment","risk_category":"High","license_number":"250446","establishmentid":"51622949","establishment_type":"Food Service Establishment","establishment_status":"Open","review_frequency_days":"180","most_recent_license_date":"1/31/2020"}},"nearbyList":[{"establishmentid":"51622696","name":"Kiesling","address":"449 E Milwaukee Ave","zipcode":"48202"},{"establishmentid":"785","name":"Parks Old Style Bar-B-Q ","address":"7444 Beaubien St","zipcode":"48202"},{"establishmentid":"4173","name":"Hastings Street Ballroom & DBA Tangent G","address":"715 E Milwaukee Ave","zipcode":"48202"},{"establishmentid":"3608","name":"Firewater Bar & Grill II","address":"107 E Milwaukee Ave.  ","zipcode":"48202"},{"establishmentid":"4811","name":"Bucharest Grill Piquette","address":"110 Piquette Ave","zipcode":"48202"},{"establishmentid":"4411","name":"Triumph Church","address":"2760 E Grand Blvd","zipcode":"48211"},{"establishmentid":"5183","name":"Atomic Chicken","address":"6500 Woodward Ave","zipcode":"48202"},{"establishmentid":"51622897","name":"Yum Village LLC","address":"6500 Woodward Ave","zipcode":"48202"},{"establishmentid":"529","name":"Woodward Cocktail Bar","address":"6426 Woodward Ave","zipcode":"48202"},{"establishmentid":"51622948","name":"Krispy Chicken","address":"1140 Clay St","zipcode":"48211"}],"inspectionsByEstablishmentidList":[]}],"maxInspectionDate":[{"inspectionDate":"2020-10-30T00:00:00"}]}},"pageContext":{"eid":"51622949"}}