{"data":{"site":{"pathPrefix":"/restaurant-inspections"},"postgres":{"establishment":[{"establishmentid":"51622933","name":"Dexter Dairy and Deli","address":"15314 Dexter Ave","zipcode":"48238","owner":"William Lynaum II","licenseNumber":"241592","licenseType":"Fixed Establishment","establishmentType":"Food Service Establishment","establishmentStatus":"Open","riskCategory":"Medium","reviewFrequencyDays":"180.0","coords":"-83.13529,42.40296","geojson":{"id":"51622933","type":"Feature","geometry":{"type":"Point","coordinates":[-83.135289977,42.4029575870001]},"properties":{"name":"Dexter Dairy and Deli","owner":"William Lynaum II","address":"15314 Dexter Ave","zipcode":"48238","license_type":"Fixed Establishment","risk_category":"Medium","license_number":"241592","establishmentid":"51622933","establishment_type":"Food Service Establishment","establishment_status":"Open","review_frequency_days":"180.0","most_recent_license_date":"7/18/2019"}},"nearbyList":[{"establishmentid":"3478","name":"Joy Preparatory Academy - Dexter Campus","address":"15055 Dexter Ave","zipcode":"48238"},{"establishmentid":"1556","name":"Uptown Bar B Que","address":"15700 Livernois Ave","zipcode":"48238"},{"establishmentid":"1894","name":"Thurgood Marshall Elementary","address":"15531 Linwood St","zipcode":"48238"},{"establishmentid":"1144","name":"Church's Fried Chicken #785","address":"16100 Livernois Ave","zipcode":"48221"},{"establishmentid":"1023","name":"U Of D Coney Island #1","address":"16126 Livernois Ave","zipcode":"48221"},{"establishmentid":"4808","name":"Checker's","address":"14400 Livernois Ave","zipcode":"48238"},{"establishmentid":"880","name":"U of Detroit Mercy- Calihan Hall","address":"4001 W McNichols Rd","zipcode":"48221"},{"establishmentid":"4143","name":"U of Detroit Mercy-Library Cafe","address":"4001 W McNichols Rd","zipcode":"48221"},{"establishmentid":"1577","name":"U of Detroit Mercy-Student Cafe/Poblanos","address":"4001 W McNichols Rd","zipcode":"48221"},{"establishmentid":"4413","name":"U of Detroit Mercy-Subway","address":"4001 W McNichols Rd","zipcode":"48221"}],"inspectionsByEstablishmentidList":[{"inspectionid":"49294","inspectionDate":"2019-09-30T00:00:00","inspectionType":"Routine Inspection","inCompliance":"Yes","violationsByInspectionidList":[]},{"inspectionid":"48603","inspectionDate":"2019-07-26T00:00:00","inspectionType":"Plan Review/Pre-Open","inCompliance":"Yes","violationsByInspectionidList":[]}]}],"maxInspectionDate":[{"inspectionDate":"2019-10-31T00:00:00"}]}},"pageContext":{"eid":"51622933"}}