{"data":{"site":{"pathPrefix":"/restaurant-inspections"},"postgres":{"establishment":[{"establishmentid":"51623029","name":"Atheneum Suites Hotel","address":"1000 Brush St","zipcode":"48226","owner":"Jim Papas","licenseNumber":"249309","licenseType":"Fixed Establishment","establishmentType":"Food Service Establishment","establishmentStatus":"Open","riskCategory":"High","reviewFrequencyDays":"180","coords":"-83.04267,42.33408","geojson":{"id":"51623029","type":"Feature","geometry":{"type":"Point","coordinates":[-83.042668823,42.334083667]},"properties":{"name":"Atheneum Suites Hotel","owner":"Jim Papas","address":"1000 Brush St","zipcode":"48226","license_type":"Fixed Establishment","risk_category":"High","license_number":"249309","establishmentid":"51623029","establishment_type":"Food Service Establishment","establishment_status":"Open","review_frequency_days":"180","most_recent_license_date":"3/2/2020"}},"nearbyList":[{"establishmentid":"1089","name":"Loco Bar & Grill","address":"454 E Lafayette Ave","zipcode":"48226"},{"establishmentid":"4681","name":"Dream Club","address":"440 E Lafayette Ave","zipcode":"48226"},{"establishmentid":"1505","name":"Fishbones Rhythm Kitchen ","address":"400 Monroe St","zipcode":"48226"},{"establishmentid":"1485","name":"International Banquet & Conference Ctr.","address":"400 Monroe St","zipcode":"48226"},{"establishmentid":"964","name":"Bouzouki Club","address":"432 E Lafayette Ave","zipcode":"48226"},{"establishmentid":"4624","name":"Firebird Tavern","address":"419 Monroe St","zipcode":"48226"},{"establishmentid":"5430","name":"Ready Player One","address":"407 E Fort St. ","zipcode":"48226"},{"establishmentid":"51622982","name":"Del Mar","address":"501 Monroe St","zipcode":"48226"},{"establishmentid":"51622976","name":"DelMar Kitchen & Bar","address":"501 Monroe St","zipcode":"48226"},{"establishmentid":"3179","name":"Santorini","address":"501 Monroe St","zipcode":"48226"}],"inspectionsByEstablishmentidList":[]}],"maxInspectionDate":[{"inspectionDate":"2020-10-30T00:00:00"}]}},"pageContext":{"eid":"51623029"}}