{"data":{"site":{"pathPrefix":"/restaurant-inspections"},"postgres":{"establishment":[{"establishmentid":"768","name":"Family Treat","address":"2010 Springwells Ave","zipcode":"48209","owner":"James J. Fenech","licenseNumber":"034781","licenseType":"Fixed Establishment","establishmentType":"Food Service Establishment","establishmentStatus":"Open","riskCategory":null,"reviewFrequencyDays":"365.0","coords":"-83.12569,42.30964","geojson":{"id":"768","type":"Feature","geometry":{"type":"Point","coordinates":[-83.125688743,42.309644555]},"properties":{"name":"Family Treat","owner":"James J. Fenech","address":"2010 Springwells Ave","zipcode":"48209","license_type":"Fixed Establishment","risk_category":null,"license_number":"034781","establishmentid":"768","establishment_type":"Food Service Establishment","establishment_status":"Open","review_frequency_days":"365.0","most_recent_license_date":"4/17/2015"}},"nearbyList":[{"establishmentid":"51622803","name":"La Posada","address":"1930 Springwells St","zipcode":"48209"},{"establishmentid":"4050","name":"My Spot","address":"1801 Springwells","zipcode":"48209"},{"establishmentid":"5082","name":"El Caribeno","address":"8065 Vernor Hwy","zipcode":"48209"},{"establishmentid":"51622563","name":"La Pasada","address":"1601 Springwells St","zipcode":"48209"},{"establishmentid":"279","name":"Pauls Pizzeria","address":"7635 W Vernor St","zipcode":"48209"},{"establishmentid":"4358","name":"Domino's Pizza","address":"7603 W Vernor St","zipcode":"48209"},{"establishmentid":"413","name":"Charlie's Bar","address":"1503 Springwells Ave","zipcode":"48209"},{"establishmentid":"926","name":"Bennett Elementary","address":"2111 Mullane St","zipcode":"48209"},{"establishmentid":"995","name":"Harms School Elementary","address":"2400 Central Ave","zipcode":"48209"},{"establishmentid":"1353","name":"Vince's Italian Rest & Pizzeria","address":"1341 Springwells Ave","zipcode":"48209"},{"establishmentid":"3812","name":"Tacos El Caballo","address":"8084 Rathbone St","zipcode":"48209"},{"establishmentid":"2224","name":"El Asador","address":"1312 Springwells Ave","zipcode":"48209"},{"establishmentid":"5028","name":"Marisqueria El Emperio","address":"1633 Lawndale St","zipcode":"48209"},{"establishmentid":"4960","name":"El Parian Commissary","address":"1633 Lawndale St","zipcode":"48209"},{"establishmentid":"5173","name":"El Salpicon","address":"8600 W Vernor Hwy","zipcode":"48209"},{"establishmentid":"3849","name":"El Kiosko","address":"7271 Dix Ave","zipcode":"48209"},{"establishmentid":"51622476","name":"Mi Pueblo Express","address":"7271 Dix Ave","zipcode":"48209"},{"establishmentid":"5223","name":"Primo's Tacos","address":"7643 Dix Ave","zipcode":"48216"},{"establishmentid":"1015","name":"Casey's Bar L.L.C.","address":"7677 Dix Ave","zipcode":"48209"},{"establishmentid":"4241","name":"Tacos El Toro #3","address":"8191 Chamberlain St","zipcode":"48209"}],"inspectionsByEstablishmentidList":[{"inspectionid":"42687","inspectionDate":"2018-06-12T00:00:00","inspectionType":"Routine Inspection","inCompliance":"Yes","violationsByInspectionidList":[]},{"inspectionid":"38978","inspectionDate":"2017-05-30T00:00:00","inspectionType":"Routine Inspection","inCompliance":"Yes","violationsByInspectionidList":[{"violationCode":"3-501.17","violationDescription":"(A)  READY-TO-EAT, POTENTIALLY HAZARDOUS FOOD (TIME/TEMPERATURE CONTROL FOR SAFETY FOOD)  prepared and held refrigerated for more than 24 hours in a FOOD ESTABLISHMENT  shall be clearly marked at the time of preparation to indicate the date or day by which the FOOD shall be consumed. (Pf)\r\n(B)  A container of refrigerated, commercially prepared READY-TO-EAT POTENTIALLY HAZARDOUS FOOD (TIME/TEMPERATURE CONTROL FOR SAFETY FOOD)  shall be clearly marked, at the time the original container is opened in a FOOD ESTABLISHMENT, to indicate the date or day by which the FOOD shall be consumed. (Pf)\r\n\r\nA date marking system that does not exceed 7 days, including date of preparation, or opening is to be used. (Pf)\r\n","violationType":"Foundation","itemDescription":null,"subItem":"","problemDescription":null,"subProblem":"","location":"WALK-IN COOLER","subLocation":"","corrected":"Yes","daysToCorrect":"10.0","correctedDate":"2017-05-30T00:00:00","correctionDescription":null}]}]}]}},"pageContext":{"eid":"768"}}