{"data":{"site":{"pathPrefix":"/restaurant-inspections"},"postgres":{"establishment":[{"establishmentid":"3542","name":"Flagship Academy","address":"13661 Wisconsin St","zipcode":"48238","owner":"National Heritage Academies","licenseNumber":"066064","licenseType":"Fixed Establishment","establishmentType":"Non-Public School","establishmentStatus":"Open","riskCategory":"High","reviewFrequencyDays":"210.0","coords":"-83.15660,42.38796","geojson":{"id":"3542","type":"Feature","geometry":{"type":"Point","coordinates":[-83.156600004,42.387958654]},"properties":{"name":"Flagship Academy","owner":"National Heritage Academies","address":"13661 Wisconsin St","zipcode":"48238","license_type":"Fixed Establishment","risk_category":"High","license_number":"066064","establishmentid":"3542","establishment_type":"Non-Public School","establishment_status":"Open","review_frequency_days":"210.0","most_recent_license_date":null}},"nearbyList":[{"establishmentid":"4800","name":"Asian Corned Beef","address":"13660 Wyoming St","zipcode":"48238"},{"establishmentid":"1688","name":"Banko's Lounge","address":"14168 Wyoming St","zipcode":"48238"},{"establishmentid":"830","name":"Noble K-8 School","address":"8646 Fullerton St","zipcode":"48238"},{"establishmentid":"2744","name":"Super 3 Coney Island","address":"14508 Wyoming Ave","zipcode":"48238"},{"establishmentid":"3444","name":"Adams-Butzel Recreation Center","address":"10500 Lyndon Ave","zipcode":"48238"},{"establishmentid":"4877","name":"AC's Hot Dog Express #1","address":"14153 Manor St","zipcode":"48238"},{"establishmentid":"1482","name":"Hollywood Coney Island","address":"12033 Grand River Ave","zipcode":"48204"},{"establishmentid":"4913","name":"Wyoming Fresh Fish","address":"15151 Wyoming Ave","zipcode":"48238"},{"establishmentid":"2874","name":"Fish Express","address":"12555 Grand River Ste 400","zipcode":"48204"},{"establishmentid":"3153","name":"1st Wok","address":"12555 Grand River Ave #150","zipcode":"48204"},{"establishmentid":"4067","name":"China Garden","address":"15228 Wyoming Ave","zipcode":"48238"},{"establishmentid":"51622478","name":"Pizza Kebab","address":"15221 Wyoming Ave","zipcode":"48238"},{"establishmentid":"1289","name":"McDonald's #3146","address":"15321 Wyoming Ave","zipcode":"48238"},{"establishmentid":"51622637","name":"Jam Jomar XXV III (McDonalds)","address":"15321 Wyoming #3146","zipcode":"48238"},{"establishmentid":"1282","name":"Tim Horton's","address":"15340 Wyoming Ave","zipcode":"48238"},{"establishmentid":"2151","name":"White Castle #43","address":"15365 Wyoming Ave","zipcode":"48238"},{"establishmentid":"1747","name":"China House","address":"14361 Livernois Ave","zipcode":"48238"},{"establishmentid":"5095","name":"Subway #61420","address":"14363 Livernois Ave","zipcode":"48238"},{"establishmentid":"3887","name":"Happy's Pizza #44","address":"14365 Livernois Ave","zipcode":"48238"},{"establishmentid":"2016","name":"Wendy's ","address":"14001 Livernois Ave","zipcode":"48238"}],"inspectionsByEstablishmentidList":[{"inspectionid":"43638","inspectionDate":"2018-10-03T00:00:00","inspectionType":"Routine Inspection","inCompliance":"Yes","violationsByInspectionidList":[]},{"inspectionid":"41874","inspectionDate":"2018-04-12T00:00:00","inspectionType":"Routine Inspection","inCompliance":"Yes","violationsByInspectionidList":[]},{"inspectionid":"39913","inspectionDate":"2017-09-12T00:00:00","inspectionType":"Routine Inspection","inCompliance":"Yes","violationsByInspectionidList":[]},{"inspectionid":"38044","inspectionDate":"2017-02-16T00:00:00","inspectionType":"Routine Inspection","inCompliance":"Yes","violationsByInspectionidList":[{"violationCode":"MFL289.2129","violationDescription":"Sec. 2129. (1) All of the following food establishments shall employ a minimum of 1 managerial employee who is currently certified under a personnel certification program accredited by the American national standards institute, utilizing the conference for food protection standards:  (a) A food service establishment that is not any of the following:    (i) Operating under a temporary food service establishment license.  (ii) A vending machine location.     (b) An extended retail food establishment.  (c) Operated within a retail grocery.  (2) An individual certified under subsection (1) shall be recognized with full faith and credit by the state and all local units of government throughout the state.  (3) The department may promulgate rules to do all of the following:  (a) Develop requirements for retail food establishments to follow when employing certified food safety managers or personnel.  (b) Set a reasonable date for compliance with the requirements under subdivision (a) taking into consideration existing local personnel certification requirements.  (c) Establish certification fees necessary to implement, maintain, and track certified individuals directly or by contract. The department may annually adjust the schedule of fees to provide that the fee charged is sufficient to cover the cost of the certification tracking program.  (d) Implement and enforce the requirements described in subdivision (a).    (4) The certification program developed by the American national standards institute, as it exists on April 1, 2008 , is incorporated by reference. The department may adopt updates to the certification program accreditation standards in subsection (1) by rule.     (5) This section does not prohibit any local legislative body from implementing a food handler program, an employee health certification program, or a manager certification program, if it is not in conflict with this section.","violationType":"Core","itemDescription":null,"subItem":"","problemDescription":null,"subProblem":"","location":null,"subLocation":"","corrected":"Not required","daysToCorrect":"30.0","correctedDate":null,"correctionDescription":null}]}]}]}},"pageContext":{"eid":"3542"}}