{"componentChunkName":"component---src-templates-establishment-page-js","path":"/establishment/1614","result":{"data":{"site":{"pathPrefix":"/restaurant-inspections"},"postgres":{"establishment":[{"establishmentid":"1614","name":"Beirut Kebab","address":"5827 Vernor St. W.","zipcode":"48209","owner":"Houssam Mohammad-Ahmad","licenseNumber":"068401","licenseType":"Fixed Establishment","establishmentType":"Food Service Establishment","establishmentStatus":"Open","riskCategory":null,"reviewFrequencyDays":"150","coords":"-83.10423,42.31662","geojson":{"id":"1614","type":"Feature","geometry":{"type":"Point","coordinates":[-83.104228694,42.316620151]},"properties":{"name":"Beirut Kebab","owner":"Houssam Mohammad-Ahmad","address":"5827 Vernor St. W.","zipcode":"48209","license_type":"Fixed Establishment","risk_category":null,"license_number":"068401","establishmentid":"1614","establishment_type":"Food Service Establishment","establishment_status":"Open","review_frequency_days":"150","most_recent_license_date":"8/12/2011"}},"nearbyList":[{"establishmentid":"4331","name":"La Morenita","address":"5827 Vernor St. W.","zipcode":"48209"},{"establishmentid":"461","name":"Ho Ho Village","address":"5821 Vernor St.W.","zipcode":"48209"},{"establishmentid":"1125","name":"Donut Villa","address":"5875 Vernor St.W.","zipcode":"48209"},{"establishmentid":"818","name":"Coogan's Bar","address":"5890 Vernor St.W.","zipcode":"48209"},{"establishmentid":"3661","name":"Detroit Cristo Rey High School","address":"5679  Vernor St. W.","zipcode":"48209"},{"establishmentid":"1147","name":"El Rancho Mexican Restaurant","address":"5900 Vernor St.W.","zipcode":"48209"},{"establishmentid":"1046","name":"McDonald's #2071","address":"6003 Vernor St.W.","zipcode":"48209"},{"establishmentid":"4311","name":"Holy Redeemer Church","address":"1721 Junction","zipcode":"48209"},{"establishmentid":"4312","name":"Holy Redeemer Church","address":"1721  Junction Ave.","zipcode":"48209"},{"establishmentid":"2707","name":"New York Pizza & Subs","address":"5620 Vernor W.","zipcode":"48209"}],"inspectionsByEstablishmentidList":[]}],"maxInspectionDate":[{"inspectionDate":"2022-07-25T00:00:00"}]}},"pageContext":{"eid":"1614"}},"staticQueryHashes":["3649515864","63159454"]}