{"data":{"postgres":{"establishment":[{"establishmentid":"4319","name":"Bath Tub Pub","address":"125-29 Michigan Ave","zipcode":"48226","owner":"Deone Larkins","licenseNumber":"221014","licenseType":"Fixed Establishment","establishmentType":"Food Service Establishment","establishmentStatus":"Permanently Closed","riskCategory":null,"reviewFrequencyDays":"365.0","coords":"-83.30808,42.29446","geojson":{"id":"4319","type":"Feature","geometry":{"type":"Point","coordinates":[-83.3080806299999,42.29445565]},"properties":{"name":"Bath Tub Pub","owner":"Deone Larkins","address":"125-29 Michigan Ave","zipcode":"48226","license_type":"Fixed Establishment","risk_category":null,"license_number":"221014","establishmentid":"4319","establishment_type":"Food Service Establishment","establishment_status":"Permanently Closed","review_frequency_days":"365.0","most_recent_license_date":"6/1/2017"}},"nearbyList":[{"establishmentid":"5358","name":"Road Dogz","address":"33221 Somerset St","zipcode":"48312"},{"establishmentid":"3552","name":"El Bosque Salon","address":"6705 Lafayette Ave W","zipcode":"48209"},{"establishmentid":"1253","name":"Sacred Heart Major Seminary","address":"2701 W Chicago Ave","zipcode":"48206"},{"establishmentid":"473","name":"J.P.'s West","address":"22234 W Warren Ave","zipcode":"48239"},{"establishmentid":"1236","name":"Ann Arbor Trail Magnet School","address":"7635 Chatham St","zipcode":"48228"},{"establishmentid":"542","name":"3 ELEVEN ULTRA LOUNGE","address":"22100 W Warren Ave","zipcode":"48239"},{"establishmentid":"261","name":"Park-Joy Bar","address":"23220 Joy Rd","zipcode":"48239"},{"establishmentid":"3921","name":"Westside Christian Academy","address":"9540 Bramell St","zipcode":"48239"},{"establishmentid":"4284","name":"Detroit Leadership Academy","address":"5845 Auburn St","zipcode":"48228"},{"establishmentid":"890","name":"Dixon Educational Learning Center","address":"8401 Trinity St","zipcode":"48228"},{"establishmentid":"5233","name":"Evergreen Fish Express LLC","address":"6540 Evergreen Rd","zipcode":"48228"},{"establishmentid":"1524","name":"North American Indian Association","address":"22720 Plymouth Rd","zipcode":"48239"},{"establishmentid":"262","name":"B. M. G. Bar & Grill","address":"20809 Joy Rd","zipcode":"48228"},{"establishmentid":"2605","name":"Prince Pizza II","address":"22507 Plymouth Rd","zipcode":"48239"},{"establishmentid":"3673","name":"Tijuana's Authenic Mexican Kitchen","address":"18940 Ford Rd","zipcode":"48228"},{"establishmentid":"256","name":"Hurry Inn ","address":"19430-32 W Warren Ave","zipcode":"48228"},{"establishmentid":"1121","name":"Club 228","address":"18728 Ford Rd","zipcode":"48228"},{"establishmentid":"1515","name":"Pizzaplace Dearborn, Inc","address":"18706 Ford Rd","zipcode":"48228"},{"establishmentid":"1050","name":"Detroit Robin Inc./Red Robin ","address":"18650 Ford Rd","zipcode":"48228"},{"establishmentid":"51622861","name":"Little Pizza","address":"19240 W Warren Ave","zipcode":"48228"}],"inspectionsByEstablishmentidList":[]}]}},"pageContext":{"eid":"4319"}}