{"componentChunkName":"component---src-templates-establishment-page-js","path":"/establishment/51623786","result":{"data":{"site":{"pathPrefix":"/restaurant-inspections"},"postgres":{"establishment":[{"establishmentid":"51623786","name":"Detroit Taco Joint Venture 5 Greektown","address":"555 Lafayette E.","zipcode":"48226","owner":"Detroit Taco Joint Venture 5 G","licenseNumber":"PR22094A","licenseType":"Fixed Establishment","establishmentType":"Food Service Establishment","establishmentStatus":"Plan Review","riskCategory":null,"reviewFrequencyDays":"150","coords":"-83.04131,42.33457","geojson":{"id":"51623786","type":"Feature","geometry":{"type":"Point","coordinates":[-83.041311005,42.3345671]},"properties":{"name":"Detroit Taco Joint Venture 5 Greektown","owner":"Detroit Taco Joint Venture 5 G","address":"555 Lafayette E.","zipcode":"48226","license_type":"Fixed Establishment","risk_category":null,"license_number":"PR22094A","establishmentid":"51623786","establishment_type":"Food Service Establishment","establishment_status":"Plan Review","review_frequency_days":"150","most_recent_license_date":null}},"nearbyList":[{"establishmentid":"3831","name":"Greektown Casino - High Limits","address":"555 Lafayette Ave. E.","zipcode":"48226"},{"establishmentid":"3832","name":"Greektown Casino-Shotz","address":"555 LaFayette Ave. E.","zipcode":"48226"},{"establishmentid":"3829","name":"Greektown Casino - Monroe Market","address":"555 Lafayette Ave. E.","zipcode":"48226"},{"establishmentid":"3676","name":"Greektown Casino-Pantheon Club","address":"555 LaFayette Ave. E.","zipcode":"48226"},{"establishmentid":"3677","name":"Greektown Casino-Trappers","address":"555 LaFayette Ave. E.","zipcode":"48226"},{"establishmentid":"3830","name":"Greektown Casino - Bistro 555","address":"555 Lafayette Ave. E.","zipcode":"48226"},{"establishmentid":"3678","name":"Greektown Casino-Bars","address":"555 LaFayette Ave. E.","zipcode":"48226"},{"establishmentid":"3675","name":"Greektown Casino-Alley Grill","address":"555 LaFayette Ave. E.","zipcode":"48226"},{"establishmentid":"3452","name":"Lucky Green Vending","address":"555 Lafayette E.","zipcode":"49226"},{"establishmentid":"3833","name":"Greektown Casino-Opa Bar","address":"555 LaFayette Ave. E.","zipcode":"48226"}],"inspectionsByEstablishmentidList":[{"inspectionid":"62176","inspectionDate":"2023-04-12T00:00:00","inspectionType":"Routine Inspection","inCompliance":"No","violationsByInspectionidList":[{"violationCode":"4-601.11","violationDescription":"(A) EQUIPMENT FOOD-CONTACT SURFACES and UTENSILS shall be clean to sight and touch. (Pf)\n(B) The FOOD-CONTACT SURFACES of cooking EQUIPMENT and pans shall be kept free of encrusted grease deposits and other soil accumulations. \n(C) NonFOOD-CONTACT SURFACES of EQUIPMENT shall be kept free of an accumulation of dust, dirt, FOOD residue, and other debris. \n","violationType":"Foundation","itemDescription":"Food-contact surface(s)","subItem":"","problemDescription":"Soiled","subProblem":"","location":"COOK LINE AREA","subLocation":"On the Knife rack","corrected":"False","daysToCorrect":"10","correctedDate":null,"correctionDescription":null}]}]}],"maxInspectionDate":[{"inspectionDate":"2023-04-25T00:00:00"}]}},"pageContext":{"eid":"51623786"}},"staticQueryHashes":["3649515864","63159454"]}