{"componentChunkName":"component---src-templates-establishment-page-js","path":"/establishment/2354","result":{"data":{"site":{"pathPrefix":"/restaurant-inspections"},"postgres":{"establishment":[{"establishmentid":"2354","name":"Aloha Coney Island","address":"10993 Gratiot Ave.","zipcode":"48213","owner":"Crystal Buzhala","licenseNumber":"072654","licenseType":"Fixed Establishment","establishmentType":"Food Service Establishment","establishmentStatus":"Open","riskCategory":"Medium","reviewFrequencyDays":"335","coords":"-82.99716,42.40610","geojson":{"id":"2354","type":"Feature","geometry":{"type":"Point","coordinates":[-82.997158337,42.406099938]},"properties":{"name":"Aloha Coney Island","owner":"Crystal Buzhala","address":"10993 Gratiot Ave.","zipcode":"48213","license_type":"Fixed Establishment","risk_category":"Medium","license_number":"072654","establishmentid":"2354","establishment_type":"Food Service Establishment","establishment_status":"Open","review_frequency_days":"335","most_recent_license_date":"2014-04-23"}},"nearbyList":[{"establishmentid":"51622640","name":"Rio's Coney Island","address":"10993 Gratiot","zipcode":"48213"},{"establishmentid":"5003","name":"Coney Connection","address":"10993 Gratiot Ave.","zipcode":"48205"},{"establishmentid":"1145","name":"Great Wall Carryout Restaurant","address":"11065 Gratiot Ave.","zipcode":"48213"},{"establishmentid":"920","name":"Edward Duke Ellington Conservatory","address":"8030 Outer Drive E.","zipcode":"48213"},{"establishmentid":"248","name":"Apollo Catering","address":"11100 Conner","zipcode":"48213"},{"establishmentid":"1853","name":"Sterling Services","address":"11201 Conner","zipcode":"48213"},{"establishmentid":"2539","name":"Robinson Dairy Vending","address":"11187 Gratiot","zipcode":"48213"},{"establishmentid":"1311","name":"Long John Silvers #3464","address":"11288 Gratiot Ave.","zipcode":"48213"},{"establishmentid":"3670","name":"Long John Silvers","address":"11288 Gratiot Ave.","zipcode":"48213"},{"establishmentid":"51623085","name":"Long John Silvers","address":"11288 Gratiot","zipcode":"48213"}],"inspectionsByEstablishmentidList":[]}],"maxInspectionDate":[{"inspectionDate":"2023-04-25T00:00:00"}]}},"pageContext":{"eid":"2354"}},"staticQueryHashes":["3649515864","63159454"]}