{"data":{"postgres":{"establishment":[{"establishmentid":"51622831","name":"Soula Culinary Ambition LLC","address":"22735 Fenkell","zipcode":"48214","owner":"LaMonti R Mitchell","licenseNumber":"230551","licenseType":"Fixed Establishment","establishmentType":"Food Service Establishment","establishmentStatus":"Open","riskCategory":"Medium","reviewFrequencyDays":"180.0","coords":"-83.26621,42.39995","geojson":{"id":"51622831","type":"Feature","geometry":{"type":"Point","coordinates":[-83.2662144609999,42.399953877]},"properties":{"name":"Soula Culinary Ambition LLC","owner":"LaMonti R Mitchell","address":"22735 Fenkell","zipcode":"48214","license_type":"Fixed Establishment","risk_category":"Medium","license_number":"230551","establishmentid":"51622831","establishment_type":"Food Service Establishment","establishment_status":"Open","review_frequency_days":"180.0","most_recent_license_date":null}},"nearbyList":[{"establishmentid":"1710","name":"St. Christine's Community Soup Kitchen","address":"22261 Fenkell Ave","zipcode":"48223"},{"establishmentid":"239","name":"Scotty Simpsons Fish and Chips","address":"22200 Fenkell Ave","zipcode":"48223"},{"establishmentid":"2160","name":"Fifty/50","address":"23810 Fenkell Ave","zipcode":"48223"},{"establishmentid":"902","name":"Frank Murphy Performance Academy ","address":"23901 Fenkell Ave","zipcode":"48223"},{"establishmentid":"4283","name":"New Grandy's ","address":"22001 Fenkell Ave","zipcode":"48223"},{"establishmentid":"51622518","name":"New Grandy's","address":"22001 Fenkell Ave","zipcode":"48223"},{"establishmentid":"51622753","name":"Fred's Fish & Chicken","address":"21740 Fenkell Street","zipcode":"48223"},{"establishmentid":"5269","name":"Habibi Fish & Chicken","address":"21740 Fenkell","zipcode":"48223"},{"establishmentid":"4036","name":"Ronald Brown Academy (Annex)","address":"11450 E Outer Drive","zipcode":"48224"},{"establishmentid":"1331","name":"Restoration Towers","address":"16651 Lahser Rd","zipcode":"48219"},{"establishmentid":"51622451","name":"F & R Eatery","address":"21451 Fenkell","zipcode":"48223"},{"establishmentid":"523","name":"Chapeau Vert Lounge","address":"16550 Telegraph Rd","zipcode":"48219"},{"establishmentid":"4368","name":"Club Yesterdays","address":"14060 Telegraph Rd","zipcode":"48239"},{"establishmentid":"956","name":"La Chambre Lounge","address":"14090 Telegraph Rd","zipcode":"48239"},{"establishmentid":"4181","name":"Detroit Leadership Academy","address":"13550 Virgil","zipcode":"48223"},{"establishmentid":"2749","name":"Old Redford Academy","address":"17195 Redford Ave","zipcode":"48219"},{"establishmentid":"1610","name":"Sun China Restaurant","address":"16901 Telegraph Rd","zipcode":"48219"},{"establishmentid":"5196","name":"Captain Jay's Fish & Chicken #113","address":"21431 Grand River","zipcode":"48219"},{"establishmentid":"4249","name":"Crazy Joe's Pizza","address":"22019 Grand River Ave","zipcode":"48219"},{"establishmentid":"1942","name":"Kentucky Fried Chicken F428120","address":"22345 Grand River Ave","zipcode":"48219"}],"inspectionsByEstablishmentidList":[{"inspectionid":"43236","inspectionDate":"2018-08-23T00:00:00","inspectionType":"Routine Inspection","inCompliance":"Yes","violationsByInspectionidList":[]}]}]}},"pageContext":{"eid":"51622831"}}