{"componentChunkName":"component---src-templates-establishment-page-js","path":"/establishment/51622451","result":{"data":{"site":{"pathPrefix":"/restaurant-inspections"},"postgres":{"establishment":[{"establishmentid":"51622451","name":"F & R Eatery","address":"21451 Fenkell","zipcode":"48223","owner":"Felicia Pew/Rodney Burns","licenseNumber":"218027","licenseType":"Fixed Establishment","establishmentType":"Food Service Establishment","establishmentStatus":"Permanently Closed","riskCategory":null,"reviewFrequencyDays":null,"coords":"-83.25314,42.40024","geojson":{"id":"51622451","type":"Feature","geometry":{"type":"Point","coordinates":[-83.253137004,42.400242474]},"properties":{"name":"F & R Eatery","owner":"Felicia Pew/Rodney Burns","address":"21451 Fenkell","zipcode":"48223","license_type":"Fixed Establishment","risk_category":null,"license_number":"218027","establishmentid":"51622451","establishment_type":"Food Service Establishment","establishment_status":"Permanently Closed","review_frequency_days":null,"most_recent_license_date":null}},"nearbyList":[{"establishmentid":"4462","name":"Slabbee's","address":"21451 Fenkell Ave.","zipcode":"48223"},{"establishmentid":"1696","name":"Salvation Army/Detroit Brightmoor Corps","address":"15133 Burgess St.","zipcode":"48223"},{"establishmentid":"51623116","name":"AM Krispy Krunchy Chicken","address":"21740 Fenkell","zipcode":"48223"},{"establishmentid":"5269","name":"Habibi Fish & Chicken","address":"21740 Fenkell","zipcode":"48223"},{"establishmentid":"4283","name":"New Grandy's ","address":"22001 Fenkell Ave.","zipcode":"48223"},{"establishmentid":"2456","name":"Leke's Grandy's Coney Island","address":"22001 Fenkell Ave.","zipcode":"48223"},{"establishmentid":"51622518","name":"New Grandy's","address":"22001 Fenkell","zipcode":"48223"},{"establishmentid":"1521","name":"Mt. Vernon Missionary Baptist Church","address":"15125 Burt Rd.","zipcode":"48223"},{"establishmentid":"239","name":"Scotty Simpsons Fish and Chips","address":"22200 Fenkell Ave.","zipcode":"48223"},{"establishmentid":"1710","name":"St. Christine's Community Soup Kitchen","address":"22261 Fenkell Ave.","zipcode":"48223"}],"inspectionsByEstablishmentidList":[{"inspectionid":"38576","inspectionDate":"2017-04-25T00:00:00","inspectionType":"Routine Inspection","inCompliance":"Yes","violationsByInspectionidList":[{"violationCode":"6-301.14","violationDescription":"A sign or poster that notifies FOOD EMPLOYEES to wash their hands shall be provided at all HANDWASHING SINKS used by FOOD EMPLOYEES and shall be clearly visible to FOOD EMPLOYEES.\n","violationType":"Core","itemDescription":"Handwashing signage","subItem":"Not provided At hand sink","problemDescription":"Not provided","subProblem":"At hand sink","location":"KITCHEN","subLocation":null,"corrected":"False","daysToCorrect":"30","correctedDate":null,"correctionDescription":"Provide"}]}]}],"maxInspectionDate":[{"inspectionDate":"2022-08-31T00:00:00"}]}},"pageContext":{"eid":"51622451"}},"staticQueryHashes":["3649515864","63159454"]}