{"data":{"site":{"pathPrefix":"/restaurant-inspections"},"postgres":{"establishment":[{"establishmentid":"1991","name":"Mama's, Inc.","address":"14620 E Eight Mile Rd","zipcode":"48205","owner":"Violeta Vickie Juncaj","licenseNumber":"078343","licenseType":"Fixed Establishment","establishmentType":"Food Service Establishment","establishmentStatus":"Open","riskCategory":"High","reviewFrequencyDays":"180.0","coords":"-83.19102,42.44535","geojson":{"id":"1991","type":"Feature","geometry":{"type":"Point","coordinates":[-83.191016837,42.445345682]},"properties":{"name":"Mama's, Inc.","owner":"Violeta Vickie Juncaj","address":"14620 E Eight Mile Rd","zipcode":"48205","license_type":"Fixed Establishment","risk_category":"High","license_number":"078343","establishmentid":"1991","establishment_type":"Food Service Establishment","establishment_status":"Open","review_frequency_days":"180.0","most_recent_license_date":"4/26/2016"}},"nearbyList":[{"establishmentid":"4915","name":"The Jamaican Pot","address":"14615 W Eight Mile Rd","zipcode":"48235"},{"establishmentid":"5116","name":"Subway","address":"15000 E Eight Mile Rd","zipcode":"48205"},{"establishmentid":"2776","name":"Nu Wave Fish & Chicken","address":"15030 E Eight Mile Rd","zipcode":"48205"},{"establishmentid":"4286","name":"Jalen Rose Leadership Acadamy","address":"15000 Trojan St","zipcode":"48235"},{"establishmentid":"5157","name":"44 Burrito","address":"14015 W Eight Mile Rd","zipcode":"48235"},{"establishmentid":"5151","name":"Pop'n Smoke BBQ","address":"13849 W 8 Mile Rd","zipcode":"48235"},{"establishmentid":"3199","name":"Detroit Fish & Shrimp III","address":"20030 James Couzens","zipcode":"48235"},{"establishmentid":"51622621","name":"Da Catch LLC","address":"20449 Schaefer Hwy","zipcode":"48235"},{"establishmentid":"5373","name":"Schaefer Fish Market LLC","address":"20449 Schaefer Hwy","zipcode":"48235"},{"establishmentid":"2074","name":"Church's Fried Chicken #976","address":"13611 W Eight Mile Rd","zipcode":"48235"},{"establishmentid":"3380","name":"Subway","address":"335 Schaefer Hwy S","zipcode":"48217"},{"establishmentid":"1462","name":"Tubby's","address":"601 Schaefer Hwy S","zipcode":"48217"},{"establishmentid":"2130","name":"White Castle #38","address":"20409 James Couzens","zipcode":"48235"},{"establishmentid":"4343","name":"Subway","address":"13541 W Eight Mile Rd","zipcode":"48235"},{"establishmentid":"849","name":"Vernor Elementary","address":"13726 Pembroke","zipcode":"48235"},{"establishmentid":"5221","name":"Captain Jay's #119","address":"14420 Seven Mile Rd W","zipcode":"48235"},{"establishmentid":"4839","name":"Asian Corned Beef","address":"14820 Seven Mile Rd W","zipcode":"48235"},{"establishmentid":"2664","name":"Wendy's Old Fashioned Hamburgers #8633","address":"14401 W Seven Mile Rd","zipcode":"48235"},{"establishmentid":"4622","name":"Subway 51089","address":"19100 James Couzens","zipcode":"48235"},{"establishmentid":"588","name":"Hot Tamales","address":"13109 W Eight Mile Rd","zipcode":"48235"}],"inspectionsByEstablishmentidList":[]}]}},"pageContext":{"eid":"1991"}}