{"data":{"site":{"pathPrefix":"/restaurant-inspections"},"postgres":{"establishment":[{"establishmentid":"51623136","name":"Dr. Sushi","address":"2547 Bagley Ave","zipcode":"48216","owner":"Nicholas George","licenseNumber":"250441","licenseType":"Fixed Establishment","establishmentType":"Food Service Establishment","establishmentStatus":"Open","riskCategory":"Medium","reviewFrequencyDays":"180","coords":"-83.07747,42.32555","geojson":{"id":"51623136","type":"Feature","geometry":{"type":"Point","coordinates":[-83.077474942,42.325551349]},"properties":{"name":"Dr. Sushi","owner":"Nicholas George","address":"2547 Bagley Ave","zipcode":"48216","license_type":"Fixed Establishment","risk_category":"Medium","license_number":"250441","establishmentid":"51623136","establishment_type":"Food Service Establishment","establishment_status":"Open","review_frequency_days":"180","most_recent_license_date":null}},"nearbyList":[{"establishmentid":"5013","name":"Fist of Curry","address":"2547 Bagley Ave","zipcode":"48216"},{"establishmentid":"51622959","name":"Peso Bar","address":"2547 Bagley Street","zipcode":"48216"},{"establishmentid":"525","name":"Mexican Village Of Detroit","address":"2600 Bagley Street","zipcode":"48216"},{"establishmentid":"1056","name":"Tameleria Nuevo Leon","address":"2669 W Vernor","zipcode":"48216"},{"establishmentid":"51622952","name":"Escuela Avencemos/Acad ofAmerica's High ","address":"2635 Howard","zipcode":"48216"},{"establishmentid":"51623097","name":"Escuela Avencemos","address":"2635 Howard St","zipcode":"48216"},{"establishmentid":"1441","name":"Donovan's Pub","address":"3003 W Vernor","zipcode":"48216"},{"establishmentid":"3745","name":"Mercury Burger Bar","address":"2163 Michigan Ave","zipcode":"48216"},{"establishmentid":"51623048","name":"Cold Truth","address":"2135 Michigan Ave","zipcode":"48206"},{"establishmentid":"51622645","name":"Grandma Bobs Pizza","address":"2135 Michigan Ave","zipcode":"48216"}],"inspectionsByEstablishmentidList":[]}],"maxInspectionDate":[{"inspectionDate":"2020-10-30T00:00:00"}]}},"pageContext":{"eid":"51623136"}}