{"data":{"site":{"pathPrefix":"/restaurant-inspections"},"postgres":{"establishment":[{"establishmentid":"1222","name":"Edison Elementary School","address":"17045 Grand River Ave","zipcode":"48227","owner":"Detroit Board of Education","licenseNumber":"035323","licenseType":"Fixed Establishment","establishmentType":"Public School","establishmentStatus":"Open","riskCategory":null,"reviewFrequencyDays":"210.0","coords":"-83.21382,42.39708","geojson":{"id":"1222","type":"Feature","geometry":{"type":"Point","coordinates":[-83.213821426,42.3970780780001]},"properties":{"name":"Edison Elementary School","owner":"Detroit Board of Education","address":"17045 Grand River Ave","zipcode":"48227","license_type":"Fixed Establishment","risk_category":null,"license_number":"035323","establishmentid":"1222","establishment_type":"Public School","establishment_status":"Open","review_frequency_days":"210.0","most_recent_license_date":"5/15/2017"}},"nearbyList":[{"establishmentid":"5405","name":"It'z a Wrap","address":"17400 W Grand River","zipcode":"48227"},{"establishmentid":"2296","name":"Wendy's Old Fashioned Hamburgers #2259","address":"17420 Grand River Ave","zipcode":"48227"},{"establishmentid":"2691","name":"Checkers","address":"17630 Grand River Ave","zipcode":"48227"},{"establishmentid":"1501","name":"Tubby's Sub Shop #75","address":"16543 Grand River Ave","zipcode":"48227"},{"establishmentid":"2413","name":"White Castle #58","address":"17739 Grand River Ave","zipcode":"48227"},{"establishmentid":"2100","name":"Popeye's Chicken & Biscuits #6095","address":"17700 Grand River Ave","zipcode":"48227"},{"establishmentid":"5165","name":"Papa's Pizza","address":"16501 Grand River","zipcode":"48227"},{"establishmentid":"2649","name":"Subway #30489","address":"17776 Grand River Ave","zipcode":"48227"},{"establishmentid":"2386","name":"Kentucky Fried Chicken F428107","address":"17750 Fenkell Ave","zipcode":"48227"},{"establishmentid":"787","name":"Omega Grill","address":"18130 Fenkell Ave","zipcode":"48223"},{"establishmentid":"1582","name":"Communication and Media Arts School","address":"14771 Mansfield","zipcode":"48227"},{"establishmentid":"5417","name":"Brooklyn Fish and Chicken","address":"18354 Fenkell Ave","zipcode":"48223"},{"establishmentid":"2345","name":"Subway #11686/Mama Delucas","address":"18288 Grand River Ave","zipcode":"48223"},{"establishmentid":"2045","name":"McDonald's #567","address":"18403 Grand River Ave","zipcode":"48223"},{"establishmentid":"5237","name":"Metro Fish & Seafood LLC","address":"18440 Grand River","zipcode":"48223"},{"establishmentid":"51622571","name":"River Bistro Detroit","address":"18456 Grand River Ave","zipcode":"48223"},{"establishmentid":"2078","name":"Universal Coney Island","address":"15951 Grand River Ave","zipcode":"48227"},{"establishmentid":"2669","name":"Fish Express","address":"18509 Grand River Ave","zipcode":"48223"},{"establishmentid":"435","name":"Chita's Nefertiti's Bar","address":"15942 Grand River Ave","zipcode":"48227"},{"establishmentid":"1308","name":"Detroit Roller Wheels","address":"16611 Schoolcraft Rd","zipcode":"48227"}],"inspectionsByEstablishmentidList":[{"inspectionid":"43646","inspectionDate":"2018-10-02T00:00:00","inspectionType":"Routine Inspection","inCompliance":"Yes","violationsByInspectionidList":[{"violationCode":"4-501.11","violationDescription":"EQUIPMENT shall be maintained in a state of repair and condition that meets the requirements of the code.\r\n","violationType":"Core","itemDescription":"Equipment","subItem":"","problemDescription":"Broken","subProblem":"","location":"WARMER","subLocation":"","corrected":"Not required","daysToCorrect":"30.0","correctedDate":null,"correctionDescription":"Repair/replace."}]},{"inspectionid":"42107","inspectionDate":"2018-04-26T00:00:00","inspectionType":"Routine Inspection","inCompliance":"Yes","violationsByInspectionidList":[]},{"inspectionid":"40046","inspectionDate":"2017-09-20T00:00:00","inspectionType":"Routine Inspection","inCompliance":"Yes","violationsByInspectionidList":[]},{"inspectionid":"38807","inspectionDate":"2017-05-22T00:00:00","inspectionType":"Routine Inspection","inCompliance":"Yes","violationsByInspectionidList":[]},{"inspectionid":"36737","inspectionDate":"2016-10-12T00:00:00","inspectionType":"Routine Inspection","inCompliance":"Yes","violationsByInspectionidList":[]},{"inspectionid":"36738","inspectionDate":"2016-10-11T00:00:00","inspectionType":"Complaint","inCompliance":"Yes","violationsByInspectionidList":[]}]}]}},"pageContext":{"eid":"1222"}}