{"componentChunkName":"component---src-templates-establishment-page-js","path":"/establishment/51623585","result":{"data":{"site":{"pathPrefix":"/restaurant-inspections"},"postgres":{"establishment":[{"establishmentid":"51623585","name":"Red Tent BBQ and Rhythm","address":"9929 Brace St.","zipcode":"48228","owner":"Jasper Striggles","licenseNumber":"260863","licenseType":"Special Transitory Food Unit","establishmentType":"LHD - Special Transitory Food","establishmentStatus":"Open","riskCategory":"High","reviewFrequencyDays":"180","coords":"-83.22422,42.36774","geojson":{"id":"51623585","type":"Feature","geometry":{"type":"Point","coordinates":[-83.224218713,42.367743639]},"properties":{"name":"Red Tent BBQ and Rhythm","owner":"Jasper Striggles","address":"9929 Brace St.","zipcode":"48228","license_type":"Special Transitory Food Unit","risk_category":"High","license_number":"260863","establishmentid":"51623585","establishment_type":"LHD - Special Transitory Food","establishment_status":"Open","review_frequency_days":"180","most_recent_license_date":null}},"nearbyList":[{"establishmentid":"51623479","name":"Sterlings BBQ LLC","address":"11310 Warwick","zipcode":"48228"},{"establishmentid":"2525","name":"Koolies","address":"11450 Warwick","zipcode":"48228"},{"establishmentid":"2797","name":"Little Caesar's Pizza ","address":"18310 Chicago W.","zipcode":"48228"},{"establishmentid":"51622735","name":"The Custard Hut","address":"18435 Plymouth","zipcode":"48228"},{"establishmentid":"2457","name":"Pizza Hut #26322","address":"18435 Plymouth Rd.","zipcode":"48228"},{"establishmentid":"455","name":"Starters Lounge","address":"18426 Plymouth Rd.","zipcode":"48228"},{"establishmentid":"1931","name":"Tao's New China","address":"18345 Plymouth Rd.","zipcode":"48228"},{"establishmentid":"1898","name":"Silver Plate Coney Island","address":"18400 Plymouth Rd.","zipcode":"48228"},{"establishmentid":"4981","name":"Market Fresh Deli 1","address":"18200 Chicago W.","zipcode":"48228"},{"establishmentid":"51623880","name":"Market Fresh Deli (Oakland Co.)","address":"18200 W. Chicago ","zipcode":"48228"}],"inspectionsByEstablishmentidList":[{"inspectionid":"62124","inspectionDate":"2023-04-12T00:00:00","inspectionType":"Hot Dog Cart","inCompliance":"Yes","violationsByInspectionidList":[]}]}],"maxInspectionDate":[{"inspectionDate":"2023-04-25T00:00:00"}]}},"pageContext":{"eid":"51623585"}},"staticQueryHashes":["3649515864","63159454"]}