{"componentChunkName":"component---src-templates-establishment-page-js","path":"/establishment/51623760","result":{"data":{"site":{"pathPrefix":"/restaurant-inspections"},"postgres":{"establishment":[{"establishmentid":"51623760","name":"A 1 Fish & Chicken","address":"15209 Livernois","zipcode":"48238","owner":"Khaled Mohsen Zindani","licenseNumber":"PR22082A","licenseType":"Fixed Establishment","establishmentType":"Food Service Establishment","establishmentStatus":"Plan Review","riskCategory":null,"reviewFrequencyDays":null,"coords":"-83.14051,42.40232","geojson":{"id":"51623760","type":"Feature","geometry":{"type":"Point","coordinates":[-83.140513786,42.402317194]},"properties":{"name":"A 1 Fish & Chicken","owner":"Khaled Mohsen Zindani","address":"15209 Livernois","zipcode":"48238","license_type":"Fixed Establishment","risk_category":null,"license_number":"PR22082A","establishmentid":"51623760","establishment_type":"Food Service Establishment","establishment_status":"Plan Review","review_frequency_days":null,"most_recent_license_date":null}},"nearbyList":[{"establishmentid":"2235","name":"Tom's Place","address":"15209 Livernois","zipcode":"48238"},{"establishmentid":"4299","name":"Dream Wings","address":"15209 Livernois","zipcode":"48238"},{"establishmentid":"1192","name":"El-Lynn's Kitchen","address":"15201 Livernois Ave.","zipcode":"48238"},{"establishmentid":"3592","name":"Tropical Hut Lounge","address":"14925 Livernois Ave.","zipcode":"48238"},{"establishmentid":"51623243","name":"Backstreet at Large Multiplex","address":"14925 Livernois","zipcode":"48238"},{"establishmentid":"2796","name":"Peoples  Cafe","address":"14888 Livernois","zipcode":"48238"},{"establishmentid":"509","name":"Clark Restaurant","address":"7309 Fenkell","zipcode":"48238"},{"establishmentid":"1556","name":"Uptown Bar B Que","address":"15700 Livernois Ave.","zipcode":"48238"},{"establishmentid":"3478","name":"Joy Preparatory Academy - Dexter Campus","address":"15055  Dexter Ave.","zipcode":"48238"},{"establishmentid":"51622933","name":"Dexter Dairy and Deli","address":"15314 Dexter","zipcode":"48238"}],"inspectionsByEstablishmentidList":[{"inspectionid":"59936","inspectionDate":"2022-08-04T00:00:00","inspectionType":"Preopening/New","inCompliance":"No","violationsByInspectionidList":[{"violationCode":"5-205.15","violationDescription":"A PLUMBING SYSTEM shall be:\n(A) Repaired according to LAW; (P) and\n(B) Maintained in good repair.\n","violationType":"Priority","itemDescription":"Plumbing system","subItem":"drain line(s)","problemDescription":"Not maintained","subProblem":null,"location":"COOKING AREA","subLocation":"The Prep sink","corrected":"True","daysToCorrect":"10","correctedDate":"2022-08-05T00:00:00","correctionDescription":"Maintain in good repair"}]}]}],"maxInspectionDate":[{"inspectionDate":"2022-08-31T00:00:00"}]}},"pageContext":{"eid":"51623760"}},"staticQueryHashes":["3649515864","63159454"]}