{"data":{"site":{"pathPrefix":"/restaurant-inspections"},"postgres":{"establishment":[{"establishmentid":"3854","name":"Salvation Army #2","address":"3737 Lawton St","zipcode":"48208","owner":"Salvation Army","licenseNumber":"038006","licenseType":"Mobile Food Establishment","establishmentType":"LHD - Mobile Food Establishmen","establishmentStatus":"Seasonal","riskCategory":null,"reviewFrequencyDays":"210","coords":"-83.09026,42.33823","geojson":{"id":"3854","type":"Feature","geometry":{"type":"Point","coordinates":[-83.090262927,42.338228243]},"properties":{"name":"Salvation Army #2","owner":"Salvation Army","address":"3737 Lawton St","zipcode":"48208","license_type":"Mobile Food Establishment","risk_category":null,"license_number":"038006","establishmentid":"3854","establishment_type":"LHD - Mobile Food Establishmen","establishment_status":"Seasonal","review_frequency_days":"210","most_recent_license_date":"5/11/2020"}},"nearbyList":[{"establishmentid":"2727","name":"Salvation Army","address":"3737 Lawton St","zipcode":"48208"},{"establishmentid":"5064","name":"Salvation Army #12","address":"3737 Lawton St","zipcode":"48208"},{"establishmentid":"3856","name":"Salvation Army #4","address":"3737 Lawton St","zipcode":"48208"},{"establishmentid":"3855","name":"Salvation Army #3","address":"3737 Lawton St","zipcode":"48208"},{"establishmentid":"3853","name":"Salvation Army #1","address":"3737 Lawton St","zipcode":"48208"},{"establishmentid":"1527","name":"Ferguson Building","address":"2750 Selden St","zipcode":"48208"},{"establishmentid":"4673","name":"Covenant Central-Covenent House Michigan","address":"2959 Martin Luther King ","zipcode":"48208"},{"establishmentid":"51622907","name":"Covenant House Academy-Central","address":"2959 Martin Luther King Blvd","zipcode":"48208"},{"establishmentid":"1640","name":"University of Detroit Dental School","address":"2700 Martin L King Jr. Blvd","zipcode":"48208"},{"establishmentid":"595","name":"Hy-Grade Delicatessen Restaurant, Inc.","address":"3640 Michigan Ave","zipcode":"48216"}],"inspectionsByEstablishmentidList":[{"inspectionid":"51917","inspectionDate":"2020-07-01T00:00:00","inspectionType":"Mobile Inspection","inCompliance":"Yes","violationsByInspectionidList":[{"violationCode":"7-201.11","violationDescription":"POISONOUS OR TOXIC MATERIAL shall be stored so they can not contaminate FOOD, EQUIPMENT, UTENSILS, LINENS, AND SINGLE-SERVICE AND SINGLE-USE ARTICLES by:   \r\n(A) Separating the POISONOUS OR TOXIC MATERIAL by spacing or partitioning; (P) and   \r\n(B) Locating the POISONOUS OR TOXIC MATERIAL in an area that is not above FOOD, EQUIPMENT, UTENSILS, LINENS, AND SINGLE-SERVICE AND SINGLE-USE ARTICLES.  This paragraph does not apply to EQUIPMENT and UTENSIL cleaners and sanitizers that are stored in WAREWASHING areas for availability and convenience if the materials are stored to prevent contamination of FOOD, EQUIPMENT, UTENSILS, LINENS, AND SINGLE-SERVICE and SINGLE-USE ARTICLES. (P)","violationType":"Priority","itemDescription":"Poisonous/toxic material(s)","subItem":"","problemDescription":"Not separated from","subProblem":"Single-service items","location":"TRUCK","subLocation":"On the Shelf","corrected":"Yes","daysToCorrect":"10","correctedDate":"2020-07-01T00:00:00","correctionDescription":null}]}]}],"maxInspectionDate":[{"inspectionDate":"2020-10-30T00:00:00"}]}},"pageContext":{"eid":"3854"}}