{"componentChunkName":"component---src-templates-establishment-page-js","path":"/establishment/51623959","result":{"data":{"site":{"pathPrefix":"/restaurant-inspections"},"postgres":{"establishment":[{"establishmentid":"51623959","name":"Cutz Cafe","address":"19655 Grand River Ave.","zipcode":"48223","owner":"Dante Williams","licenseNumber":"PR23013A","licenseType":"Fixed Establishment","establishmentType":"Food Service Establishment","establishmentStatus":"Plan Review","riskCategory":null,"reviewFrequencyDays":null,"coords":"-83.23629,42.40769","geojson":{"id":"51623959","type":"Feature","geometry":{"type":"Point","coordinates":[-83.236291331,42.407689347]},"properties":{"name":"Cutz Cafe","owner":"Dante Williams","address":"19655 Grand River Ave.","zipcode":"48223","license_type":"Fixed Establishment","risk_category":null,"license_number":"PR23013A","establishmentid":"51623959","establishment_type":"Food Service Establishment","establishment_status":"Plan Review","review_frequency_days":null,"most_recent_license_date":null}},"nearbyList":[{"establishmentid":"2344","name":"Auntie Betty's Cafe","address":"19601 Grand River Ave.","zipcode":"48223"},{"establishmentid":"5412","name":"Detroit Vegan Soul","address":"19614 Grand River","zipcode":"48223"},{"establishmentid":"1369","name":"Blue Moon","address":"19614 Grand River Ave.","zipcode":"48223"},{"establishmentid":"51623705","name":"Pressed Juice Bar LLC (Juicing with Jai)","address":"19550 Grand River","zipcode":"48223"},{"establishmentid":"685","name":"George's Ham and Corned Beef","address":"19505 Grand River Ave.","zipcode":"48223"},{"establishmentid":"51623214","name":"Lemonade & Beyond","address":"19361 Bretton","zipcode":"48223"},{"establishmentid":"1373","name":"Burger King #4441","address":"20200 Grand River Ave.","zipcode":"48219"},{"establishmentid":"3284","name":"PJ Vending","address":"16716 Plainview","zipcode":"48219"},{"establishmentid":"3128","name":"PJ Vending","address":"16716 Plainview","zipcode":"48219"},{"establishmentid":"1958","name":"Hollywood Coney Island","address":"20240 Grand River Ave.","zipcode":"48219"}],"inspectionsByEstablishmentidList":[]}],"maxInspectionDate":[{"inspectionDate":"2023-04-13T00:00:00"}]}},"pageContext":{"eid":"51623959"}},"staticQueryHashes":["3649515864","63159454"]}